addressid,ADDRESSLINE1,ADDRESSLINE2,CITY,STATE,POSTALCODE,COUNTRY,TERRITORY
0,897 Long Airport Avenue,,NYC,NY,10022,USA,
1,59 rue de l'Abbaye,,Reims,,51100,France,EMEA
2,27 rue du Colonel Pierre Avia,,Paris,,75508,France,EMEA
3,78934 Hillside Dr.,,Pasadena,CA,90003,USA,
4,7734 Strong St.,,San Francisco,CA,,USA,
5,9408 Furth Circle,,Burlingame,CA,94217,USA,
6,"184, chausse de Tournai",,Lille,,59000,France,EMEA
7,"Drammen 121, PR 744 Sentrum",,Bergen,,N 5804,Norway,EMEA
8,5557 North Pendale Street,,San Francisco,CA,,USA,
9,"25, rue Lauriston",,Paris,,75016,France,EMEA
10,636 St Kilda Road,Level 3,Melbourne,Victoria,3004,Australia,APAC
11,2678 Kingston Rd.,Suite 101,NYC,NY,10022,USA,
12,7476 Moss Rd.,,Newark,NJ,94019,USA,
13,25593 South Bay Ln.,,Bridgewater,CT,97562,USA,
14,"67, rue des Cinquante Otages",,Nantes,,44000,France,EMEA
15,39323 Spinnaker Dr.,,Cambridge,MA,51247,USA,
16,Keskuskatu 45,,Helsinki,,21240,Finland,EMEA
17,Erling Skakkes gate 78,,Stavern,,4110,Norway,EMEA
18,7586 Pompton St.,,Allentown,PA,70267,USA,
19,897 Long Airport Avenue,,NYC,NY,10022,USA,
20,Geislweg 14,,Salzburg,,5020,Austria,EMEA
21,"Monitor Money Building, 815 Pacific Hwy",Level 6,Chatswood,NSW,2067,Australia,APAC
22,"67, rue des Cinquante Otages",,Nantes,,44000,France,EMEA
23,1785 First Street,,New Bedford,MA,50553,USA,
24,Berkeley Gardens 12  Brewery,,Liverpool,,WX1 6LT,UK,EMEA
25,"C/ Moralzarzal, 86",,Madrid,,28034,Spain,EMEA
26,Erling Skakkes gate 78,,Stavern,,4110,Norway,EMEA
27,Berguvsv„gen  8,,Lule,,S-958 22,Sweden,EMEA
28,"C/ Araquil, 67",,Madrid,,28023,Spain,EMEA
29,9408 Furth Circle,,Burlingame,CA,94217,USA,
30,"Bronz Sok., Bronz Apt. 3/6 Tesvikiye",,Singapore,,79903,Singapore,Japan
31,5905 Pompton St.,Suite 750,NYC,NY,10022,USA,
32,31 Duncan St. West End,,South Brisbane,Queensland,4101,Australia,APAC
33,782 First Street,,Philadelphia,PA,71270,USA,
34,"2, rue du Commerce",,Lyon,,69004,France,EMEA
35,1900 Oak St.,,Vancouver,BC,V3F 2K1,Canada,
36,3675 Furth Circle,,Burbank,CA,94019,USA,
37,4658 Baden Av.,,Cambridge,MA,51247,USA,
38,567 North Pendale Street,,New Haven,CT,97823,USA,
39,2-2-8 Roppongi,,Minato-ku,Tokyo,106-0032,Japan,Japan
21,"Monitor Money Building, 815 Pacific Hwy",Level 6,Chatswood,NSW,2067,Australia,APAC
41,Via Monte Bianco 34,,Torino,,10100,Italy,EMEA
42,?kergatan 24,,Boras,,S-844 67,Sweden,EMEA
43,"67, avenue de l'Europe",,Versailles,,78000,France,EMEA
44,5677 Strong St.,,San Rafael,CA,97562,USA,
45,2304 Long Airport Avenue,,Nashua,NH,62005,USA,
46,5557 North Pendale Street,,San Francisco,CA,,USA,
10,636 St Kilda Road,Level 3,Melbourne,Victoria,3004,Australia,APAC
48,5677 Strong St.,,San Rafael,CA,97562,USA,
49,7825 Douglas Av.,,Brickhaven,MA,58339,USA,
50,7734 Strong St.,,San Francisco,CA,,USA,
51,201 Miller Street,Level 15,North Sydney,NSW,2060,Australia,APAC
52,43 rue St. Laurent,,Montreal,Quebec,H1J 1C3,Canada,
53,"C/ Moralzarzal, 86",,Madrid,,28034,Spain,EMEA
54,897 Long Airport Avenue,,NYC,NY,10022,USA,
10,636 St Kilda Road,Level 3,Melbourne,Victoria,3004,Australia,APAC
56,27 rue du Colonel Pierre Avia,,Paris,,75508,France,EMEA
57,78934 Hillside Dr.,,Pasadena,CA,90003,USA,
58,7734 Strong St.,,San Francisco,CA,,USA,
59,9408 Furth Circle,,Burlingame,CA,94217,USA,
60,"184, chausse de Tournai",,Lille,,59000,France,EMEA
61,"Drammen 121, PR 744 Sentrum",,Bergen,,N 5804,Norway,EMEA
62,5557 North Pendale Street,,San Francisco,CA,,USA,
63,"Dojima Avanza 4F, 1-6-20 Dojima, Kita-ku",,Osaka,Osaka,530-0003,Japan,Japan
10,636 St Kilda Road,Level 3,Melbourne,Victoria,3004,Australia,APAC
65,11328 Douglas Av.,,Philadelphia,PA,71270,USA,
66,7476 Moss Rd.,,Newark,NJ,94019,USA,
67,25593 South Bay Ln.,,Bridgewater,CT,97562,USA,
68,"67, rue des Cinquante Otages",,Nantes,,44000,France,EMEA
69,39323 Spinnaker Dr.,,Cambridge,MA,51247,USA,
70,"54, rue Royale",,Nantes,,44000,France,EMEA
71,3758 North Pendale Street,,White Plains,NY,24067,USA,
72,7586 Pompton St.,,Allentown,PA,70267,USA,
73,897 Long Airport Avenue,,NYC,NY,10022,USA,
74,2-2-8 Roppongi,,Minato-ku,Tokyo,106-0032,Japan,Japan
21,"Monitor Money Building, 815 Pacific Hwy",Level 6,Chatswood,NSW,2067,Australia,APAC
76,31 Duncan St. West End,,South Brisbane,Queensland,4101,Australia,APAC
77,1785 First Street,,New Bedford,MA,50553,USA,
78,"25, rue Lauriston",,Paris,,75016,France,EMEA
79,"C/ Moralzarzal, 86",,Madrid,,28034,Spain,EMEA
80,897 Long Airport Avenue,,NYC,NY,10022,USA,
10,636 St Kilda Road,Level 3,Melbourne,Victoria,3004,Australia,APAC
82,27 rue du Colonel Pierre Avia,,Paris,,75508,France,EMEA
83,78934 Hillside Dr.,,Pasadena,CA,90003,USA,
84,7734 Strong St.,,San Francisco,CA,,USA,
85,9408 Furth Circle,,Burlingame,CA,94217,USA,
86,"184, chausse de Tournai",,Lille,,59000,France,EMEA
87,"Drammen 121, PR 744 Sentrum",,Bergen,,N 5804,Norway,EMEA
88,5557 North Pendale Street,,San Francisco,CA,,USA,
89,"Dojima Avanza 4F, 1-6-20 Dojima, Kita-ku",,Osaka,Osaka,530-0003,Japan,Japan
10,636 St Kilda Road,Level 3,Melbourne,Victoria,3004,Australia,APAC
91,2678 Kingston Rd.,Suite 101,NYC,NY,10022,USA,
92,7476 Moss Rd.,,Newark,NJ,94019,USA,
93,25593 South Bay Ln.,,Bridgewater,CT,97562,USA,
94,"67, rue des Cinquante Otages",,Nantes,,44000,France,EMEA
95,39323 Spinnaker Dr.,,Cambridge,MA,51247,USA,
96,Keskuskatu 45,,Helsinki,,21240,Finland,EMEA
97,3758 North Pendale Street,,White Plains,NY,24067,USA,
98,7586 Pompton St.,,Allentown,PA,70267,USA,
99,897 Long Airport Avenue,,NYC,NY,10022,USA,
100,2-2-8 Roppongi,,Minato-ku,Tokyo,106-0032,Japan,Japan
101,9408 Furth Circle,,Burlingame,CA,94217,USA,
102,31 Duncan St. West End,,South Brisbane,Queensland,4101,Australia,APAC
103,1785 First Street,,New Bedford,MA,50553,USA,
104,Berkeley Gardens 12  Brewery,,Liverpool,,WX1 6LT,UK,EMEA
105,"C/ Moralzarzal, 86",,Madrid,,28034,Spain,EMEA
106,Vinb'ltet 34,,Kobenhavn,,1734,Denmark,EMEA
107,Geislweg 14,,Salzburg,,5020,Austria,EMEA
108,35 King George,,London,,WX3 6FW,UK,EMEA
109,4575 Hillside Dr.,,New Bedford,MA,50553,USA,
110,Keskuskatu 45,,Helsinki,,21240,Finland,EMEA
111,?kergatan 24,,Boras,,S-844 67,Sweden,EMEA
112,1 rue Alsace-Lorraine,,Toulouse,,31000,France,EMEA
113,120 Hanover Sq.,,London,,WA1 1DP,UK,EMEA
114,"Rambla de Catalu¤a, 23",,Barcelona,,8022,Spain,EMEA
115,6047 Douglas Av.,,Los Angeles,CA,,USA,
116,361 Furth Circle,,San Diego,CA,91217,USA,
117,897 Long Airport Avenue,,NYC,NY,10022,USA,
118,43 rue St. Laurent,,Montreal,Quebec,H1J 1C3,Canada,
119,Rue Joseph-Bens 532,,Bruxelles,,B-1180,Belgium,EMEA
120,23 Tsawassen Blvd.,,Tsawassen,BC,T2F 8M4,Canada,
121,8616 Spinnaker Dr.,,Boston,MA,51003,USA,
122,782 First Street,,Philadelphia,PA,71270,USA,
123,Garden House Crowther Way,,Cowes,Isle of Wight,PO31 7PJ,UK,EMEA
124,Erling Skakkes gate 78,,Stavern,,4110,Norway,EMEA
125,5905 Pompton St.,Suite 750,NYC,NY,10022,USA,
126,"C/ Moralzarzal, 86",,Madrid,,28034,Spain,EMEA
127,59 rue de l'Abbaye,,Reims,,51100,France,EMEA
128,Torikatu 38,,Oulu,,90110,Finland,EMEA
129,7734 Strong St.,,San Francisco,CA,,USA,
130,27 rue du Colonel Pierre Avia,,Paris,,75508,France,EMEA
131,3086 Ingle Ln.,,San Jose,CA,94217,USA,
132,8616 Spinnaker Dr.,,Boston,MA,51003,USA,
133,Erling Skakkes gate 78,,Stavern,,4110,Norway,EMEA
134,"265, boulevard Charonne",,Paris,,75012,France,EMEA
135,"C/ Araquil, 67",,Madrid,,28023,Spain,EMEA
136,9408 Furth Circle,,Burlingame,CA,94217,USA,
137,"Bronz Sok., Bronz Apt. 3/6 Tesvikiye",,Singapore,,79903,Singapore,Japan
138,Kirchgasse 6,,Graz,,8010,Austria,EMEA
139,35 King George,,London,,WX3 6FW,UK,EMEA
140,782 First Street,,Philadelphia,PA,71270,USA,
141,"2, rue du Commerce",,Lyon,,69004,France,EMEA
142,6251 Ingle Ln.,,Boston,MA,51003,USA,
143,Village Close - 106 Linden Road Sandown,2nd Floor,Singapore,,69045,Singapore,APAC
144,5677 Strong St.,,San Rafael,CA,97562,USA,
145,567 North Pendale Street,,New Haven,CT,97823,USA,
146,Village Close - 106 Linden Road Sandown,2nd Floor,Singapore,,69045,Singapore,APAC
21,"Monitor Money Building, 815 Pacific Hwy",Level 6,Chatswood,NSW,2067,Australia,APAC
148,7586 Pompton St.,,Allentown,PA,70267,USA,
149,?kergatan 24,,Boras,,S-844 67,Sweden,EMEA
150,39323 Spinnaker Dr.,,Cambridge,MA,51247,USA,
151,1900 Oak St.,,Vancouver,BC,V3F 2K1,Canada,
152,2304 Long Airport Avenue,,Nashua,NH,62005,USA,
153,Berguvsv„gen  8,,Lule,,S-958 22,Sweden,EMEA
10,636 St Kilda Road,Level 3,Melbourne,Victoria,3004,Australia,APAC
155,5677 Strong St.,,San Rafael,CA,97562,USA,
51,201 Miller Street,Level 15,North Sydney,NSW,2060,Australia,APAC
157,7734 Strong St.,,San Francisco,CA,,USA,
51,201 Miller Street,Level 15,North Sydney,NSW,2060,Australia,APAC
159,43 rue St. Laurent,,Montreal,Quebec,H1J 1C3,Canada,
160,"67, rue des Cinquante Otages",,Nantes,,44000,France,EMEA
161,15 McCallum Street - NatWest Center #13-03,,Makati City,,1227 MM,Philippines,Japan
162,"12, rue des Bouchers",,Marseille,,13008,France,EMEA
163,5677 Strong St.,,San Rafael,CA,97562,USA,
164,7825 Douglas Av.,,Brickhaven,MA,58339,USA,
165,7734 Strong St.,,San Francisco,CA,,USA,
51,201 Miller Street,Level 15,North Sydney,NSW,2060,Australia,APAC
167,"Drammen 121, PR 744 Sentrum",,Bergen,,N 5804,Norway,EMEA
168,Mehrheimerstr. 369,,Koln,,50739,Germany,EMEA
169,"C/ Moralzarzal, 86",,Madrid,,28034,Spain,EMEA
170,"25, rue Lauriston",,Paris,,75016,France,EMEA
171,Grenzacherweg 237,,Gensve,,1203,Switzerland,EMEA
172,Vinb'ltet 34,,Kobenhavn,,1734,Denmark,EMEA
173,Berkeley Gardens 12  Brewery,,Liverpool,,WX1 6LT,UK,EMEA
174,Strada Provinciale 124,,Reggio Emilia,,42100,Italy,EMEA
175,7635 Spinnaker Dr.,,Brickhaven,MA,58339,USA,
176,Grenzacherweg 237,,Gensve,,1203,Switzerland,EMEA
177,Lyonerstr. 34,,Frankfurt,,60528,Germany,EMEA
178,Mehrheimerstr. 369,,Koln,,50739,Germany,EMEA
179,Berguvsv„gen  8,,Lule,,S-958 22,Sweden,EMEA
180,897 Long Airport Avenue,,NYC,NY,10022,USA,
181,Geislweg 14,,Salzburg,,5020,Austria,EMEA
182,"Software Engineering Center, SEC Oy",,Espoo,,FIN-02271,Finland,EMEA
183,"67, rue des Cinquante Otages",,Nantes,,44000,France,EMEA
184,?kergatan 24,,Boras,,S-844 67,Sweden,EMEA
185,Geislweg 14,,Salzburg,,5020,Austria,EMEA
186,Vinb'ltet 34,,Kobenhavn,,1734,Denmark,EMEA
187,"Bronz Sok., Bronz Apt. 3/6 Tesvikiye",,Singapore,,79903,Singapore,Japan
188,4092 Furth Circle,Suite 400,NYC,NY,10022,USA,
189,5677 Strong St.,,San Rafael,CA,97562,USA,
190,"C/ Moralzarzal, 86",,Madrid,,28034,Spain,EMEA
191,"Bronz Sok., Bronz Apt. 3/6 Tesvikiye",,Singapore,,79903,Singapore,Japan
192,Strada Provinciale 124,,Reggio Emilia,,42100,Italy,EMEA
193,4575 Hillside Dr.,,New Bedford,MA,50553,USA,
194,567 North Pendale Street,,New Haven,CT,97823,USA,
195,"2, rue du Commerce",,Lyon,,69004,France,EMEA
196,25 Maiden Lane,Floor No. 4,Dublin,,2,Ireland,EMEA
197,"Merchants House, 27-30 Merchant's Quay",,Madrid,,28023,Spain,EMEA
198,"Software Engineering Center, SEC Oy",,Espoo,,FIN-02271,Finland,EMEA
199,7586 Pompton St.,,Allentown,PA,70267,USA,
200,5677 Strong St.,,San Rafael,CA,97562,USA,
201,Via Monte Bianco 34,,Torino,,10100,Italy,EMEA
202,Fauntleroy Circus,,Manchester,,EC2 5NT,UK,EMEA
203,Smagsloget 45,,Aaarhus,,8200,Denmark,EMEA
204,Erling Skakkes gate 78,,Stavern,,4110,Norway,EMEA
205,"265, boulevard Charonne",,Paris,,75012,France,EMEA
206,"C/ Araquil, 67",,Madrid,,28023,Spain,EMEA
207,59 rue de l'Abbaye,,Reims,,51100,France,EMEA
208,5677 Strong St.,,San Rafael,CA,97562,USA,
209,5677 Strong St.,,San Rafael,CA,97562,USA,
210,27 rue du Colonel Pierre Avia,,Paris,,75508,France,EMEA
211,25593 South Bay Ln.,,Bridgewater,CT,97562,USA,
212,Erling Skakkes gate 78,,Stavern,,4110,Norway,EMEA
213,5677 Strong St.,,San Rafael,CA,97562,USA,
214,"C/ Araquil, 67",,Madrid,,28023,Spain,EMEA
215,9408 Furth Circle,,Burlingame,CA,94217,USA,
216,"Bronz Sok., Bronz Apt. 3/6 Tesvikiye",,Singapore,,79903,Singapore,Japan
217,Kirchgasse 6,,Graz,,8010,Austria,EMEA
218,31 Duncan St. West End,,South Brisbane,Queensland,4101,Australia,APAC
219,782 First Street,,Philadelphia,PA,71270,USA,
220,"2, rue du Commerce",,Lyon,,69004,France,EMEA
221,1900 Oak St.,,Vancouver,BC,V3F 2K1,Canada,
222,"67, avenue de l'Europe",,Versailles,,78000,France,EMEA
223,5677 Strong St.,,San Rafael,CA,97562,USA,
224,567 North Pendale Street,,New Haven,CT,97823,USA,
225,2-2-8 Roppongi,,Minato-ku,Tokyo,106-0032,Japan,Japan
21,"Monitor Money Building, 815 Pacific Hwy",Level 6,Chatswood,NSW,2067,Australia,APAC
227,7586 Pompton St.,,Allentown,PA,70267,USA,
228,?kergatan 24,,Boras,,S-844 67,Sweden,EMEA
229,"67, avenue de l'Europe",,Versailles,,78000,France,EMEA
230,1900 Oak St.,,Vancouver,BC,V3F 2K1,Canada,
231,2304 Long Airport Avenue,,Nashua,NH,62005,USA,
232,5557 North Pendale Street,,San Francisco,CA,,USA,
10,636 St Kilda Road,Level 3,Melbourne,Victoria,3004,Australia,APAC
234,5677 Strong St.,,San Rafael,CA,97562,USA,
51,201 Miller Street,Level 15,North Sydney,NSW,2060,Australia,APAC
236,7734 Strong St.,,San Francisco,CA,,USA,
51,201 Miller Street,Level 15,North Sydney,NSW,2060,Australia,APAC
238,43 rue St. Laurent,,Montreal,Quebec,H1J 1C3,Canada,
239,"C/ Moralzarzal, 86",,Madrid,,28034,Spain,EMEA
240,897 Long Airport Avenue,,NYC,NY,10022,USA,
241,59 rue de l'Abbaye,,Reims,,51100,France,EMEA
242,27 rue du Colonel Pierre Avia,,Paris,,75508,France,EMEA
243,78934 Hillside Dr.,,Pasadena,CA,90003,USA,
244,7734 Strong St.,,San Francisco,CA,,USA,
51,201 Miller Street,Level 15,North Sydney,NSW,2060,Australia,APAC
246,"184, chausse de Tournai",,Lille,,59000,France,EMEA
247,78934 Hillside Dr.,,Pasadena,CA,90003,USA,
248,5557 North Pendale Street,,San Francisco,CA,,USA,
249,"25, rue Lauriston",,Paris,,75016,France,EMEA
250,"184, chausse de Tournai",,Lille,,59000,France,EMEA
251,2678 Kingston Rd.,Suite 101,NYC,NY,10022,USA,
252,7476 Moss Rd.,,Newark,NJ,94019,USA,
253,25593 South Bay Ln.,,Bridgewater,CT,97562,USA,
254,7635 Spinnaker Dr.,,Brickhaven,MA,58339,USA,
255,39323 Spinnaker Dr.,,Cambridge,MA,51247,USA,
256,Keskuskatu 45,,Helsinki,,21240,Finland,EMEA
257,Erling Skakkes gate 78,,Stavern,,4110,Norway,EMEA
258,5290 North Pendale Street,Suite 200,NYC,NY,10022,USA,
259,897 Long Airport Avenue,,NYC,NY,10022,USA,
260,Geislweg 14,,Salzburg,,5020,Austria,EMEA
261,9408 Furth Circle,,Burlingame,CA,94217,USA,
262,"67, rue des Cinquante Otages",,Nantes,,44000,France,EMEA
263,1785 First Street,,New Bedford,MA,50553,USA,
264,Berkeley Gardens 12  Brewery,,Liverpool,,WX1 6LT,UK,EMEA
265,"C/ Moralzarzal, 86",,Madrid,,28034,Spain,EMEA
266,"C/ Moralzarzal, 86",,Madrid,,28034,Spain,EMEA
267,"Bronz Sok., Bronz Apt. 3/6 Tesvikiye",,Singapore,,79903,Singapore,Japan
268,4092 Furth Circle,Suite 400,NYC,NY,10022,USA,
269,5677 Strong St.,,San Rafael,CA,97562,USA,
270,"C/ Moralzarzal, 86",,Madrid,,28034,Spain,EMEA
271,"Bronz Sok., Bronz Apt. 3/6 Tesvikiye",,Singapore,,79903,Singapore,Japan
272,Strada Provinciale 124,,Reggio Emilia,,42100,Italy,EMEA
273,4575 Hillside Dr.,,New Bedford,MA,50553,USA,
274,567 North Pendale Street,,New Haven,CT,97823,USA,
275,"2, rue du Commerce",,Lyon,,69004,France,EMEA
276,25 Maiden Lane,Floor No. 4,Dublin,,2,Ireland,EMEA
277,Lyonerstr. 34,,Frankfurt,,60528,Germany,EMEA
278,"Software Engineering Center, SEC Oy",,Espoo,,FIN-02271,Finland,EMEA
279,7586 Pompton St.,,Allentown,PA,70267,USA,
280,5677 Strong St.,,San Rafael,CA,97562,USA,
281,Via Monte Bianco 34,,Torino,,10100,Italy,EMEA
282,Fauntleroy Circus,,Manchester,,EC2 5NT,UK,EMEA
283,Smagsloget 45,,Aaarhus,,8200,Denmark,EMEA
284,2678 Kingston Rd.,Suite 101,NYC,NY,10022,USA,
285,"265, boulevard Charonne",,Paris,,75012,France,EMEA
286,"C/ Araquil, 67",,Madrid,,28023,Spain,EMEA
287,"C/ Moralzarzal, 86",,Madrid,,28034,Spain,EMEA
288,2-2-8 Roppongi,,Minato-ku,Tokyo,106-0032,Japan,Japan
289,5677 Strong St.,,San Rafael,CA,97562,USA,
290,25593 South Bay Ln.,,Bridgewater,CT,97562,USA,
291,15 McCallum Street - NatWest Center #13-03,,Makati City,,1227 MM,Philippines,Japan
292,"12, rue des Bouchers",,Marseille,,13008,France,EMEA
293,5677 Strong St.,,San Rafael,CA,97562,USA,
294,7825 Douglas Av.,,Brickhaven,MA,58339,USA,
295,6047 Douglas Av.,,Los Angeles,CA,,USA,
296,Kirchgasse 6,,Graz,,8010,Austria,EMEA
297,"Drammen 121, PR 744 Sentrum",,Bergen,,N 5804,Norway,EMEA
298,Mehrheimerstr. 369,,Koln,,50739,Germany,EMEA
299,"C/ Moralzarzal, 86",,Madrid,,28034,Spain,EMEA
300,"C/ Moralzarzal, 86",,Madrid,,28034,Spain,EMEA
301,Grenzacherweg 237,,Gensve,,1203,Switzerland,EMEA
302,Vinb'ltet 34,,Kobenhavn,,1734,Denmark,EMEA
303,Berkeley Gardens 12  Brewery,,Liverpool,,WX1 6LT,UK,EMEA
304,Strada Provinciale 124,,Reggio Emilia,,42100,Italy,EMEA
305,7635 Spinnaker Dr.,,Brickhaven,MA,58339,USA,
306,Grenzacherweg 237,,Gensve,,1203,Switzerland,EMEA
307,Lyonerstr. 34,,Frankfurt,,60528,Germany,EMEA
308,Mehrheimerstr. 369,,Koln,,50739,Germany,EMEA
309,Berguvsv„gen  8,,Lule,,S-958 22,Sweden,EMEA
310,897 Long Airport Avenue,,NYC,NY,10022,USA,
311,Geislweg 14,,Salzburg,,5020,Austria,EMEA
312,"Software Engineering Center, SEC Oy",,Espoo,,FIN-02271,Finland,EMEA
313,4097 Douglas Av.,,Glendale,CA,92561,USA,
314,?kergatan 24,,Boras,,S-844 67,Sweden,EMEA
315,Geislweg 14,,Salzburg,,5020,Austria,EMEA
316,Vinb'ltet 34,,Kobenhavn,,1734,Denmark,EMEA
317,"Bronz Sok., Bronz Apt. 3/6 Tesvikiye",,Singapore,,79903,Singapore,Japan
318,4092 Furth Circle,Suite 400,NYC,NY,10022,USA,
319,5677 Strong St.,,San Rafael,CA,97562,USA,
320,"C/ Moralzarzal, 86",,Madrid,,28034,Spain,EMEA
321,"Bronz Sok., Bronz Apt. 3/6 Tesvikiye",,Singapore,,79903,Singapore,Japan
322,Strada Provinciale 124,,Reggio Emilia,,42100,Italy,EMEA
323,4575 Hillside Dr.,,New Bedford,MA,50553,USA,
324,567 North Pendale Street,,New Haven,CT,97823,USA,
325,"2, rue du Commerce",,Lyon,,69004,France,EMEA
326,25 Maiden Lane,Floor No. 4,Dublin,,2,Ireland,EMEA
327,"Merchants House, 27-30 Merchant's Quay",,Madrid,,28023,Spain,EMEA
328,"Software Engineering Center, SEC Oy",,Espoo,,FIN-02271,Finland,EMEA
329,7586 Pompton St.,,Allentown,PA,70267,USA,
330,5677 Strong St.,,San Rafael,CA,97562,USA,
331,Via Monte Bianco 34,,Torino,,10100,Italy,EMEA
332,Fauntleroy Circus,,Manchester,,EC2 5NT,UK,EMEA
333,Smagsloget 45,,Aaarhus,,8200,Denmark,EMEA
334,Erling Skakkes gate 78,,Stavern,,4110,Norway,EMEA
335,"265, boulevard Charonne",,Paris,,75012,France,EMEA
336,4092 Furth Circle,Suite 400,NYC,NY,10022,USA,
337,59 rue de l'Abbaye,,Reims,,51100,France,EMEA
338,2-2-8 Roppongi,,Minato-ku,Tokyo,106-0032,Japan,Japan
339,5677 Strong St.,,San Rafael,CA,97562,USA,
340,5677 Strong St.,,San Rafael,CA,97562,USA,
341,25593 South Bay Ln.,,Bridgewater,CT,97562,USA,
342,15 McCallum Street - NatWest Center #13-03,,Makati City,,1227 MM,Philippines,Japan
343,"12, rue des Bouchers",,Marseille,,13008,France,EMEA
344,5677 Strong St.,,San Rafael,CA,97562,USA,
345,7825 Douglas Av.,,Brickhaven,MA,58339,USA,
346,7734 Strong St.,,San Francisco,CA,,USA,
51,201 Miller Street,Level 15,North Sydney,NSW,2060,Australia,APAC
348,"Drammen 121, PR 744 Sentrum",,Bergen,,N 5804,Norway,EMEA
349,Mehrheimerstr. 369,,Koln,,50739,Germany,EMEA
350,"C/ Moralzarzal, 86",,Madrid,,28034,Spain,EMEA
351,"25, rue Lauriston",,Paris,,75016,France,EMEA
352,Grenzacherweg 237,,Gensve,,1203,Switzerland,EMEA
353,Vinb'ltet 34,,Kobenhavn,,1734,Denmark,EMEA
354,Berkeley Gardens 12  Brewery,,Liverpool,,WX1 6LT,UK,EMEA
355,Strada Provinciale 124,,Reggio Emilia,,42100,Italy,EMEA
356,7635 Spinnaker Dr.,,Brickhaven,MA,58339,USA,
357,Grenzacherweg 237,,Gensve,,1203,Switzerland,EMEA
358,Lyonerstr. 34,,Frankfurt,,60528,Germany,EMEA
359,Mehrheimerstr. 369,,Koln,,50739,Germany,EMEA
360,Berguvsv„gen  8,,Lule,,S-958 22,Sweden,EMEA
361,897 Long Airport Avenue,,NYC,NY,10022,USA,
362,Geislweg 14,,Salzburg,,5020,Austria,EMEA
363,"Software Engineering Center, SEC Oy",,Espoo,,FIN-02271,Finland,EMEA
364,Keskuskatu 45,,Helsinki,,21240,Finland,EMEA
365,?kergatan 24,,Boras,,S-844 67,Sweden,EMEA
366,Geislweg 14,,Salzburg,,5020,Austria,EMEA
367,"C/ Moralzarzal, 86",,Madrid,,28034,Spain,EMEA
368,5905 Pompton St.,Suite 750,NYC,NY,10022,USA,
369,4092 Furth Circle,Suite 400,NYC,NY,10022,USA,
370,"Software Engineering Center, SEC Oy",,Espoo,,FIN-02271,Finland,EMEA
371,Torikatu 38,,Oulu,,90110,Finland,EMEA
372,"Bronz Sok., Bronz Apt. 3/6 Tesvikiye",,Singapore,,79903,Singapore,Japan
373,35 King George,,London,,WX3 6FW,UK,EMEA
374,"C/ Romero, 33",,Sevilla,,41101,Spain,EMEA
375,3758 North Pendale Street,,White Plains,NY,24067,USA,
376,6251 Ingle Ln.,,Boston,MA,51003,USA,
377,2793 Furth Circle,,Brisbane,CA,94217,USA,
378,5677 Strong St.,,San Rafael,CA,97562,USA,
379,"C/ Moralzarzal, 86",,Madrid,,28034,Spain,EMEA
380,Village Close - 106 Linden Road Sandown,2nd Floor,Singapore,,69045,Singapore,APAC
381,5677 Strong St.,,San Rafael,CA,97562,USA,
382,7586 Pompton St.,,Allentown,PA,70267,USA,
383,897 Long Airport Avenue,,NYC,NY,10022,USA,
384,39323 Spinnaker Dr.,,Cambridge,MA,51247,USA,
385,Smagsloget 45,,Aaarhus,,8200,Denmark,EMEA
386,2678 Kingston Rd.,Suite 101,NYC,NY,10022,USA,
387,"265, boulevard Charonne",,Paris,,75012,France,EMEA
388,4092 Furth Circle,Suite 400,NYC,NY,10022,USA,
389,"C/ Moralzarzal, 86",,Madrid,,28034,Spain,EMEA
390,5677 Strong St.,,San Rafael,CA,97562,USA,
391,5677 Strong St.,,San Rafael,CA,97562,USA,
392,"C/ Moralzarzal, 86",,Madrid,,28034,Spain,EMEA
393,"67, rue des Cinquante Otages",,Nantes,,44000,France,EMEA
394,15 McCallum Street - NatWest Center #13-03,,Makati City,,1227 MM,Philippines,Japan
395,"12, rue des Bouchers",,Marseille,,13008,France,EMEA
396,5677 Strong St.,,San Rafael,CA,97562,USA,
397,7825 Douglas Av.,,Brickhaven,MA,58339,USA,
398,6047 Douglas Av.,,Los Angeles,CA,,USA,
399,Kirchgasse 6,,Graz,,8010,Austria,EMEA
400,"Drammen 121, PR 744 Sentrum",,Bergen,,N 5804,Norway,EMEA
401,2304 Long Airport Avenue,,Nashua,NH,62005,USA,
402,"C/ Moralzarzal, 86",,Madrid,,28034,Spain,EMEA
403,"C/ Moralzarzal, 86",,Madrid,,28034,Spain,EMEA
404,Grenzacherweg 237,,Gensve,,1203,Switzerland,EMEA
405,Torikatu 38,,Oulu,,90110,Finland,EMEA
406,Berkeley Gardens 12  Brewery,,Liverpool,,WX1 6LT,UK,EMEA
407,Strada Provinciale 124,,Reggio Emilia,,42100,Italy,EMEA
408,"Bronz Sok., Bronz Apt. 3/6 Tesvikiye",,Singapore,,79903,Singapore,Japan
409,Grenzacherweg 237,,Gensve,,1203,Switzerland,EMEA
410,Lyonerstr. 34,,Frankfurt,,60528,Germany,EMEA
411,Mehrheimerstr. 369,,Koln,,50739,Germany,EMEA
412,1785 First Street,,New Bedford,MA,50553,USA,
413,897 Long Airport Avenue,,NYC,NY,10022,USA,
414,Geislweg 14,,Salzburg,,5020,Austria,EMEA
415,"Software Engineering Center, SEC Oy",,Espoo,,FIN-02271,Finland,EMEA
416,Keskuskatu 45,,Helsinki,,21240,Finland,EMEA
417,?kergatan 24,,Boras,,S-844 67,Sweden,EMEA
418,"24, place Kluber",,Strasbourg,,67000,France,EMEA
419,Geislweg 14,,Salzburg,,5020,Austria,EMEA
420,Erling Skakkes gate 78,,Stavern,,4110,Norway,EMEA
421,5677 Strong St.,,San Rafael,CA,97562,USA,
422,"C/ Araquil, 67",,Madrid,,28023,Spain,EMEA
423,9408 Furth Circle,,Burlingame,CA,94217,USA,
424,"Bronz Sok., Bronz Apt. 3/6 Tesvikiye",,Singapore,,79903,Singapore,Japan
425,Kirchgasse 6,,Graz,,8010,Austria,EMEA
426,31 Duncan St. West End,,South Brisbane,Queensland,4101,Australia,APAC
427,782 First Street,,Philadelphia,PA,71270,USA,
428,"2, rue du Commerce",,Lyon,,69004,France,EMEA
429,1900 Oak St.,,Vancouver,BC,V3F 2K1,Canada,
430,3675 Furth Circle,,Burbank,CA,94019,USA,
431,4658 Baden Av.,,Cambridge,MA,51247,USA,
432,567 North Pendale Street,,New Haven,CT,97823,USA,
433,2-2-8 Roppongi,,Minato-ku,Tokyo,106-0032,Japan,Japan
21,"Monitor Money Building, 815 Pacific Hwy",Level 6,Chatswood,NSW,2067,Australia,APAC
435,Via Monte Bianco 34,,Torino,,10100,Italy,EMEA
436,?kergatan 24,,Boras,,S-844 67,Sweden,EMEA
437,"67, avenue de l'Europe",,Versailles,,78000,France,EMEA
438,5677 Strong St.,,San Rafael,CA,97562,USA,
439,2304 Long Airport Avenue,,Nashua,NH,62005,USA,
440,5557 North Pendale Street,,San Francisco,CA,,USA,
10,636 St Kilda Road,Level 3,Melbourne,Victoria,3004,Australia,APAC
442,5677 Strong St.,,San Rafael,CA,97562,USA,
51,201 Miller Street,Level 15,North Sydney,NSW,2060,Australia,APAC
444,7734 Strong St.,,San Francisco,CA,,USA,
51,201 Miller Street,Level 15,North Sydney,NSW,2060,Australia,APAC
446,43 rue St. Laurent,,Montreal,Quebec,H1J 1C3,Canada,
447,"C/ Moralzarzal, 86",,Madrid,,28034,Spain,EMEA
448,11328 Douglas Av.,,Philadelphia,PA,71270,USA,
449,"12, rue des Bouchers",,Marseille,,13008,France,EMEA
450,1 rue Alsace-Lorraine,,Toulouse,,31000,France,EMEA
51,201 Miller Street,Level 15,North Sydney,NSW,2060,Australia,APAC
452,Smagsloget 45,,Aaarhus,,8200,Denmark,EMEA
453,43 rue St. Laurent,,Montreal,Quebec,H1J 1C3,Canada,
454,"Drammen 121, PR 744 Sentrum",,Bergen,,N 5804,Norway,EMEA
455,2304 Long Airport Avenue,,Nashua,NH,62005,USA,
456,4092 Furth Circle,Suite 400,NYC,NY,10022,USA,
457,"C/ Moralzarzal, 86",,Madrid,,28034,Spain,EMEA
458,Grenzacherweg 237,,Gensve,,1203,Switzerland,EMEA
459,"Dojima Avanza 4F, 1-6-20 Dojima, Kita-ku",,Osaka,Osaka,530-0003,Japan,Japan
460,Berkeley Gardens 12  Brewery,,Liverpool,,WX1 6LT,UK,EMEA
461,Strada Provinciale 124,,Reggio Emilia,,42100,Italy,EMEA
462,8489 Strong St.,,Las Vegas,NV,83030,USA,
463,Grenzacherweg 237,,Gensve,,1203,Switzerland,EMEA
464,"Drammensveien 126 A, PB 744 Sentrum",,Oslo,,N 0106,Norway,EMEA
465,Mehrheimerstr. 369,,Koln,,50739,Germany,EMEA
466,1785 First Street,,New Bedford,MA,50553,USA,
467,11328 Douglas Av.,,Philadelphia,PA,71270,USA,
10,636 St Kilda Road,Level 3,Melbourne,Victoria,3004,Australia,APAC
469,27 rue du Colonel Pierre Avia,,Paris,,75508,France,EMEA
470,4575 Hillside Dr.,,New Bedford,MA,50553,USA,
471,Keskuskatu 45,,Helsinki,,21240,Finland,EMEA
472,5677 Strong St.,,San Rafael,CA,97562,USA,
473,Vinb'ltet 34,,Kobenhavn,,1734,Denmark,EMEA
474,Geislweg 14,,Salzburg,,5020,Austria,EMEA
475,2678 Kingston Rd.,Suite 101,NYC,NY,10022,USA,
476,5557 North Pendale Street,,San Francisco,CA,,USA,
10,636 St Kilda Road,Level 3,Melbourne,Victoria,3004,Australia,APAC
21,"Monitor Money Building, 815 Pacific Hwy",Level 6,Chatswood,NSW,2067,Australia,APAC
479,2793 Furth Circle,,Brisbane,CA,94217,USA,
480,7734 Strong St.,,San Francisco,CA,,USA,
481,Via Ludovico il Moro 22,,Bergamo,,24100,Italy,EMEA
482,5677 Strong St.,,San Rafael,CA,97562,USA,
483,7 Allen Street,,Glen Waverly,Victoria,3150,Australia,APAC
484,"C/ Moralzarzal, 86",,Madrid,,28034,Spain,EMEA
485,3675 Furth Circle,,Burbank,CA,94019,USA,
486,"2, rue du Commerce",,Lyon,,69004,France,EMEA
487,"C/ Moralzarzal, 86",,Madrid,,28034,Spain,EMEA
488,Vinb'ltet 34,,Kobenhavn,,1734,Denmark,EMEA
489,Via Monte Bianco 34,,Torino,,10100,Italy,EMEA
490,"Drammen 121, PR 744 Sentrum",,Bergen,,N 5804,Norway,EMEA
491,"67, avenue de l'Europe",,Versailles,,78000,France,EMEA
492,5677 Strong St.,,San Rafael,CA,97562,USA,
493,2304 Long Airport Avenue,,Nashua,NH,62005,USA,
494,Fauntleroy Circus,,Manchester,,EC2 5NT,UK,EMEA
495,8489 Strong St.,,Las Vegas,NV,83030,USA,
496,27 rue du Colonel Pierre Avia,,Paris,,75508,France,EMEA
497,7825 Douglas Av.,,Brickhaven,MA,58339,USA,
498,"C/ Moralzarzal, 86",,Madrid,,28034,Spain,EMEA
51,201 Miller Street,Level 15,North Sydney,NSW,2060,Australia,APAC
500,7586 Pompton St.,,Allentown,PA,70267,USA,
501,2678 Kingston Rd.,Suite 101,NYC,NY,10022,USA,
502,5557 North Pendale Street,,San Francisco,CA,,USA,
503,"C/ Araquil, 67",,Madrid,,28023,Spain,EMEA
21,"Monitor Money Building, 815 Pacific Hwy",Level 6,Chatswood,NSW,2067,Australia,APAC
505,2793 Furth Circle,,Brisbane,CA,94217,USA,
506,7734 Strong St.,,San Francisco,CA,,USA,
507,Via Ludovico il Moro 22,,Bergamo,,24100,Italy,EMEA
508,5677 Strong St.,,San Rafael,CA,97562,USA,
509,7 Allen Street,,Glen Waverly,Victoria,3150,Australia,APAC
510,"C/ Moralzarzal, 86",,Madrid,,28034,Spain,EMEA
511,3675 Furth Circle,,Burbank,CA,94019,USA,
512,"2, rue du Commerce",,Lyon,,69004,France,EMEA
513,"C/ Moralzarzal, 86",,Madrid,,28034,Spain,EMEA
514,Vinb'ltet 34,,Kobenhavn,,1734,Denmark,EMEA
515,Via Monte Bianco 34,,Torino,,10100,Italy,EMEA
516,"Drammen 121, PR 744 Sentrum",,Bergen,,N 5804,Norway,EMEA
517,"67, avenue de l'Europe",,Versailles,,78000,France,EMEA
518,5677 Strong St.,,San Rafael,CA,97562,USA,
519,2304 Long Airport Avenue,,Nashua,NH,62005,USA,
520,Fauntleroy Circus,,Manchester,,EC2 5NT,UK,EMEA
10,636 St Kilda Road,Level 3,Melbourne,Victoria,3004,Australia,APAC
522,27 rue du Colonel Pierre Avia,,Paris,,75508,France,EMEA
523,7825 Douglas Av.,,Brickhaven,MA,58339,USA,
524,7734 Strong St.,,San Francisco,CA,,USA,
51,201 Miller Street,Level 15,North Sydney,NSW,2060,Australia,APAC
526,7586 Pompton St.,,Allentown,PA,70267,USA,
527,Fauntleroy Circus,,Manchester,,EC2 5NT,UK,EMEA
528,"54, rue Royale",,Nantes,,44000,France,EMEA
529,59 rue de l'Abbaye,,Reims,,51100,France,EMEA
51,201 Miller Street,Level 15,North Sydney,NSW,2060,Australia,APAC
531,Smagsloget 45,,Aaarhus,,8200,Denmark,EMEA
532,25593 South Bay Ln.,,Bridgewater,CT,97562,USA,
533,"Drammen 121, PR 744 Sentrum",,Bergen,,N 5804,Norway,EMEA
534,2304 Long Airport Avenue,,Nashua,NH,62005,USA,
535,4092 Furth Circle,Suite 400,NYC,NY,10022,USA,
536,"C/ Moralzarzal, 86",,Madrid,,28034,Spain,EMEA
537,361 Furth Circle,,San Diego,CA,91217,USA,
538,"24, place Kluber",,Strasbourg,,67000,France,EMEA
539,Berkeley Gardens 12  Brewery,,Liverpool,,WX1 6LT,UK,EMEA
540,Strada Provinciale 124,,Reggio Emilia,,42100,Italy,EMEA
541,8489 Strong St.,,Las Vegas,NV,83030,USA,
542,Village Close - 106 Linden Road Sandown,2nd Floor,Singapore,,69045,Singapore,APAC
543,"Drammensveien 126 A, PB 744 Sentrum",,Oslo,,N 0106,Norway,EMEA
544,"C/ Moralzarzal, 86",,Madrid,,28034,Spain,EMEA
545,1785 First Street,,New Bedford,MA,50553,USA,
546,11328 Douglas Av.,,Philadelphia,PA,71270,USA,
547,59 rue de l'Abbaye,,Reims,,51100,France,EMEA
548,78934 Hillside Dr.,,Pasadena,CA,90003,USA,
549,"C/ Moralzarzal, 86",,Madrid,,28034,Spain,EMEA
550,3086 Ingle Ln.,,San Jose,CA,94217,USA,
551,Geislweg 14,,Salzburg,,5020,Austria,EMEA
552,Via Ludovico il Moro 22,,Bergamo,,24100,Italy,EMEA
553,Geislweg 14,,Salzburg,,5020,Austria,EMEA
554,2440 Pompton St.,,Glendale,CT,97561,USA,
555,4575 Hillside Dr.,,New Bedford,MA,50553,USA,
556,Keskuskatu 45,,Helsinki,,21240,Finland,EMEA
557,?kergatan 24,,Boras,,S-844 67,Sweden,EMEA
558,1 rue Alsace-Lorraine,,Toulouse,,31000,France,EMEA
559,120 Hanover Sq.,,London,,WA1 1DP,UK,EMEA
560,15 McCallum Street - NatWest Center #13-03,,Makati City,,1227 MM,Philippines,Japan
561,"Dojima Avanza 4F, 1-6-20 Dojima, Kita-ku",,Osaka,Osaka,530-0003,Japan,Japan
562,361 Furth Circle,,San Diego,CA,91217,USA,
563,3086 Ingle Ln.,,San Jose,CA,94217,USA,
564,"C/ Moralzarzal, 86",,Madrid,,28034,Spain,EMEA
565,7825 Douglas Av.,,Brickhaven,MA,58339,USA,
566,"Drammensveien 126 A, PB 744 Sentrum",,Oslo,,N 0106,Norway,EMEA
567,Hansastr. 15,,Munich,,80686,Germany,EMEA
568,782 First Street,,Philadelphia,PA,71270,USA,
569,Garden House Crowther Way,,Cowes,Isle of Wight,PO31 7PJ,UK,EMEA
570,Vinb'ltet 34,,Kobenhavn,,1734,Denmark,EMEA
571,"Boulevard Tirou, 255",,Charleroi,,B-6000,Belgium,EMEA
572,35 King George,,London,,WX3 6FW,UK,EMEA
573,Torikatu 38,,Oulu,,90110,Finland,EMEA
574,"C/ Moralzarzal, 86",,Madrid,,28034,Spain,EMEA
575,59 rue de l'Abbaye,,Reims,,51100,France,EMEA
576,3086 Ingle Ln.,,San Jose,CA,94217,USA,
577,Strada Provinciale 124,,Reggio Emilia,,42100,Italy,EMEA
578,2304 Long Airport Avenue,,Nashua,NH,62005,USA,
579,Fauntleroy Circus,,Manchester,,EC2 5NT,UK,EMEA
580,8489 Strong St.,,Las Vegas,NV,83030,USA,
581,2793 Furth Circle,,Brisbane,CA,94217,USA,
582,7734 Strong St.,,San Francisco,CA,,USA,
583,Via Ludovico il Moro 22,,Bergamo,,24100,Italy,EMEA
584,5677 Strong St.,,San Rafael,CA,97562,USA,
585,7 Allen Street,,Glen Waverly,Victoria,3150,Australia,APAC
586,4092 Furth Circle,Suite 400,NYC,NY,10022,USA,
587,"C/ Araquil, 67",,Madrid,,28023,Spain,EMEA
588,"2, rue du Commerce",,Lyon,,69004,France,EMEA
589,"24, place Kluber",,Strasbourg,,67000,France,EMEA
590,Via Monte Bianco 34,,Torino,,10100,Italy,EMEA
591,Village Close - 106 Linden Road Sandown,2nd Floor,Singapore,,69045,Singapore,APAC
592,Berkeley Gardens 12  Brewery,,Liverpool,,WX1 6LT,UK,EMEA
593,5677 Strong St.,,San Rafael,CA,97562,USA,
594,11328 Douglas Av.,,Philadelphia,PA,71270,USA,
595,"12, rue des Bouchers",,Marseille,,13008,France,EMEA
596,78934 Hillside Dr.,,Pasadena,CA,90003,USA,
597,"C/ Moralzarzal, 86",,Madrid,,28034,Spain,EMEA
598,3086 Ingle Ln.,,San Jose,CA,94217,USA,
21,"Monitor Money Building, 815 Pacific Hwy",Level 6,Chatswood,NSW,2067,Australia,APAC
600,15 McCallum Street - NatWest Center #13-03,,Makati City,,1227 MM,Philippines,Japan
601,"12, rue des Bouchers",,Marseille,,13008,France,EMEA
602,5677 Strong St.,,San Rafael,CA,97562,USA,
603,7825 Douglas Av.,,Brickhaven,MA,58339,USA,
604,6047 Douglas Av.,,Los Angeles,CA,,USA,
605,Kirchgasse 6,,Graz,,8010,Austria,EMEA
606,"Drammen 121, PR 744 Sentrum",,Bergen,,N 5804,Norway,EMEA
607,2304 Long Airport Avenue,,Nashua,NH,62005,USA,
608,"C/ Moralzarzal, 86",,Madrid,,28034,Spain,EMEA
609,"C/ Moralzarzal, 86",,Madrid,,28034,Spain,EMEA
610,Grenzacherweg 237,,Gensve,,1203,Switzerland,EMEA
611,Torikatu 38,,Oulu,,90110,Finland,EMEA
612,Berkeley Gardens 12  Brewery,,Liverpool,,WX1 6LT,UK,EMEA
613,Strada Provinciale 124,,Reggio Emilia,,42100,Italy,EMEA
614,8489 Strong St.,,Las Vegas,NV,83030,USA,
615,Grenzacherweg 237,,Gensve,,1203,Switzerland,EMEA
616,Lyonerstr. 34,,Frankfurt,,60528,Germany,EMEA
617,Mehrheimerstr. 369,,Koln,,50739,Germany,EMEA
618,1785 First Street,,New Bedford,MA,50553,USA,
619,897 Long Airport Avenue,,NYC,NY,10022,USA,
10,636 St Kilda Road,Level 3,Melbourne,Victoria,3004,Australia,APAC
621,"Software Engineering Center, SEC Oy",,Espoo,,FIN-02271,Finland,EMEA
622,Keskuskatu 45,,Helsinki,,21240,Finland,EMEA
623,?kergatan 24,,Boras,,S-844 67,Sweden,EMEA
624,"24, place Kluber",,Strasbourg,,67000,France,EMEA
625,Geislweg 14,,Salzburg,,5020,Austria,EMEA
626,11328 Douglas Av.,,Philadelphia,PA,71270,USA,
627,"12, rue des Bouchers",,Marseille,,13008,France,EMEA
628,1 rue Alsace-Lorraine,,Toulouse,,31000,France,EMEA
51,201 Miller Street,Level 15,North Sydney,NSW,2060,Australia,APAC
630,Smagsloget 45,,Aaarhus,,8200,Denmark,EMEA
631,43 rue St. Laurent,,Montreal,Quebec,H1J 1C3,Canada,
632,"Drammen 121, PR 744 Sentrum",,Bergen,,N 5804,Norway,EMEA
633,2304 Long Airport Avenue,,Nashua,NH,62005,USA,
634,4092 Furth Circle,Suite 400,NYC,NY,10022,USA,
635,"C/ Moralzarzal, 86",,Madrid,,28034,Spain,EMEA
636,361 Furth Circle,,San Diego,CA,91217,USA,
637,"Dojima Avanza 4F, 1-6-20 Dojima, Kita-ku",,Osaka,Osaka,530-0003,Japan,Japan
638,Berkeley Gardens 12  Brewery,,Liverpool,,WX1 6LT,UK,EMEA
639,Strada Provinciale 124,,Reggio Emilia,,42100,Italy,EMEA
640,8489 Strong St.,,Las Vegas,NV,83030,USA,
641,Grenzacherweg 237,,Gensve,,1203,Switzerland,EMEA
642,"Drammensveien 126 A, PB 744 Sentrum",,Oslo,,N 0106,Norway,EMEA
643,Mehrheimerstr. 369,,Koln,,50739,Germany,EMEA
644,1785 First Street,,New Bedford,MA,50553,USA,
645,11328 Douglas Av.,,Philadelphia,PA,71270,USA,
10,636 St Kilda Road,Level 3,Melbourne,Victoria,3004,Australia,APAC
647,27 rue du Colonel Pierre Avia,,Paris,,75508,France,EMEA
648,"Boulevard Tirou, 255",,Charleroi,,B-6000,Belgium,EMEA
649,Keskuskatu 45,,Helsinki,,21240,Finland,EMEA
650,5677 Strong St.,,San Rafael,CA,97562,USA,
651,Vinb'ltet 34,,Kobenhavn,,1734,Denmark,EMEA
652,Geislweg 14,,Salzburg,,5020,Austria,EMEA
653,"C/ Moralzarzal, 86",,Madrid,,28034,Spain,EMEA
654,5905 Pompton St.,Suite 750,NYC,NY,10022,USA,
655,4092 Furth Circle,Suite 400,NYC,NY,10022,USA,
656,"Software Engineering Center, SEC Oy",,Espoo,,FIN-02271,Finland,EMEA
657,Torikatu 38,,Oulu,,90110,Finland,EMEA
658,"Bronz Sok., Bronz Apt. 3/6 Tesvikiye",,Singapore,,79903,Singapore,Japan
659,Strada Provinciale 124,,Reggio Emilia,,42100,Italy,EMEA
660,"C/ Romero, 33",,Sevilla,,41101,Spain,EMEA
661,3758 North Pendale Street,,White Plains,NY,24067,USA,
662,6251 Ingle Ln.,,Boston,MA,51003,USA,
663,2793 Furth Circle,,Brisbane,CA,94217,USA,
664,Lyonerstr. 34,,Frankfurt,,60528,Germany,EMEA
665,"C/ Moralzarzal, 86",,Madrid,,28034,Spain,EMEA
666,Village Close - 106 Linden Road Sandown,2nd Floor,Singapore,,69045,Singapore,APAC
667,5677 Strong St.,,San Rafael,CA,97562,USA,
668,5677 Strong St.,,San Rafael,CA,97562,USA,
669,897 Long Airport Avenue,,NYC,NY,10022,USA,
670,39323 Spinnaker Dr.,,Cambridge,MA,51247,USA,
671,Smagsloget 45,,Aaarhus,,8200,Denmark,EMEA
672,2678 Kingston Rd.,Suite 101,NYC,NY,10022,USA,
673,"265, boulevard Charonne",,Paris,,75012,France,EMEA
674,4092 Furth Circle,Suite 400,NYC,NY,10022,USA,
675,"C/ Moralzarzal, 86",,Madrid,,28034,Spain,EMEA
676,5677 Strong St.,,San Rafael,CA,97562,USA,
677,5677 Strong St.,,San Rafael,CA,97562,USA,
678,"C/ Moralzarzal, 86",,Madrid,,28034,Spain,EMEA
679,"67, rue des Cinquante Otages",,Nantes,,44000,France,EMEA
680,2304 Long Airport Avenue,,Nashua,NH,62005,USA,
681,Fauntleroy Circus,,Manchester,,EC2 5NT,UK,EMEA
682,8489 Strong St.,,Las Vegas,NV,83030,USA,
683,2793 Furth Circle,,Brisbane,CA,94217,USA,
684,7734 Strong St.,,San Francisco,CA,,USA,
685,Via Ludovico il Moro 22,,Bergamo,,24100,Italy,EMEA
686,5677 Strong St.,,San Rafael,CA,97562,USA,
687,7 Allen Street,,Glen Waverly,Victoria,3150,Australia,APAC
688,4092 Furth Circle,Suite 400,NYC,NY,10022,USA,
689,"C/ Araquil, 67",,Madrid,,28023,Spain,EMEA
690,"2, rue du Commerce",,Lyon,,69004,France,EMEA
691,"24, place Kluber",,Strasbourg,,67000,France,EMEA
692,Via Monte Bianco 34,,Torino,,10100,Italy,EMEA
693,Village Close - 106 Linden Road Sandown,2nd Floor,Singapore,,69045,Singapore,APAC
694,"C/ Romero, 33",,Sevilla,,41101,Spain,EMEA
695,5677 Strong St.,,San Rafael,CA,97562,USA,
696,Fauntleroy Circus,,Manchester,,EC2 5NT,UK,EMEA
697,"12, rue des Bouchers",,Marseille,,13008,France,EMEA
698,78934 Hillside Dr.,,Pasadena,CA,90003,USA,
699,"C/ Moralzarzal, 86",,Madrid,,28034,Spain,EMEA
700,3086 Ingle Ln.,,San Jose,CA,94217,USA,
21,"Monitor Money Building, 815 Pacific Hwy",Level 6,Chatswood,NSW,2067,Australia,APAC
702,"C/ Moralzarzal, 86",,Madrid,,28034,Spain,EMEA
703,"265, boulevard Charonne",,Paris,,75012,France,EMEA
704,4092 Furth Circle,Suite 400,NYC,NY,10022,USA,
705,"Software Engineering Center, SEC Oy",,Espoo,,FIN-02271,Finland,EMEA
706,Torikatu 38,,Oulu,,90110,Finland,EMEA
707,"Bronz Sok., Bronz Apt. 3/6 Tesvikiye",,Singapore,,79903,Singapore,Japan
708,35 King George,,London,,WX3 6FW,UK,EMEA
709,"C/ Romero, 33",,Sevilla,,41101,Spain,EMEA
710,3758 North Pendale Street,,White Plains,NY,24067,USA,
711,6251 Ingle Ln.,,Boston,MA,51003,USA,
712,5677 Strong St.,,San Rafael,CA,97562,USA,
713,"C/ Moralzarzal, 86",,Madrid,,28034,Spain,EMEA
714,Village Close - 106 Linden Road Sandown,2nd Floor,Singapore,,69045,Singapore,APAC
715,5677 Strong St.,,San Rafael,CA,97562,USA,
716,7586 Pompton St.,,Allentown,PA,70267,USA,
717,897 Long Airport Avenue,,NYC,NY,10022,USA,
718,39323 Spinnaker Dr.,,Cambridge,MA,51247,USA,
719,1900 Oak St.,,Vancouver,BC,V3F 2K1,Canada,
720,2678 Kingston Rd.,Suite 101,NYC,NY,10022,USA,
721,Berguvsv„gen  8,,Lule,,S-958 22,Sweden,EMEA
722,4092 Furth Circle,Suite 400,NYC,NY,10022,USA,
723,"C/ Moralzarzal, 86",,Madrid,,28034,Spain,EMEA
51,201 Miller Street,Level 15,North Sydney,NSW,2060,Australia,APAC
725,"C/ Moralzarzal, 86",,Madrid,,28034,Spain,EMEA
726,"C/ Moralzarzal, 86",,Madrid,,28034,Spain,EMEA
727,"67, rue des Cinquante Otages",,Nantes,,44000,France,EMEA
728,Lyonerstr. 34,,Frankfurt,,60528,Germany,EMEA
729,Fauntleroy Circus,,Manchester,,EC2 5NT,UK,EMEA
730,8489 Strong St.,,Las Vegas,NV,83030,USA,
731,2793 Furth Circle,,Brisbane,CA,94217,USA,
732,7734 Strong St.,,San Francisco,CA,,USA,
733,Via Ludovico il Moro 22,,Bergamo,,24100,Italy,EMEA
734,5677 Strong St.,,San Rafael,CA,97562,USA,
735,7 Allen Street,,Glen Waverly,Victoria,3150,Australia,APAC
736,4092 Furth Circle,Suite 400,NYC,NY,10022,USA,
737,"C/ Araquil, 67",,Madrid,,28023,Spain,EMEA
738,"2, rue du Commerce",,Lyon,,69004,France,EMEA
739,6251 Ingle Ln.,,Boston,MA,51003,USA,
740,Via Monte Bianco 34,,Torino,,10100,Italy,EMEA
741,Village Close - 106 Linden Road Sandown,2nd Floor,Singapore,,69045,Singapore,APAC
742,"67, avenue de l'Europe",,Versailles,,78000,France,EMEA
743,5677 Strong St.,,San Rafael,CA,97562,USA,
744,2304 Long Airport Avenue,,Nashua,NH,62005,USA,
745,Fauntleroy Circus,,Manchester,,EC2 5NT,UK,EMEA
746,"12, rue des Bouchers",,Marseille,,13008,France,EMEA
747,27 rue du Colonel Pierre Avia,,Paris,,75508,France,EMEA
748,78934 Hillside Dr.,,Pasadena,CA,90003,USA,
749,"C/ Moralzarzal, 86",,Madrid,,28034,Spain,EMEA
750,5677 Strong St.,,San Rafael,CA,97562,USA,
751,Village Close - 106 Linden Road Sandown,2nd Floor,Singapore,,69045,Singapore,APAC
21,"Monitor Money Building, 815 Pacific Hwy",Level 6,Chatswood,NSW,2067,Australia,APAC
753,Erling Skakkes gate 78,,Stavern,,4110,Norway,EMEA
754,"265, boulevard Charonne",,Paris,,75012,France,EMEA
755,"C/ Araquil, 67",,Madrid,,28023,Spain,EMEA
756,9408 Furth Circle,,Burlingame,CA,94217,USA,
757,Torikatu 38,,Oulu,,90110,Finland,EMEA
758,"Bronz Sok., Bronz Apt. 3/6 Tesvikiye",,Singapore,,79903,Singapore,Japan
759,35 King George,,London,,WX3 6FW,UK,EMEA
760,"C/ Romero, 33",,Sevilla,,41101,Spain,EMEA
761,"2, rue du Commerce",,Lyon,,69004,France,EMEA
762,6251 Ingle Ln.,,Boston,MA,51003,USA,
763,Village Close - 106 Linden Road Sandown,2nd Floor,Singapore,,69045,Singapore,APAC
764,5677 Strong St.,,San Rafael,CA,97562,USA,
765,"C/ Moralzarzal, 86",,Madrid,,28034,Spain,EMEA
766,Village Close - 106 Linden Road Sandown,2nd Floor,Singapore,,69045,Singapore,APAC
767,5677 Strong St.,,San Rafael,CA,97562,USA,
768,7586 Pompton St.,,Allentown,PA,70267,USA,
769,?kergatan 24,,Boras,,S-844 67,Sweden,EMEA
770,39323 Spinnaker Dr.,,Cambridge,MA,51247,USA,
771,1900 Oak St.,,Vancouver,BC,V3F 2K1,Canada,
772,2304 Long Airport Avenue,,Nashua,NH,62005,USA,
773,Berguvsv„gen  8,,Lule,,S-958 22,Sweden,EMEA
10,636 St Kilda Road,Level 3,Melbourne,Victoria,3004,Australia,APAC
775,5677 Strong St.,,San Rafael,CA,97562,USA,
51,201 Miller Street,Level 15,North Sydney,NSW,2060,Australia,APAC
777,7734 Strong St.,,San Francisco,CA,,USA,
51,201 Miller Street,Level 15,North Sydney,NSW,2060,Australia,APAC
779,"C/ Moralzarzal, 86",,Madrid,,28034,Spain,EMEA
780,"67, rue des Cinquante Otages",,Nantes,,44000,France,EMEA
781,Via Ludovico il Moro 22,,Bergamo,,24100,Italy,EMEA
10,636 St Kilda Road,Level 3,Melbourne,Victoria,3004,Australia,APAC
783,"C/ Moralzarzal, 86",,Madrid,,28034,Spain,EMEA
784,78934 Hillside Dr.,,Pasadena,CA,90003,USA,
785,9408 Furth Circle,,Burlingame,CA,94217,USA,
786,"Dojima Avanza 4F, 1-6-20 Dojima, Kita-ku",,Osaka,Osaka,530-0003,Japan,Japan
10,636 St Kilda Road,Level 3,Melbourne,Victoria,3004,Australia,APAC
788,23 Tsawassen Blvd.,,Tsawassen,BC,T2F 8M4,Canada,
789,3086 Ingle Ln.,,San Jose,CA,94217,USA,
790,25593 South Bay Ln.,,Bridgewater,CT,97562,USA,
791,"67, rue des Cinquante Otages",,Nantes,,44000,France,EMEA
792,"Drammensveien 126 A, PB 744 Sentrum",,Oslo,,N 0106,Norway,EMEA
793,25 Maiden Lane,Floor No. 4,Dublin,,2,Ireland,EMEA
794,3758 North Pendale Street,,White Plains,NY,24067,USA,
795,7586 Pompton St.,,Allentown,PA,70267,USA,
796,Vinb'ltet 34,,Kobenhavn,,1734,Denmark,EMEA
797,2-2-8 Roppongi,,Minato-ku,Tokyo,106-0032,Japan,Japan
798,2440 Pompton St.,,Glendale,CT,97561,USA,
799,31 Duncan St. West End,,South Brisbane,Queensland,4101,Australia,APAC
800,"C/ Moralzarzal, 86",,Madrid,,28034,Spain,EMEA
801,59 rue de l'Abbaye,,Reims,,51100,France,EMEA
802,7476 Moss Rd.,,Newark,NJ,94019,USA,
803,Strada Provinciale 124,,Reggio Emilia,,42100,Italy,EMEA
804,897 Long Airport Avenue,,NYC,NY,10022,USA,
10,636 St Kilda Road,Level 3,Melbourne,Victoria,3004,Australia,APAC
806,27 rue du Colonel Pierre Avia,,Paris,,75508,France,EMEA
807,78934 Hillside Dr.,,Pasadena,CA,90003,USA,
808,7734 Strong St.,,San Francisco,CA,,USA,
809,9408 Furth Circle,,Burlingame,CA,94217,USA,
810,"184, chausse de Tournai",,Lille,,59000,France,EMEA
811,"Drammen 121, PR 744 Sentrum",,Bergen,,N 5804,Norway,EMEA
812,5557 North Pendale Street,,San Francisco,CA,,USA,
813,"Dojima Avanza 4F, 1-6-20 Dojima, Kita-ku",,Osaka,Osaka,530-0003,Japan,Japan
10,636 St Kilda Road,Level 3,Melbourne,Victoria,3004,Australia,APAC
815,11328 Douglas Av.,,Philadelphia,PA,71270,USA,
816,7476 Moss Rd.,,Newark,NJ,94019,USA,
817,25593 South Bay Ln.,,Bridgewater,CT,97562,USA,
818,"67, rue des Cinquante Otages",,Nantes,,44000,France,EMEA
819,39323 Spinnaker Dr.,,Cambridge,MA,51247,USA,
820,"54, rue Royale",,Nantes,,44000,France,EMEA
821,3758 North Pendale Street,,White Plains,NY,24067,USA,
822,7586 Pompton St.,,Allentown,PA,70267,USA,
823,897 Long Airport Avenue,,NYC,NY,10022,USA,
824,2-2-8 Roppongi,,Minato-ku,Tokyo,106-0032,Japan,Japan
825,9408 Furth Circle,,Burlingame,CA,94217,USA,
826,31 Duncan St. West End,,South Brisbane,Queensland,4101,Australia,APAC
827,?kergatan 24,,Boras,,S-844 67,Sweden,EMEA
828,"25, rue Lauriston",,Paris,,75016,France,EMEA
829,"C/ Moralzarzal, 86",,Madrid,,28034,Spain,EMEA
830,Lyonerstr. 34,,Frankfurt,,60528,Germany,EMEA
831,Fauntleroy Circus,,Manchester,,EC2 5NT,UK,EMEA
10,636 St Kilda Road,Level 3,Melbourne,Victoria,3004,Australia,APAC
21,"Monitor Money Building, 815 Pacific Hwy",Level 6,Chatswood,NSW,2067,Australia,APAC
834,2793 Furth Circle,,Brisbane,CA,94217,USA,
835,7734 Strong St.,,San Francisco,CA,,USA,
836,Via Ludovico il Moro 22,,Bergamo,,24100,Italy,EMEA
837,5677 Strong St.,,San Rafael,CA,97562,USA,
838,7 Allen Street,,Glen Waverly,Victoria,3150,Australia,APAC
839,"C/ Moralzarzal, 86",,Madrid,,28034,Spain,EMEA
840,"C/ Araquil, 67",,Madrid,,28023,Spain,EMEA
841,"2, rue du Commerce",,Lyon,,69004,France,EMEA
842,"C/ Moralzarzal, 86",,Madrid,,28034,Spain,EMEA
843,"24, place Kluber",,Strasbourg,,67000,France,EMEA
844,Via Monte Bianco 34,,Torino,,10100,Italy,EMEA
845,"Drammen 121, PR 744 Sentrum",,Bergen,,N 5804,Norway,EMEA
846,"67, avenue de l'Europe",,Versailles,,78000,France,EMEA
847,5677 Strong St.,,San Rafael,CA,97562,USA,
848,2304 Long Airport Avenue,,Nashua,NH,62005,USA,
849,Fauntleroy Circus,,Manchester,,EC2 5NT,UK,EMEA
10,636 St Kilda Road,Level 3,Melbourne,Victoria,3004,Australia,APAC
851,27 rue du Colonel Pierre Avia,,Paris,,75508,France,EMEA
852,78934 Hillside Dr.,,Pasadena,CA,90003,USA,
853,"C/ Moralzarzal, 86",,Madrid,,28034,Spain,EMEA
854,5677 Strong St.,,San Rafael,CA,97562,USA,
855,5677 Strong St.,,San Rafael,CA,97562,USA,
856,11328 Douglas Av.,,Philadelphia,PA,71270,USA,
857,"54, rue Royale",,Nantes,,44000,France,EMEA
858,59 rue de l'Abbaye,,Reims,,51100,France,EMEA
51,201 Miller Street,Level 15,North Sydney,NSW,2060,Australia,APAC
860,Smagsloget 45,,Aaarhus,,8200,Denmark,EMEA
861,25593 South Bay Ln.,,Bridgewater,CT,97562,USA,
862,"Drammen 121, PR 744 Sentrum",,Bergen,,N 5804,Norway,EMEA
863,2304 Long Airport Avenue,,Nashua,NH,62005,USA,
864,4092 Furth Circle,Suite 400,NYC,NY,10022,USA,
865,"C/ Moralzarzal, 86",,Madrid,,28034,Spain,EMEA
866,361 Furth Circle,,San Diego,CA,91217,USA,
867,"24, place Kluber",,Strasbourg,,67000,France,EMEA
868,Berkeley Gardens 12  Brewery,,Liverpool,,WX1 6LT,UK,EMEA
869,Strada Provinciale 124,,Reggio Emilia,,42100,Italy,EMEA
870,8489 Strong St.,,Las Vegas,NV,83030,USA,
871,Grenzacherweg 237,,Gensve,,1203,Switzerland,EMEA
872,"Drammensveien 126 A, PB 744 Sentrum",,Oslo,,N 0106,Norway,EMEA
873,"C/ Moralzarzal, 86",,Madrid,,28034,Spain,EMEA
874,1785 First Street,,New Bedford,MA,50553,USA,
875,11328 Douglas Av.,,Philadelphia,PA,71270,USA,
876,59 rue de l'Abbaye,,Reims,,51100,France,EMEA
877,"Boulevard Tirou, 255",,Charleroi,,B-6000,Belgium,EMEA
878,"C/ Moralzarzal, 86",,Madrid,,28034,Spain,EMEA
879,3086 Ingle Ln.,,San Jose,CA,94217,USA,
880,Geislweg 14,,Salzburg,,5020,Austria,EMEA
881,Erling Skakkes gate 78,,Stavern,,4110,Norway,EMEA
882,Berguvsv„gen  8,,Lule,,S-958 22,Sweden,EMEA
883,"C/ Araquil, 67",,Madrid,,28023,Spain,EMEA
21,"Monitor Money Building, 815 Pacific Hwy",Level 6,Chatswood,NSW,2067,Australia,APAC
885,"Bronz Sok., Bronz Apt. 3/6 Tesvikiye",,Singapore,,79903,Singapore,Japan
886,5905 Pompton St.,Suite 750,NYC,NY,10022,USA,
887,31 Duncan St. West End,,South Brisbane,Queensland,4101,Australia,APAC
888,782 First Street,,Philadelphia,PA,71270,USA,
889,7 Allen Street,,Glen Waverly,Victoria,3150,Australia,APAC
890,1900 Oak St.,,Vancouver,BC,V3F 2K1,Canada,
891,3675 Furth Circle,,Burbank,CA,94019,USA,
892,4658 Baden Av.,,Cambridge,MA,51247,USA,
893,"C/ Moralzarzal, 86",,Madrid,,28034,Spain,EMEA
894,3086 Ingle Ln.,,San Jose,CA,94217,USA,
21,"Monitor Money Building, 815 Pacific Hwy",Level 6,Chatswood,NSW,2067,Australia,APAC
896,Via Monte Bianco 34,,Torino,,10100,Italy,EMEA
897,?kergatan 24,,Boras,,S-844 67,Sweden,EMEA
898,"67, avenue de l'Europe",,Versailles,,78000,France,EMEA
899,5677 Strong St.,,San Rafael,CA,97562,USA,
900,2304 Long Airport Avenue,,Nashua,NH,62005,USA,
901,5557 North Pendale Street,,San Francisco,CA,,USA,
10,636 St Kilda Road,Level 3,Melbourne,Victoria,3004,Australia,APAC
903,5677 Strong St.,,San Rafael,CA,97562,USA,
904,7825 Douglas Av.,,Brickhaven,MA,58339,USA,
905,7734 Strong St.,,San Francisco,CA,,USA,
51,201 Miller Street,Level 15,North Sydney,NSW,2060,Australia,APAC
907,Rue Joseph-Bens 532,,Bruxelles,,B-1180,Belgium,EMEA
908,Erling Skakkes gate 78,,Stavern,,4110,Norway,EMEA
909,5557 North Pendale Street,,San Francisco,CA,,USA,
910,"C/ Araquil, 67",,Madrid,,28023,Spain,EMEA
21,"Monitor Money Building, 815 Pacific Hwy",Level 6,Chatswood,NSW,2067,Australia,APAC
912,"Bronz Sok., Bronz Apt. 3/6 Tesvikiye",,Singapore,,79903,Singapore,Japan
913,5905 Pompton St.,Suite 750,NYC,NY,10022,USA,
914,Via Ludovico il Moro 22,,Bergamo,,24100,Italy,EMEA
915,782 First Street,,Philadelphia,PA,71270,USA,
916,7 Allen Street,,Glen Waverly,Victoria,3150,Australia,APAC
917,1900 Oak St.,,Vancouver,BC,V3F 2K1,Canada,
918,3675 Furth Circle,,Burbank,CA,94019,USA,
919,4658 Baden Av.,,Cambridge,MA,51247,USA,
920,"C/ Moralzarzal, 86",,Madrid,,28034,Spain,EMEA
921,3086 Ingle Ln.,,San Jose,CA,94217,USA,
922,Geislweg 14,,Salzburg,,5020,Austria,EMEA
923,Via Monte Bianco 34,,Torino,,10100,Italy,EMEA
924,?kergatan 24,,Boras,,S-844 67,Sweden,EMEA
925,"67, avenue de l'Europe",,Versailles,,78000,France,EMEA
926,5677 Strong St.,,San Rafael,CA,97562,USA,
927,2304 Long Airport Avenue,,Nashua,NH,62005,USA,
928,Fauntleroy Circus,,Manchester,,EC2 5NT,UK,EMEA
10,636 St Kilda Road,Level 3,Melbourne,Victoria,3004,Australia,APAC
930,5677 Strong St.,,San Rafael,CA,97562,USA,
931,7825 Douglas Av.,,Brickhaven,MA,58339,USA,
932,7734 Strong St.,,San Francisco,CA,,USA,
933,Kirchgasse 6,,Graz,,8010,Austria,EMEA
934,Rue Joseph-Bens 532,,Bruxelles,,B-1180,Belgium,EMEA
935,Via Ludovico il Moro 22,,Bergamo,,24100,Italy,EMEA
936,Geislweg 14,,Salzburg,,5020,Austria,EMEA
937,16780 Pompton St.,,Brickhaven,MA,58339,USA,
938,4575 Hillside Dr.,,New Bedford,MA,50553,USA,
939,Keskuskatu 45,,Helsinki,,21240,Finland,EMEA
940,?kergatan 24,,Boras,,S-844 67,Sweden,EMEA
941,1 rue Alsace-Lorraine,,Toulouse,,31000,France,EMEA
942,120 Hanover Sq.,,London,,WA1 1DP,UK,EMEA
943,"Rambla de Catalu¤a, 23",,Barcelona,,8022,Spain,EMEA
944,6047 Douglas Av.,,Los Angeles,CA,,USA,
945,361 Furth Circle,,San Diego,CA,91217,USA,
946,897 Long Airport Avenue,,NYC,NY,10022,USA,
947,"C/ Moralzarzal, 86",,Madrid,,28034,Spain,EMEA
948,Rue Joseph-Bens 532,,Bruxelles,,B-1180,Belgium,EMEA
949,23 Tsawassen Blvd.,,Tsawassen,BC,T2F 8M4,Canada,
950,Hansastr. 15,,Munich,,80686,Germany,EMEA
951,782 First Street,,Philadelphia,PA,71270,USA,
952,Garden House Crowther Way,,Cowes,Isle of Wight,PO31 7PJ,UK,EMEA
953,Vinb'ltet 34,,Kobenhavn,,1734,Denmark,EMEA
954,"Boulevard Tirou, 255",,Charleroi,,B-6000,Belgium,EMEA
955,"C/ Moralzarzal, 86",,Madrid,,28034,Spain,EMEA
956,Torikatu 38,,Oulu,,90110,Finland,EMEA
957,"C/ Moralzarzal, 86",,Madrid,,28034,Spain,EMEA
958,59 rue de l'Abbaye,,Reims,,51100,France,EMEA
959,3086 Ingle Ln.,,San Jose,CA,94217,USA,
960,8616 Spinnaker Dr.,,Boston,MA,51003,USA,
961,Erling Skakkes gate 78,,Stavern,,4110,Norway,EMEA
962,5557 North Pendale Street,,San Francisco,CA,,USA,
963,"C/ Araquil, 67",,Madrid,,28023,Spain,EMEA
21,"Monitor Money Building, 815 Pacific Hwy",Level 6,Chatswood,NSW,2067,Australia,APAC
965,"Bronz Sok., Bronz Apt. 3/6 Tesvikiye",,Singapore,,79903,Singapore,Japan
966,5905 Pompton St.,Suite 750,NYC,NY,10022,USA,
967,Via Ludovico il Moro 22,,Bergamo,,24100,Italy,EMEA
968,782 First Street,,Philadelphia,PA,71270,USA,
969,7 Allen Street,,Glen Waverly,Victoria,3150,Australia,APAC
970,1900 Oak St.,,Vancouver,BC,V3F 2K1,Canada,
971,3675 Furth Circle,,Burbank,CA,94019,USA,
972,4658 Baden Av.,,Cambridge,MA,51247,USA,
973,"C/ Moralzarzal, 86",,Madrid,,28034,Spain,EMEA
974,3086 Ingle Ln.,,San Jose,CA,94217,USA,
21,"Monitor Money Building, 815 Pacific Hwy",Level 6,Chatswood,NSW,2067,Australia,APAC
976,Via Monte Bianco 34,,Torino,,10100,Italy,EMEA
977,?kergatan 24,,Boras,,S-844 67,Sweden,EMEA
978,"67, avenue de l'Europe",,Versailles,,78000,France,EMEA
979,5677 Strong St.,,San Rafael,CA,97562,USA,
980,2304 Long Airport Avenue,,Nashua,NH,62005,USA,
981,Fauntleroy Circus,,Manchester,,EC2 5NT,UK,EMEA
10,636 St Kilda Road,Level 3,Melbourne,Victoria,3004,Australia,APAC
983,5677 Strong St.,,San Rafael,CA,97562,USA,
984,7825 Douglas Av.,,Brickhaven,MA,58339,USA,
985,7734 Strong St.,,San Francisco,CA,,USA,
986,Kirchgasse 6,,Graz,,8010,Austria,EMEA
987,Rue Joseph-Bens 532,,Bruxelles,,B-1180,Belgium,EMEA
988,Vinb'ltet 34,,Kobenhavn,,1734,Denmark,EMEA
989,"Bronz Sok., Bronz Apt. 3/6 Tesvikiye",,Singapore,,79903,Singapore,Japan
990,"C/ Moralzarzal, 86",,Madrid,,28034,Spain,EMEA
991,5677 Strong St.,,San Rafael,CA,97562,USA,
992,"C/ Moralzarzal, 86",,Madrid,,28034,Spain,EMEA
993,1785 First Street,,New Bedford,MA,50553,USA,
994,"Merchants House, 27-30 Merchant's Quay",,Madrid,,28023,Spain,EMEA
995,4575 Hillside Dr.,,New Bedford,MA,50553,USA,
996,567 North Pendale Street,,New Haven,CT,97823,USA,
997,"2, rue du Commerce",,Lyon,,69004,France,EMEA
998,Rue Joseph-Bens 532,,Bruxelles,,B-1180,Belgium,EMEA
999,Garden House Crowther Way,,Cowes,Isle of Wight,PO31 7PJ,UK,EMEA
1000,897 Long Airport Avenue,,NYC,NY,10022,USA,
1001,Rue Joseph-Bens 532,,Bruxelles,,B-1180,Belgium,EMEA
1002,5677 Strong St.,,San Rafael,CA,97562,USA,
1003,Via Monte Bianco 34,,Torino,,10100,Italy,EMEA
1004,Fauntleroy Circus,,Manchester,,EC2 5NT,UK,EMEA
1005,Smagsloget 45,,Aaarhus,,8200,Denmark,EMEA
1006,Erling Skakkes gate 78,,Stavern,,4110,Norway,EMEA
1007,"265, boulevard Charonne",,Paris,,75012,France,EMEA
1008,"C/ Moralzarzal, 86",,Madrid,,28034,Spain,EMEA
1009,2-2-8 Roppongi,,Minato-ku,Tokyo,106-0032,Japan,Japan
1010,"C/ Moralzarzal, 86",,Madrid,,28034,Spain,EMEA
1011,5677 Strong St.,,San Rafael,CA,97562,USA,
1012,8616 Spinnaker Dr.,,Boston,MA,51003,USA,
1013,"C/ Moralzarzal, 86",,Madrid,,28034,Spain,EMEA
1014,11328 Douglas Av.,,Philadelphia,PA,71270,USA,
1015,"265, boulevard Charonne",,Paris,,75012,France,EMEA
1016,"12, rue des Bouchers",,Marseille,,13008,France,EMEA
1017,4092 Furth Circle,Suite 400,NYC,NY,10022,USA,
1018,1 rue Alsace-Lorraine,,Toulouse,,31000,France,EMEA
1019,"Software Engineering Center, SEC Oy",,Espoo,,FIN-02271,Finland,EMEA
51,201 Miller Street,Level 15,North Sydney,NSW,2060,Australia,APAC
1021,Torikatu 38,,Oulu,,90110,Finland,EMEA
1022,6047 Douglas Av.,,Los Angeles,CA,,USA,
1023,"Bronz Sok., Bronz Apt. 3/6 Tesvikiye",,Singapore,,79903,Singapore,Japan
1024,43 rue St. Laurent,,Montreal,Quebec,H1J 1C3,Canada,
1025,35 King George,,London,,WX3 6FW,UK,EMEA
1026,"Drammen 121, PR 744 Sentrum",,Bergen,,N 5804,Norway,EMEA
1027,"C/ Romero, 33",,Sevilla,,41101,Spain,EMEA
1028,2304 Long Airport Avenue,,Nashua,NH,62005,USA,
1029,3758 North Pendale Street,,White Plains,NY,24067,USA,
1030,"C/ Moralzarzal, 86",,Madrid,,28034,Spain,EMEA
1031,6251 Ingle Ln.,,Boston,MA,51003,USA,
1032,"C/ Moralzarzal, 86",,Madrid,,28034,Spain,EMEA
1033,Grenzacherweg 237,,Gensve,,1203,Switzerland,EMEA
1034,5677 Strong St.,,San Rafael,CA,97562,USA,
1035,Torikatu 38,,Oulu,,90110,Finland,EMEA
1036,"C/ Moralzarzal, 86",,Madrid,,28034,Spain,EMEA
1037,Berkeley Gardens 12  Brewery,,Liverpool,,WX1 6LT,UK,EMEA
1038,Village Close - 106 Linden Road Sandown,2nd Floor,Singapore,,69045,Singapore,APAC
1039,Strada Provinciale 124,,Reggio Emilia,,42100,Italy,EMEA
1040,5677 Strong St.,,San Rafael,CA,97562,USA,
1041,8489 Strong St.,,Las Vegas,NV,83030,USA,
1042,7586 Pompton St.,,Allentown,PA,70267,USA,
1043,Grenzacherweg 237,,Gensve,,1203,Switzerland,EMEA
1044,897 Long Airport Avenue,,NYC,NY,10022,USA,
1045,"Drammensveien 126 A, PB 744 Sentrum",,Oslo,,N 0106,Norway,EMEA
1046,39323 Spinnaker Dr.,,Cambridge,MA,51247,USA,
1047,Mehrheimerstr. 369,,Koln,,50739,Germany,EMEA
1048,1900 Oak St.,,Vancouver,BC,V3F 2K1,Canada,
1049,1785 First Street,,New Bedford,MA,50553,USA,
1050,2678 Kingston Rd.,Suite 101,NYC,NY,10022,USA,
1051,11328 Douglas Av.,,Philadelphia,PA,71270,USA,
1052,Berguvsv„gen  8,,Lule,,S-958 22,Sweden,EMEA
10,636 St Kilda Road,Level 3,Melbourne,Victoria,3004,Australia,APAC
1054,4092 Furth Circle,Suite 400,NYC,NY,10022,USA,
1055,"C/ Moralzarzal, 86",,Madrid,,28034,Spain,EMEA
1056,"Boulevard Tirou, 255",,Charleroi,,B-6000,Belgium,EMEA
51,201 Miller Street,Level 15,North Sydney,NSW,2060,Australia,APAC
1058,Keskuskatu 45,,Helsinki,,21240,Finland,EMEA
1059,"C/ Moralzarzal, 86",,Madrid,,28034,Spain,EMEA
1060,"C/ Moralzarzal, 86",,Madrid,,28034,Spain,EMEA
1061,"24, place Kluber",,Strasbourg,,67000,France,EMEA
1062,"C/ Moralzarzal, 86",,Madrid,,28034,Spain,EMEA
1063,Geislweg 14,,Salzburg,,5020,Austria,EMEA
1064,"67, rue des Cinquante Otages",,Nantes,,44000,France,EMEA
1065,Vinb'ltet 34,,Kobenhavn,,1734,Denmark,EMEA
1066,"Bronz Sok., Bronz Apt. 3/6 Tesvikiye",,Singapore,,79903,Singapore,Japan
1067,"C/ Moralzarzal, 86",,Madrid,,28034,Spain,EMEA
1068,5677 Strong St.,,San Rafael,CA,97562,USA,
1069,"C/ Moralzarzal, 86",,Madrid,,28034,Spain,EMEA
1070,"Bronz Sok., Bronz Apt. 3/6 Tesvikiye",,Singapore,,79903,Singapore,Japan
1071,"Merchants House, 27-30 Merchant's Quay",,Madrid,,28023,Spain,EMEA
1072,4575 Hillside Dr.,,New Bedford,MA,50553,USA,
1073,567 North Pendale Street,,New Haven,CT,97823,USA,
1074,"2, rue du Commerce",,Lyon,,69004,France,EMEA
1075,Rue Joseph-Bens 532,,Bruxelles,,B-1180,Belgium,EMEA
1076,Garden House Crowther Way,,Cowes,Isle of Wight,PO31 7PJ,UK,EMEA
1077,897 Long Airport Avenue,,NYC,NY,10022,USA,
1078,Rue Joseph-Bens 532,,Bruxelles,,B-1180,Belgium,EMEA
1079,5677 Strong St.,,San Rafael,CA,97562,USA,
1080,Via Monte Bianco 34,,Torino,,10100,Italy,EMEA
1081,Fauntleroy Circus,,Manchester,,EC2 5NT,UK,EMEA
1082,Smagsloget 45,,Aaarhus,,8200,Denmark,EMEA
1083,Berguvsv„gen  8,,Lule,,S-958 22,Sweden,EMEA
1084,"265, boulevard Charonne",,Paris,,75012,France,EMEA
1085,"C/ Moralzarzal, 86",,Madrid,,28034,Spain,EMEA
1086,2-2-8 Roppongi,,Minato-ku,Tokyo,106-0032,Japan,Japan
1087,"C/ Moralzarzal, 86",,Madrid,,28034,Spain,EMEA
1088,5677 Strong St.,,San Rafael,CA,97562,USA,
1089,8616 Spinnaker Dr.,,Boston,MA,51003,USA,
1090,15 McCallum Street - NatWest Center #13-03,,Makati City,,1227 MM,Philippines,Japan
1091,"12, rue des Bouchers",,Marseille,,13008,France,EMEA
1092,5677 Strong St.,,San Rafael,CA,97562,USA,
1093,7825 Douglas Av.,,Brickhaven,MA,58339,USA,
1094,7734 Strong St.,,San Francisco,CA,,USA,
51,201 Miller Street,Level 15,North Sydney,NSW,2060,Australia,APAC
1096,"Drammen 121, PR 744 Sentrum",,Bergen,,N 5804,Norway,EMEA
1097,Mehrheimerstr. 369,,Koln,,50739,Germany,EMEA
1098,"C/ Moralzarzal, 86",,Madrid,,28034,Spain,EMEA
1099,"25, rue Lauriston",,Paris,,75016,France,EMEA
1100,Grenzacherweg 237,,Gensve,,1203,Switzerland,EMEA
1101,Vinb'ltet 34,,Kobenhavn,,1734,Denmark,EMEA
1102,"25, rue Lauriston",,Paris,,75016,France,EMEA
1103,7 Allen Street,,Glen Waverly,Victoria,3150,Australia,APAC
1104,7635 Spinnaker Dr.,,Brickhaven,MA,58339,USA,
1105,Grenzacherweg 237,,Gensve,,1203,Switzerland,EMEA
1106,Lyonerstr. 34,,Frankfurt,,60528,Germany,EMEA
1107,Mehrheimerstr. 369,,Koln,,50739,Germany,EMEA
1108,5290 North Pendale Street,Suite 200,NYC,NY,10022,USA,
1109,897 Long Airport Avenue,,NYC,NY,10022,USA,
10,636 St Kilda Road,Level 3,Melbourne,Victoria,3004,Australia,APAC
1111,"Software Engineering Center, SEC Oy",,Espoo,,FIN-02271,Finland,EMEA
1112,"C/ Moralzarzal, 86",,Madrid,,28034,Spain,EMEA
1113,5677 Strong St.,,San Rafael,CA,97562,USA,
1114,Erling Skakkes gate 78,,Stavern,,4110,Norway,EMEA
1115,5557 North Pendale Street,,San Francisco,CA,,USA,
1116,"C/ Araquil, 67",,Madrid,,28023,Spain,EMEA
21,"Monitor Money Building, 815 Pacific Hwy",Level 6,Chatswood,NSW,2067,Australia,APAC
1118,2793 Furth Circle,,Brisbane,CA,94217,USA,
1119,5905 Pompton St.,Suite 750,NYC,NY,10022,USA,
1120,Via Ludovico il Moro 22,,Bergamo,,24100,Italy,EMEA
1121,5677 Strong St.,,San Rafael,CA,97562,USA,
1122,7 Allen Street,,Glen Waverly,Victoria,3150,Australia,APAC
1123,1900 Oak St.,,Vancouver,BC,V3F 2K1,Canada,
1124,3675 Furth Circle,,Burbank,CA,94019,USA,
1125,"2, rue du Commerce",,Lyon,,69004,France,EMEA
1126,"C/ Moralzarzal, 86",,Madrid,,28034,Spain,EMEA
1127,3086 Ingle Ln.,,San Jose,CA,94217,USA,
1128,Via Monte Bianco 34,,Torino,,10100,Italy,EMEA
1129,16780 Pompton St.,,Brickhaven,MA,58339,USA,
1130,"67, avenue de l'Europe",,Versailles,,78000,France,EMEA
1131,5677 Strong St.,,San Rafael,CA,97562,USA,
1132,Lyonerstr. 34,,Frankfurt,,60528,Germany,EMEA
1133,5557 North Pendale Street,,San Francisco,CA,,USA,
10,636 St Kilda Road,Level 3,Melbourne,Victoria,3004,Australia,APAC
1135,5677 Strong St.,,San Rafael,CA,97562,USA,
1136,7825 Douglas Av.,,Brickhaven,MA,58339,USA,
1137,5677 Strong St.,,San Rafael,CA,97562,USA,
1138,Kirchgasse 6,,Graz,,8010,Austria,EMEA
1139,Rue Joseph-Bens 532,,Bruxelles,,B-1180,Belgium,EMEA
1140,15 McCallum Street - NatWest Center #13-03,,Makati City,,1227 MM,Philippines,Japan
1141,"12, rue des Bouchers",,Marseille,,13008,France,EMEA
1142,5677 Strong St.,,San Rafael,CA,97562,USA,
1143,7825 Douglas Av.,,Brickhaven,MA,58339,USA,
1144,7734 Strong St.,,San Francisco,CA,,USA,
51,201 Miller Street,Level 15,North Sydney,NSW,2060,Australia,APAC
1146,"Drammen 121, PR 744 Sentrum",,Bergen,,N 5804,Norway,EMEA
1147,Mehrheimerstr. 369,,Koln,,50739,Germany,EMEA
1148,"C/ Moralzarzal, 86",,Madrid,,28034,Spain,EMEA
1149,"25, rue Lauriston",,Paris,,75016,France,EMEA
1150,Grenzacherweg 237,,Gensve,,1203,Switzerland,EMEA
1151,Vinb'ltet 34,,Kobenhavn,,1734,Denmark,EMEA
1152,"25, rue Lauriston",,Paris,,75016,France,EMEA
1153,7 Allen Street,,Glen Waverly,Victoria,3150,Australia,APAC
1154,7635 Spinnaker Dr.,,Brickhaven,MA,58339,USA,
1155,Grenzacherweg 237,,Gensve,,1203,Switzerland,EMEA
1156,Lyonerstr. 34,,Frankfurt,,60528,Germany,EMEA
1157,Mehrheimerstr. 369,,Koln,,50739,Germany,EMEA
1158,Berguvsv„gen  8,,Lule,,S-958 22,Sweden,EMEA
1159,15 McCallum Street - NatWest Center #13-03,,Makati City,,1227 MM,Philippines,Japan
10,636 St Kilda Road,Level 3,Melbourne,Victoria,3004,Australia,APAC
1161,"C/ Moralzarzal, 86",,Madrid,,28034,Spain,EMEA
1162,"Software Engineering Center, SEC Oy",,Espoo,,FIN-02271,Finland,EMEA
1163,"C/ Moralzarzal, 86",,Madrid,,28034,Spain,EMEA
1164,5677 Strong St.,,San Rafael,CA,97562,USA,
1165,11328 Douglas Av.,,Philadelphia,PA,71270,USA,
1166,"54, rue Royale",,Nantes,,44000,France,EMEA
1167,59 rue de l'Abbaye,,Reims,,51100,France,EMEA
51,201 Miller Street,Level 15,North Sydney,NSW,2060,Australia,APAC
1169,Smagsloget 45,,Aaarhus,,8200,Denmark,EMEA
1170,25593 South Bay Ln.,,Bridgewater,CT,97562,USA,
1171,"Drammen 121, PR 744 Sentrum",,Bergen,,N 5804,Norway,EMEA
1172,2304 Long Airport Avenue,,Nashua,NH,62005,USA,
1173,4092 Furth Circle,Suite 400,NYC,NY,10022,USA,
1174,"C/ Moralzarzal, 86",,Madrid,,28034,Spain,EMEA
1175,361 Furth Circle,,San Diego,CA,91217,USA,
1176,"Dojima Avanza 4F, 1-6-20 Dojima, Kita-ku",,Osaka,Osaka,530-0003,Japan,Japan
1177,Berkeley Gardens 12  Brewery,,Liverpool,,WX1 6LT,UK,EMEA
1178,Strada Provinciale 124,,Reggio Emilia,,42100,Italy,EMEA
1179,8489 Strong St.,,Las Vegas,NV,83030,USA,
1180,Grenzacherweg 237,,Gensve,,1203,Switzerland,EMEA
1181,"Drammensveien 126 A, PB 744 Sentrum",,Oslo,,N 0106,Norway,EMEA
1182,"C/ Moralzarzal, 86",,Madrid,,28034,Spain,EMEA
1183,1785 First Street,,New Bedford,MA,50553,USA,
1184,11328 Douglas Av.,,Philadelphia,PA,71270,USA,
1185,59 rue de l'Abbaye,,Reims,,51100,France,EMEA
1186,78934 Hillside Dr.,,Pasadena,CA,90003,USA,
1187,"C/ Moralzarzal, 86",,Madrid,,28034,Spain,EMEA
1188,Vinb'ltet 34,,Kobenhavn,,1734,Denmark,EMEA
1189,Geislweg 14,,Salzburg,,5020,Austria,EMEA
1190,15 McCallum Street - NatWest Center #13-03,,Makati City,,1227 MM,Philippines,Japan
1191,"12, rue des Bouchers",,Marseille,,13008,France,EMEA
1192,5677 Strong St.,,San Rafael,CA,97562,USA,
1193,2440 Pompton St.,,Glendale,CT,97561,USA,
1194,7734 Strong St.,,San Francisco,CA,,USA,
51,201 Miller Street,Level 15,North Sydney,NSW,2060,Australia,APAC
1196,"184, chausse de Tournai",,Lille,,59000,France,EMEA
1197,Mehrheimerstr. 369,,Koln,,50739,Germany,EMEA
1198,"25, rue Lauriston",,Paris,,75016,France,EMEA
1199,"184, chausse de Tournai",,Lille,,59000,France,EMEA
1200,2678 Kingston Rd.,Suite 101,NYC,NY,10022,USA,
1201,"25, rue Lauriston",,Paris,,75016,France,EMEA
1202,8616 Spinnaker Dr.,,Boston,MA,51003,USA,
1203,7635 Spinnaker Dr.,,Brickhaven,MA,58339,USA,
1204,"265, boulevard Charonne",,Paris,,75012,France,EMEA
1205,Keskuskatu 45,,Helsinki,,21240,Finland,EMEA
1206,Mehrheimerstr. 369,,Koln,,50739,Germany,EMEA
1207,5290 North Pendale Street,Suite 200,NYC,NY,10022,USA,
1208,15 McCallum Street - NatWest Center #13-03,,Makati City,,1227 MM,Philippines,Japan
10,636 St Kilda Road,Level 3,Melbourne,Victoria,3004,Australia,APAC
1210,"C/ Moralzarzal, 86",,Madrid,,28034,Spain,EMEA
1211,"Software Engineering Center, SEC Oy",,Espoo,,FIN-02271,Finland,EMEA
1212,"C/ Moralzarzal, 86",,Madrid,,28034,Spain,EMEA
1213,5677 Strong St.,,San Rafael,CA,97562,USA,
1214,Berkeley Gardens 12  Brewery,,Liverpool,,WX1 6LT,UK,EMEA
1215,Via Ludovico il Moro 22,,Bergamo,,24100,Italy,EMEA
1216,Geislweg 14,,Salzburg,,5020,Austria,EMEA
1217,16780 Pompton St.,,Brickhaven,MA,58339,USA,
1218,4575 Hillside Dr.,,New Bedford,MA,50553,USA,
1219,Keskuskatu 45,,Helsinki,,21240,Finland,EMEA
1220,?kergatan 24,,Boras,,S-844 67,Sweden,EMEA
1221,1 rue Alsace-Lorraine,,Toulouse,,31000,France,EMEA
1222,120 Hanover Sq.,,London,,WA1 1DP,UK,EMEA
1223,"Rambla de Catalu¤a, 23",,Barcelona,,8022,Spain,EMEA
1224,6047 Douglas Av.,,Los Angeles,CA,,USA,
1225,361 Furth Circle,,San Diego,CA,91217,USA,
1226,4658 Baden Av.,,Cambridge,MA,51247,USA,
1227,"C/ Moralzarzal, 86",,Madrid,,28034,Spain,EMEA
1228,Rue Joseph-Bens 532,,Bruxelles,,B-1180,Belgium,EMEA
1229,23 Tsawassen Blvd.,,Tsawassen,BC,T2F 8M4,Canada,
1230,Hansastr. 15,,Munich,,80686,Germany,EMEA
1231,782 First Street,,Philadelphia,PA,71270,USA,
1232,Garden House Crowther Way,,Cowes,Isle of Wight,PO31 7PJ,UK,EMEA
1233,Via Ludovico il Moro 22,,Bergamo,,24100,Italy,EMEA
1234,"Boulevard Tirou, 255",,Charleroi,,B-6000,Belgium,EMEA
1235,35 King George,,London,,WX3 6FW,UK,EMEA
1236,Torikatu 38,,Oulu,,90110,Finland,EMEA
1237,"C/ Moralzarzal, 86",,Madrid,,28034,Spain,EMEA
1238,59 rue de l'Abbaye,,Reims,,51100,France,EMEA
1239,3086 Ingle Ln.,,San Jose,CA,94217,USA,
1240,7 Allen Street,,Glen Waverly,Victoria,3150,Australia,APAC
1241,"C/ Moralzarzal, 86",,Madrid,,28034,Spain,EMEA
1242,"Bronz Sok., Bronz Apt. 3/6 Tesvikiye",,Singapore,,79903,Singapore,Japan
1243,4092 Furth Circle,Suite 400,NYC,NY,10022,USA,
1244,5677 Strong St.,,San Rafael,CA,97562,USA,
1245,31 Duncan St. West End,,South Brisbane,Queensland,4101,Australia,APAC
1246,"Bronz Sok., Bronz Apt. 3/6 Tesvikiye",,Singapore,,79903,Singapore,Japan
1247,Strada Provinciale 124,,Reggio Emilia,,42100,Italy,EMEA
1248,4575 Hillside Dr.,,New Bedford,MA,50553,USA,
1249,567 North Pendale Street,,New Haven,CT,97823,USA,
1250,6251 Ingle Ln.,,Boston,MA,51003,USA,
1251,25 Maiden Lane,Floor No. 4,Dublin,,2,Ireland,EMEA
1252,Lyonerstr. 34,,Frankfurt,,60528,Germany,EMEA
1253,"Software Engineering Center, SEC Oy",,Espoo,,FIN-02271,Finland,EMEA
1254,7586 Pompton St.,,Allentown,PA,70267,USA,
1255,5677 Strong St.,,San Rafael,CA,97562,USA,
1256,897 Long Airport Avenue,,NYC,NY,10022,USA,
1257,Fauntleroy Circus,,Manchester,,EC2 5NT,UK,EMEA
1258,Smagsloget 45,,Aaarhus,,8200,Denmark,EMEA
1259,2678 Kingston Rd.,Suite 101,NYC,NY,10022,USA,
1260,5905 Pompton St.,Suite 750,NYC,NY,10022,USA,
1261,4092 Furth Circle,Suite 400,NYC,NY,10022,USA,
1262,"C/ Moralzarzal, 86",,Madrid,,28034,Spain,EMEA
1263,2-2-8 Roppongi,,Minato-ku,Tokyo,106-0032,Japan,Japan
1264,"C/ Moralzarzal, 86",,Madrid,,28034,Spain,EMEA
1265,"C/ Moralzarzal, 86",,Madrid,,28034,Spain,EMEA
1266,25593 South Bay Ln.,,Bridgewater,CT,97562,USA,
1267,2304 Long Airport Avenue,,Nashua,NH,62005,USA,
1268,Fauntleroy Circus,,Manchester,,EC2 5NT,UK,EMEA
1269,8489 Strong St.,,Las Vegas,NV,83030,USA,
51,201 Miller Street,Level 15,North Sydney,NSW,2060,Australia,APAC
1271,7734 Strong St.,,San Francisco,CA,,USA,
1272,Via Ludovico il Moro 22,,Bergamo,,24100,Italy,EMEA
1273,5677 Strong St.,,San Rafael,CA,97562,USA,
1274,7 Allen Street,,Glen Waverly,Victoria,3150,Australia,APAC
1275,4092 Furth Circle,Suite 400,NYC,NY,10022,USA,
1276,120 Hanover Sq.,,London,,WA1 1DP,UK,EMEA
1277,"2, rue du Commerce",,Lyon,,69004,France,EMEA
1278,"24, place Kluber",,Strasbourg,,67000,France,EMEA
1279,Via Monte Bianco 34,,Torino,,10100,Italy,EMEA
1280,Village Close - 106 Linden Road Sandown,2nd Floor,Singapore,,69045,Singapore,APAC
1281,Berkeley Gardens 12  Brewery,,Liverpool,,WX1 6LT,UK,EMEA
1282,"C/ Moralzarzal, 86",,Madrid,,28034,Spain,EMEA
1283,Fauntleroy Circus,,Manchester,,EC2 5NT,UK,EMEA
1284,"12, rue des Bouchers",,Marseille,,13008,France,EMEA
1285,78934 Hillside Dr.,,Pasadena,CA,90003,USA,
1286,"C/ Moralzarzal, 86",,Madrid,,28034,Spain,EMEA
1287,3086 Ingle Ln.,,San Jose,CA,94217,USA,
21,"Monitor Money Building, 815 Pacific Hwy",Level 6,Chatswood,NSW,2067,Australia,APAC
1289,Vinb'ltet 34,,Kobenhavn,,1734,Denmark,EMEA
1290,"Bronz Sok., Bronz Apt. 3/6 Tesvikiye",,Singapore,,79903,Singapore,Japan
1291,"C/ Moralzarzal, 86",,Madrid,,28034,Spain,EMEA
1292,5677 Strong St.,,San Rafael,CA,97562,USA,
1293,"C/ Moralzarzal, 86",,Madrid,,28034,Spain,EMEA
1294,1785 First Street,,New Bedford,MA,50553,USA,
1295,"Merchants House, 27-30 Merchant's Quay",,Madrid,,28023,Spain,EMEA
1296,4575 Hillside Dr.,,New Bedford,MA,50553,USA,
1297,"Rambla de Catalu¤a, 23",,Barcelona,,8022,Spain,EMEA
1298,"2, rue du Commerce",,Lyon,,69004,France,EMEA
1299,Rue Joseph-Bens 532,,Bruxelles,,B-1180,Belgium,EMEA
1300,Garden House Crowther Way,,Cowes,Isle of Wight,PO31 7PJ,UK,EMEA
1301,897 Long Airport Avenue,,NYC,NY,10022,USA,
1302,43 rue St. Laurent,,Montreal,Quebec,H1J 1C3,Canada,
1303,Rue Joseph-Bens 532,,Bruxelles,,B-1180,Belgium,EMEA
1304,23 Tsawassen Blvd.,,Tsawassen,BC,T2F 8M4,Canada,
1305,Via Monte Bianco 34,,Torino,,10100,Italy,EMEA
1306,Fauntleroy Circus,,Manchester,,EC2 5NT,UK,EMEA
1307,"67, rue des Cinquante Otages",,Nantes,,44000,France,EMEA
1308,Berguvsv„gen  8,,Lule,,S-958 22,Sweden,EMEA
1309,5905 Pompton St.,Suite 750,NYC,NY,10022,USA,
1310,"C/ Moralzarzal, 86",,Madrid,,28034,Spain,EMEA
1311,2-2-8 Roppongi,,Minato-ku,Tokyo,106-0032,Japan,Japan
1312,"C/ Moralzarzal, 86",,Madrid,,28034,Spain,EMEA
1313,5677 Strong St.,,San Rafael,CA,97562,USA,
1314,8616 Spinnaker Dr.,,Boston,MA,51003,USA,
1315,Erling Skakkes gate 78,,Stavern,,4110,Norway,EMEA
1316,"265, boulevard Charonne",,Paris,,75012,France,EMEA
1317,"C/ Araquil, 67",,Madrid,,28023,Spain,EMEA
1318,9408 Furth Circle,,Burlingame,CA,94217,USA,
1319,"Bronz Sok., Bronz Apt. 3/6 Tesvikiye",,Singapore,,79903,Singapore,Japan
1320,Kirchgasse 6,,Graz,,8010,Austria,EMEA
1321,35 King George,,London,,WX3 6FW,UK,EMEA
1322,782 First Street,,Philadelphia,PA,71270,USA,
1323,"2, rue du Commerce",,Lyon,,69004,France,EMEA
1324,6251 Ingle Ln.,,Boston,MA,51003,USA,
1325,Village Close - 106 Linden Road Sandown,2nd Floor,Singapore,,69045,Singapore,APAC
1326,5677 Strong St.,,San Rafael,CA,97562,USA,
1327,567 North Pendale Street,,New Haven,CT,97823,USA,
1328,Village Close - 106 Linden Road Sandown,2nd Floor,Singapore,,69045,Singapore,APAC
21,"Monitor Money Building, 815 Pacific Hwy",Level 6,Chatswood,NSW,2067,Australia,APAC
1330,7586 Pompton St.,,Allentown,PA,70267,USA,
1331,?kergatan 24,,Boras,,S-844 67,Sweden,EMEA
1332,39323 Spinnaker Dr.,,Cambridge,MA,51247,USA,
1333,1900 Oak St.,,Vancouver,BC,V3F 2K1,Canada,
1334,Lyonerstr. 34,,Frankfurt,,60528,Germany,EMEA
1335,Berguvsv„gen  8,,Lule,,S-958 22,Sweden,EMEA
10,636 St Kilda Road,Level 3,Melbourne,Victoria,3004,Australia,APAC
1337,5677 Strong St.,,San Rafael,CA,97562,USA,
51,201 Miller Street,Level 15,North Sydney,NSW,2060,Australia,APAC
1339,5677 Strong St.,,San Rafael,CA,97562,USA,
1340,43 rue St. Laurent,,Montreal,Quebec,H1J 1C3,Canada,
1341,"67, rue des Cinquante Otages",,Nantes,,44000,France,EMEA
1342,Erling Skakkes gate 78,,Stavern,,4110,Norway,EMEA
1343,5677 Strong St.,,San Rafael,CA,97562,USA,
1344,"C/ Araquil, 67",,Madrid,,28023,Spain,EMEA
1345,9408 Furth Circle,,Burlingame,CA,94217,USA,
1346,"Bronz Sok., Bronz Apt. 3/6 Tesvikiye",,Singapore,,79903,Singapore,Japan
1347,Kirchgasse 6,,Graz,,8010,Austria,EMEA
1348,31 Duncan St. West End,,South Brisbane,Queensland,4101,Australia,APAC
1349,782 First Street,,Philadelphia,PA,71270,USA,
1350,"2, rue du Commerce",,Lyon,,69004,France,EMEA
1351,1900 Oak St.,,Vancouver,BC,V3F 2K1,Canada,
1352,3675 Furth Circle,,Burbank,CA,94019,USA,
1353,5677 Strong St.,,San Rafael,CA,97562,USA,
1354,567 North Pendale Street,,New Haven,CT,97823,USA,
1355,2-2-8 Roppongi,,Minato-ku,Tokyo,106-0032,Japan,Japan
21,"Monitor Money Building, 815 Pacific Hwy",Level 6,Chatswood,NSW,2067,Australia,APAC
1357,7586 Pompton St.,,Allentown,PA,70267,USA,
1358,?kergatan 24,,Boras,,S-844 67,Sweden,EMEA
1359,"67, avenue de l'Europe",,Versailles,,78000,France,EMEA
1360,5677 Strong St.,,San Rafael,CA,97562,USA,
1361,2678 Kingston Rd.,Suite 101,NYC,NY,10022,USA,
1362,5557 North Pendale Street,,San Francisco,CA,,USA,
1363,"C/ Araquil, 67",,Madrid,,28023,Spain,EMEA
1364,"C/ Moralzarzal, 86",,Madrid,,28034,Spain,EMEA
51,201 Miller Street,Level 15,North Sydney,NSW,2060,Australia,APAC
1366,5677 Strong St.,,San Rafael,CA,97562,USA,
1367,43 rue St. Laurent,,Montreal,Quebec,H1J 1C3,Canada,
1368,"C/ Moralzarzal, 86",,Madrid,,28034,Spain,EMEA
1369,15 McCallum Street - NatWest Center #13-03,,Makati City,,1227 MM,Philippines,Japan
1370,"12, rue des Bouchers",,Marseille,,13008,France,EMEA
1371,5677 Strong St.,,San Rafael,CA,97562,USA,
1372,2440 Pompton St.,,Glendale,CT,97561,USA,
1373,7734 Strong St.,,San Francisco,CA,,USA,
51,201 Miller Street,Level 15,North Sydney,NSW,2060,Australia,APAC
1375,"184, chausse de Tournai",,Lille,,59000,France,EMEA
1376,Mehrheimerstr. 369,,Koln,,50739,Germany,EMEA
1377,"25, rue Lauriston",,Paris,,75016,France,EMEA
1378,Grenzacherweg 237,,Gensve,,1203,Switzerland,EMEA
1379,Vinb'ltet 34,,Kobenhavn,,1734,Denmark,EMEA
1380,"25, rue Lauriston",,Paris,,75016,France,EMEA
1381,8616 Spinnaker Dr.,,Boston,MA,51003,USA,
1382,7635 Spinnaker Dr.,,Brickhaven,MA,58339,USA,
1383,Grenzacherweg 237,,Gensve,,1203,Switzerland,EMEA
1384,Keskuskatu 45,,Helsinki,,21240,Finland,EMEA
1385,Mehrheimerstr. 369,,Koln,,50739,Germany,EMEA
1386,5290 North Pendale Street,Suite 200,NYC,NY,10022,USA,
1387,15 McCallum Street - NatWest Center #13-03,,Makati City,,1227 MM,Philippines,Japan
10,636 St Kilda Road,Level 3,Melbourne,Victoria,3004,Australia,APAC
1389,"C/ Moralzarzal, 86",,Madrid,,28034,Spain,EMEA
1390,"Software Engineering Center, SEC Oy",,Espoo,,FIN-02271,Finland,EMEA
1391,"C/ Moralzarzal, 86",,Madrid,,28034,Spain,EMEA
1392,5677 Strong St.,,San Rafael,CA,97562,USA,
1393,Fauntleroy Circus,,Manchester,,EC2 5NT,UK,EMEA
1394,8489 Strong St.,,Las Vegas,NV,83030,USA,
51,201 Miller Street,Level 15,North Sydney,NSW,2060,Australia,APAC
1396,Smagsloget 45,,Aaarhus,,8200,Denmark,EMEA
1397,Via Ludovico il Moro 22,,Bergamo,,24100,Italy,EMEA
1398,5677 Strong St.,,San Rafael,CA,97562,USA,
1399,7 Allen Street,,Glen Waverly,Victoria,3150,Australia,APAC
1400,4092 Furth Circle,Suite 400,NYC,NY,10022,USA,
1401,120 Hanover Sq.,,London,,WA1 1DP,UK,EMEA
1402,"2, rue du Commerce",,Lyon,,69004,France,EMEA
1403,"24, place Kluber",,Strasbourg,,67000,France,EMEA
1404,4092 Furth Circle,Suite 400,NYC,NY,10022,USA,
1405,"C/ Moralzarzal, 86",,Madrid,,28034,Spain,EMEA
1406,Village Close - 106 Linden Road Sandown,2nd Floor,Singapore,,69045,Singapore,APAC
1407,Berkeley Gardens 12  Brewery,,Liverpool,,WX1 6LT,UK,EMEA
1408,"C/ Moralzarzal, 86",,Madrid,,28034,Spain,EMEA
1409,Fauntleroy Circus,,Manchester,,EC2 5NT,UK,EMEA
1410,"12, rue des Bouchers",,Marseille,,13008,France,EMEA
1411,78934 Hillside Dr.,,Pasadena,CA,90003,USA,
1412,"C/ Moralzarzal, 86",,Madrid,,28034,Spain,EMEA
1413,3086 Ingle Ln.,,San Jose,CA,94217,USA,
21,"Monitor Money Building, 815 Pacific Hwy",Level 6,Chatswood,NSW,2067,Australia,APAC
1415,Fauntleroy Circus,,Manchester,,EC2 5NT,UK,EMEA
1416,8489 Strong St.,,Las Vegas,NV,83030,USA,
51,201 Miller Street,Level 15,North Sydney,NSW,2060,Australia,APAC
1418,Smagsloget 45,,Aaarhus,,8200,Denmark,EMEA
1419,25593 South Bay Ln.,,Bridgewater,CT,97562,USA,
1420,5677 Strong St.,,San Rafael,CA,97562,USA,
1421,2304 Long Airport Avenue,,Nashua,NH,62005,USA,
1422,4092 Furth Circle,Suite 400,NYC,NY,10022,USA,
1423,"C/ Moralzarzal, 86",,Madrid,,28034,Spain,EMEA
1424,361 Furth Circle,,San Diego,CA,91217,USA,
1425,"24, place Kluber",,Strasbourg,,67000,France,EMEA
1426,4092 Furth Circle,Suite 400,NYC,NY,10022,USA,
1427,"C/ Moralzarzal, 86",,Madrid,,28034,Spain,EMEA
1428,Village Close - 106 Linden Road Sandown,2nd Floor,Singapore,,69045,Singapore,APAC
1429,"Drammensveien 126 A, PB 744 Sentrum",,Oslo,,N 0106,Norway,EMEA
1430,"C/ Moralzarzal, 86",,Madrid,,28034,Spain,EMEA
1431,1785 First Street,,New Bedford,MA,50553,USA,
1432,Fauntleroy Circus,,Manchester,,EC2 5NT,UK,EMEA
1433,"12, rue des Bouchers",,Marseille,,13008,France,EMEA
1434,78934 Hillside Dr.,,Pasadena,CA,90003,USA,
1435,"C/ Moralzarzal, 86",,Madrid,,28034,Spain,EMEA
1436,3086 Ingle Ln.,,San Jose,CA,94217,USA,
21,"Monitor Money Building, 815 Pacific Hwy",Level 6,Chatswood,NSW,2067,Australia,APAC
1438,"C/ Moralzarzal, 86",,Madrid,,28034,Spain,EMEA
1439,5905 Pompton St.,Suite 750,NYC,NY,10022,USA,
1440,4092 Furth Circle,Suite 400,NYC,NY,10022,USA,
1441,"Software Engineering Center, SEC Oy",,Espoo,,FIN-02271,Finland,EMEA
1442,31 Duncan St. West End,,South Brisbane,Queensland,4101,Australia,APAC
1443,"Bronz Sok., Bronz Apt. 3/6 Tesvikiye",,Singapore,,79903,Singapore,Japan
1444,Strada Provinciale 124,,Reggio Emilia,,42100,Italy,EMEA
1445,"C/ Romero, 33",,Sevilla,,41101,Spain,EMEA
1446,3758 North Pendale Street,,White Plains,NY,24067,USA,
1447,6251 Ingle Ln.,,Boston,MA,51003,USA,
1448,25 Maiden Lane,Floor No. 4,Dublin,,2,Ireland,EMEA
1449,Lyonerstr. 34,,Frankfurt,,60528,Germany,EMEA
1450,"C/ Moralzarzal, 86",,Madrid,,28034,Spain,EMEA
1451,Village Close - 106 Linden Road Sandown,2nd Floor,Singapore,,69045,Singapore,APAC
1452,5677 Strong St.,,San Rafael,CA,97562,USA,
1453,5677 Strong St.,,San Rafael,CA,97562,USA,
1454,897 Long Airport Avenue,,NYC,NY,10022,USA,
1455,39323 Spinnaker Dr.,,Cambridge,MA,51247,USA,
1456,Smagsloget 45,,Aaarhus,,8200,Denmark,EMEA
1457,2678 Kingston Rd.,Suite 101,NYC,NY,10022,USA,
1458,"265, boulevard Charonne",,Paris,,75012,France,EMEA
1459,4092 Furth Circle,Suite 400,NYC,NY,10022,USA,
1460,"C/ Moralzarzal, 86",,Madrid,,28034,Spain,EMEA
1461,5677 Strong St.,,San Rafael,CA,97562,USA,
1462,"C/ Moralzarzal, 86",,Madrid,,28034,Spain,EMEA
1463,"C/ Moralzarzal, 86",,Madrid,,28034,Spain,EMEA
1464,"C/ Moralzarzal, 86",,Madrid,,28034,Spain,EMEA
1465,"67, rue des Cinquante Otages",,Nantes,,44000,France,EMEA
1466,897 Long Airport Avenue,,NYC,NY,10022,USA,
10,636 St Kilda Road,Level 3,Melbourne,Victoria,3004,Australia,APAC
1468,27 rue du Colonel Pierre Avia,,Paris,,75508,France,EMEA
1469,78934 Hillside Dr.,,Pasadena,CA,90003,USA,
1470,7734 Strong St.,,San Francisco,CA,,USA,
1471,9408 Furth Circle,,Burlingame,CA,94217,USA,
1472,"184, chausse de Tournai",,Lille,,59000,France,EMEA
1473,"Drammen 121, PR 744 Sentrum",,Bergen,,N 5804,Norway,EMEA
1474,5557 North Pendale Street,,San Francisco,CA,,USA,
1475,"25, rue Lauriston",,Paris,,75016,France,EMEA
10,636 St Kilda Road,Level 3,Melbourne,Victoria,3004,Australia,APAC
1477,2678 Kingston Rd.,Suite 101,NYC,NY,10022,USA,
1478,7476 Moss Rd.,,Newark,NJ,94019,USA,
1479,25593 South Bay Ln.,,Bridgewater,CT,97562,USA,
1480,"67, rue des Cinquante Otages",,Nantes,,44000,France,EMEA
1481,39323 Spinnaker Dr.,,Cambridge,MA,51247,USA,
1482,Keskuskatu 45,,Helsinki,,21240,Finland,EMEA
1483,Erling Skakkes gate 78,,Stavern,,4110,Norway,EMEA
1484,7586 Pompton St.,,Allentown,PA,70267,USA,
1485,897 Long Airport Avenue,,NYC,NY,10022,USA,
1486,2-2-8 Roppongi,,Minato-ku,Tokyo,106-0032,Japan,Japan
1487,9408 Furth Circle,,Burlingame,CA,94217,USA,
1488,31 Duncan St. West End,,South Brisbane,Queensland,4101,Australia,APAC
1489,?kergatan 24,,Boras,,S-844 67,Sweden,EMEA
1490,Berkeley Gardens 12  Brewery,,Liverpool,,WX1 6LT,UK,EMEA
1491,"C/ Moralzarzal, 86",,Madrid,,28034,Spain,EMEA
1492,Fauntleroy Circus,,Manchester,,EC2 5NT,UK,EMEA
1493,"54, rue Royale",,Nantes,,44000,France,EMEA
1494,59 rue de l'Abbaye,,Reims,,51100,France,EMEA
51,201 Miller Street,Level 15,North Sydney,NSW,2060,Australia,APAC
1496,Smagsloget 45,,Aaarhus,,8200,Denmark,EMEA
1497,25593 South Bay Ln.,,Bridgewater,CT,97562,USA,
1498,"Drammen 121, PR 744 Sentrum",,Bergen,,N 5804,Norway,EMEA
1499,2304 Long Airport Avenue,,Nashua,NH,62005,USA,
1500,4092 Furth Circle,Suite 400,NYC,NY,10022,USA,
1501,"C/ Moralzarzal, 86",,Madrid,,28034,Spain,EMEA
1502,361 Furth Circle,,San Diego,CA,91217,USA,
1503,"24, place Kluber",,Strasbourg,,67000,France,EMEA
1504,Strada Provinciale 124,,Reggio Emilia,,42100,Italy,EMEA
1505,8489 Strong St.,,Las Vegas,NV,83030,USA,
1506,Village Close - 106 Linden Road Sandown,2nd Floor,Singapore,,69045,Singapore,APAC
1507,"Drammensveien 126 A, PB 744 Sentrum",,Oslo,,N 0106,Norway,EMEA
1508,"C/ Moralzarzal, 86",,Madrid,,28034,Spain,EMEA
1509,1785 First Street,,New Bedford,MA,50553,USA,
1510,Fauntleroy Circus,,Manchester,,EC2 5NT,UK,EMEA
1511,59 rue de l'Abbaye,,Reims,,51100,France,EMEA
1512,78934 Hillside Dr.,,Pasadena,CA,90003,USA,
1513,"C/ Moralzarzal, 86",,Madrid,,28034,Spain,EMEA
1514,3086 Ingle Ln.,,San Jose,CA,94217,USA,
21,"Monitor Money Building, 815 Pacific Hwy",Level 6,Chatswood,NSW,2067,Australia,APAC
1516,Via Ludovico il Moro 22,,Bergamo,,24100,Italy,EMEA
10,636 St Kilda Road,Level 3,Melbourne,Victoria,3004,Australia,APAC
1518,"C/ Moralzarzal, 86",,Madrid,,28034,Spain,EMEA
1519,78934 Hillside Dr.,,Pasadena,CA,90003,USA,
1520,9408 Furth Circle,,Burlingame,CA,94217,USA,
1521,"Dojima Avanza 4F, 1-6-20 Dojima, Kita-ku",,Osaka,Osaka,530-0003,Japan,Japan
10,636 St Kilda Road,Level 3,Melbourne,Victoria,3004,Australia,APAC
1523,23 Tsawassen Blvd.,,Tsawassen,BC,T2F 8M4,Canada,
1524,3086 Ingle Ln.,,San Jose,CA,94217,USA,
1525,"C/ Moralzarzal, 86",,Madrid,,28034,Spain,EMEA
1526,"67, rue des Cinquante Otages",,Nantes,,44000,France,EMEA
1527,"Drammensveien 126 A, PB 744 Sentrum",,Oslo,,N 0106,Norway,EMEA
1528,25 Maiden Lane,Floor No. 4,Dublin,,2,Ireland,EMEA
1529,3758 North Pendale Street,,White Plains,NY,24067,USA,
1530,Garden House Crowther Way,,Cowes,Isle of Wight,PO31 7PJ,UK,EMEA
1531,Via Ludovico il Moro 22,,Bergamo,,24100,Italy,EMEA
1532,2-2-8 Roppongi,,Minato-ku,Tokyo,106-0032,Japan,Japan
1533,2440 Pompton St.,,Glendale,CT,97561,USA,
1534,31 Duncan St. West End,,South Brisbane,Queensland,4101,Australia,APAC
1535,"C/ Moralzarzal, 86",,Madrid,,28034,Spain,EMEA
1536,59 rue de l'Abbaye,,Reims,,51100,France,EMEA
1537,7476 Moss Rd.,,Newark,NJ,94019,USA,
1538,Strada Provinciale 124,,Reggio Emilia,,42100,Italy,EMEA
1539,Lyonerstr. 34,,Frankfurt,,60528,Germany,EMEA
1540,Fauntleroy Circus,,Manchester,,EC2 5NT,UK,EMEA
1541,8489 Strong St.,,Las Vegas,NV,83030,USA,
1542,2793 Furth Circle,,Brisbane,CA,94217,USA,
1543,7734 Strong St.,,San Francisco,CA,,USA,
1544,Via Ludovico il Moro 22,,Bergamo,,24100,Italy,EMEA
1545,5677 Strong St.,,San Rafael,CA,97562,USA,
1546,7 Allen Street,,Glen Waverly,Victoria,3150,Australia,APAC
1547,"C/ Moralzarzal, 86",,Madrid,,28034,Spain,EMEA
1548,"C/ Araquil, 67",,Madrid,,28023,Spain,EMEA
1549,"2, rue du Commerce",,Lyon,,69004,France,EMEA
1550,6251 Ingle Ln.,,Boston,MA,51003,USA,
1551,Via Monte Bianco 34,,Torino,,10100,Italy,EMEA
1552,Village Close - 106 Linden Road Sandown,2nd Floor,Singapore,,69045,Singapore,APAC
1553,"67, avenue de l'Europe",,Versailles,,78000,France,EMEA
1554,5677 Strong St.,,San Rafael,CA,97562,USA,
1555,2304 Long Airport Avenue,,Nashua,NH,62005,USA,
1556,Fauntleroy Circus,,Manchester,,EC2 5NT,UK,EMEA
1557,"12, rue des Bouchers",,Marseille,,13008,France,EMEA
1558,27 rue du Colonel Pierre Avia,,Paris,,75508,France,EMEA
1559,78934 Hillside Dr.,,Pasadena,CA,90003,USA,
1560,"C/ Moralzarzal, 86",,Madrid,,28034,Spain,EMEA
51,201 Miller Street,Level 15,North Sydney,NSW,2060,Australia,APAC
1562,Village Close - 106 Linden Road Sandown,2nd Floor,Singapore,,69045,Singapore,APAC
21,"Monitor Money Building, 815 Pacific Hwy",Level 6,Chatswood,NSW,2067,Australia,APAC
1564,897 Long Airport Avenue,,NYC,NY,10022,USA,
10,636 St Kilda Road,Level 3,Melbourne,Victoria,3004,Australia,APAC
1566,27 rue du Colonel Pierre Avia,,Paris,,75508,France,EMEA
1567,78934 Hillside Dr.,,Pasadena,CA,90003,USA,
1568,Erling Skakkes gate 78,,Stavern,,4110,Norway,EMEA
1569,9408 Furth Circle,,Burlingame,CA,94217,USA,
1570,"184, chausse de Tournai",,Lille,,59000,France,EMEA
1571,"Drammen 121, PR 744 Sentrum",,Bergen,,N 5804,Norway,EMEA
1572,5557 North Pendale Street,,San Francisco,CA,,USA,
1573,"Dojima Avanza 4F, 1-6-20 Dojima, Kita-ku",,Osaka,Osaka,530-0003,Japan,Japan
10,636 St Kilda Road,Level 3,Melbourne,Victoria,3004,Australia,APAC
1575,11328 Douglas Av.,,Philadelphia,PA,71270,USA,
1576,3086 Ingle Ln.,,San Jose,CA,94217,USA,
1577,25593 South Bay Ln.,,Bridgewater,CT,97562,USA,
1578,"67, rue des Cinquante Otages",,Nantes,,44000,France,EMEA
1579,39323 Spinnaker Dr.,,Cambridge,MA,51247,USA,
1580,25 Maiden Lane,Floor No. 4,Dublin,,2,Ireland,EMEA
1581,3758 North Pendale Street,,White Plains,NY,24067,USA,
1582,7586 Pompton St.,,Allentown,PA,70267,USA,
1583,897 Long Airport Avenue,,NYC,NY,10022,USA,
1584,"Rambla de Catalu¤a, 23",,Barcelona,,8022,Spain,EMEA
1585,"Software Engineering Center, SEC Oy",,Espoo,,FIN-02271,Finland,EMEA
1586,"67, rue des Cinquante Otages",,Nantes,,44000,France,EMEA
1587,?kergatan 24,,Boras,,S-844 67,Sweden,EMEA
1588,"25, rue Lauriston",,Paris,,75016,France,EMEA
1589,Strada Provinciale 124,,Reggio Emilia,,42100,Italy,EMEA
1590,Vinb'ltet 34,,Kobenhavn,,1734,Denmark,EMEA
1591,"Bronz Sok., Bronz Apt. 3/6 Tesvikiye",,Singapore,,79903,Singapore,Japan
1592,35 King George,,London,,WX3 6FW,UK,EMEA
1593,5677 Strong St.,,San Rafael,CA,97562,USA,
1594,"C/ Moralzarzal, 86",,Madrid,,28034,Spain,EMEA
1595,?kergatan 24,,Boras,,S-844 67,Sweden,EMEA
1596,"Merchants House, 27-30 Merchant's Quay",,Madrid,,28023,Spain,EMEA
1597,4575 Hillside Dr.,,New Bedford,MA,50553,USA,
1598,"Rambla de Catalu¤a, 23",,Barcelona,,8022,Spain,EMEA
1599,"2, rue du Commerce",,Lyon,,69004,France,EMEA
1600,Rue Joseph-Bens 532,,Bruxelles,,B-1180,Belgium,EMEA
1601,Garden House Crowther Way,,Cowes,Isle of Wight,PO31 7PJ,UK,EMEA
1602,897 Long Airport Avenue,,NYC,NY,10022,USA,
1603,43 rue St. Laurent,,Montreal,Quebec,H1J 1C3,Canada,
1604,Rue Joseph-Bens 532,,Bruxelles,,B-1180,Belgium,EMEA
1605,23 Tsawassen Blvd.,,Tsawassen,BC,T2F 8M4,Canada,
1606,Via Monte Bianco 34,,Torino,,10100,Italy,EMEA
1607,Fauntleroy Circus,,Manchester,,EC2 5NT,UK,EMEA
1608,"67, rue des Cinquante Otages",,Nantes,,44000,France,EMEA
1609,Berguvsv„gen  8,,Lule,,S-958 22,Sweden,EMEA
1610,5905 Pompton St.,Suite 750,NYC,NY,10022,USA,
1611,"C/ Moralzarzal, 86",,Madrid,,28034,Spain,EMEA
1612,2-2-8 Roppongi,,Minato-ku,Tokyo,106-0032,Japan,Japan
1613,7734 Strong St.,,San Francisco,CA,,USA,
1614,5677 Strong St.,,San Rafael,CA,97562,USA,
1615,8616 Spinnaker Dr.,,Boston,MA,51003,USA,
1616,Lyonerstr. 34,,Frankfurt,,60528,Germany,EMEA
1617,Fauntleroy Circus,,Manchester,,EC2 5NT,UK,EMEA
1618,8489 Strong St.,,Las Vegas,NV,83030,USA,
1619,2793 Furth Circle,,Brisbane,CA,94217,USA,
1620,7734 Strong St.,,San Francisco,CA,,USA,
1621,Via Ludovico il Moro 22,,Bergamo,,24100,Italy,EMEA
1622,5677 Strong St.,,San Rafael,CA,97562,USA,
1623,7 Allen Street,,Glen Waverly,Victoria,3150,Australia,APAC
1624,"C/ Moralzarzal, 86",,Madrid,,28034,Spain,EMEA
1625,"C/ Araquil, 67",,Madrid,,28023,Spain,EMEA
1626,"2, rue du Commerce",,Lyon,,69004,France,EMEA
1627,"C/ Moralzarzal, 86",,Madrid,,28034,Spain,EMEA
1628,"24, place Kluber",,Strasbourg,,67000,France,EMEA
1629,Via Monte Bianco 34,,Torino,,10100,Italy,EMEA
1630,"Drammen 121, PR 744 Sentrum",,Bergen,,N 5804,Norway,EMEA
1631,"67, avenue de l'Europe",,Versailles,,78000,France,EMEA
1632,5677 Strong St.,,San Rafael,CA,97562,USA,
1633,2304 Long Airport Avenue,,Nashua,NH,62005,USA,
1634,Fauntleroy Circus,,Manchester,,EC2 5NT,UK,EMEA
1635,"54, rue Royale",,Nantes,,44000,France,EMEA
1636,27 rue du Colonel Pierre Avia,,Paris,,75508,France,EMEA
1637,78934 Hillside Dr.,,Pasadena,CA,90003,USA,
1638,"C/ Moralzarzal, 86",,Madrid,,28034,Spain,EMEA
51,201 Miller Street,Level 15,North Sydney,NSW,2060,Australia,APAC
1640,5677 Strong St.,,San Rafael,CA,97562,USA,
1641,Erling Skakkes gate 78,,Stavern,,4110,Norway,EMEA
1642,"265, boulevard Charonne",,Paris,,75012,France,EMEA
1643,"C/ Araquil, 67",,Madrid,,28023,Spain,EMEA
1644,9408 Furth Circle,,Burlingame,CA,94217,USA,
1645,Torikatu 38,,Oulu,,90110,Finland,EMEA
1646,"Bronz Sok., Bronz Apt. 3/6 Tesvikiye",,Singapore,,79903,Singapore,Japan
1647,35 King George,,London,,WX3 6FW,UK,EMEA
1648,"C/ Romero, 33",,Sevilla,,41101,Spain,EMEA
1649,"2, rue du Commerce",,Lyon,,69004,France,EMEA
1650,6251 Ingle Ln.,,Boston,MA,51003,USA,
1651,Village Close - 106 Linden Road Sandown,2nd Floor,Singapore,,69045,Singapore,APAC
1652,5677 Strong St.,,San Rafael,CA,97562,USA,
1653,"C/ Moralzarzal, 86",,Madrid,,28034,Spain,EMEA
1654,Village Close - 106 Linden Road Sandown,2nd Floor,Singapore,,69045,Singapore,APAC
1655,5677 Strong St.,,San Rafael,CA,97562,USA,
1656,7586 Pompton St.,,Allentown,PA,70267,USA,
1657,?kergatan 24,,Boras,,S-844 67,Sweden,EMEA
1658,39323 Spinnaker Dr.,,Cambridge,MA,51247,USA,
1659,1900 Oak St.,,Vancouver,BC,V3F 2K1,Canada,
1660,2678 Kingston Rd.,Suite 101,NYC,NY,10022,USA,
1661,Berguvsv„gen  8,,Lule,,S-958 22,Sweden,EMEA
1662,"C/ Araquil, 67",,Madrid,,28023,Spain,EMEA
1663,"C/ Moralzarzal, 86",,Madrid,,28034,Spain,EMEA
1664,5677 Strong St.,,San Rafael,CA,97562,USA,
1665,5677 Strong St.,,San Rafael,CA,97562,USA,
1666,"C/ Moralzarzal, 86",,Madrid,,28034,Spain,EMEA
1667,"67, rue des Cinquante Otages",,Nantes,,44000,France,EMEA
1668,15 McCallum Street - NatWest Center #13-03,,Makati City,,1227 MM,Philippines,Japan
1669,59 rue de l'Abbaye,,Reims,,51100,France,EMEA
1670,5677 Strong St.,,San Rafael,CA,97562,USA,
1671,78934 Hillside Dr.,,Pasadena,CA,90003,USA,
1672,7734 Strong St.,,San Francisco,CA,,USA,
51,201 Miller Street,Level 15,North Sydney,NSW,2060,Australia,APAC
1674,"184, chausse de Tournai",,Lille,,59000,France,EMEA
1675,"C/ Moralzarzal, 86",,Madrid,,28034,Spain,EMEA
1676,"25, rue Lauriston",,Paris,,75016,France,EMEA
1677,"184, chausse de Tournai",,Lille,,59000,France,EMEA
1678,2678 Kingston Rd.,Suite 101,NYC,NY,10022,USA,
1679,"25, rue Lauriston",,Paris,,75016,France,EMEA
1680,8616 Spinnaker Dr.,,Boston,MA,51003,USA,
1681,7635 Spinnaker Dr.,,Brickhaven,MA,58339,USA,
1682,39323 Spinnaker Dr.,,Cambridge,MA,51247,USA,
1683,Keskuskatu 45,,Helsinki,,21240,Finland,EMEA
1684,Erling Skakkes gate 78,,Stavern,,4110,Norway,EMEA
1685,5290 North Pendale Street,Suite 200,NYC,NY,10022,USA,
1686,15 McCallum Street - NatWest Center #13-03,,Makati City,,1227 MM,Philippines,Japan
1687,Geislweg 14,,Salzburg,,5020,Austria,EMEA
1688,"C/ Moralzarzal, 86",,Madrid,,28034,Spain,EMEA
1689,"Software Engineering Center, SEC Oy",,Espoo,,FIN-02271,Finland,EMEA
1690,"67, rue des Cinquante Otages",,Nantes,,44000,France,EMEA
1691,5677 Strong St.,,San Rafael,CA,97562,USA,
1692,Berkeley Gardens 12  Brewery,,Liverpool,,WX1 6LT,UK,EMEA
1693,Fauntleroy Circus,,Manchester,,EC2 5NT,UK,EMEA
1694,8489 Strong St.,,Las Vegas,NV,83030,USA,
51,201 Miller Street,Level 15,North Sydney,NSW,2060,Australia,APAC
1696,Smagsloget 45,,Aaarhus,,8200,Denmark,EMEA
1697,25593 South Bay Ln.,,Bridgewater,CT,97562,USA,
1698,5677 Strong St.,,San Rafael,CA,97562,USA,
1699,2304 Long Airport Avenue,,Nashua,NH,62005,USA,
1700,4092 Furth Circle,Suite 400,NYC,NY,10022,USA,
1701,"C/ Moralzarzal, 86",,Madrid,,28034,Spain,EMEA
1702,"2, rue du Commerce",,Lyon,,69004,France,EMEA
1703,"24, place Kluber",,Strasbourg,,67000,France,EMEA
1704,4092 Furth Circle,Suite 400,NYC,NY,10022,USA,
1705,"C/ Moralzarzal, 86",,Madrid,,28034,Spain,EMEA
1706,Village Close - 106 Linden Road Sandown,2nd Floor,Singapore,,69045,Singapore,APAC
1707,Berkeley Gardens 12  Brewery,,Liverpool,,WX1 6LT,UK,EMEA
1708,"C/ Moralzarzal, 86",,Madrid,,28034,Spain,EMEA
1709,1785 First Street,,New Bedford,MA,50553,USA,
1710,Fauntleroy Circus,,Manchester,,EC2 5NT,UK,EMEA
1711,8489 Strong St.,,Las Vegas,NV,83030,USA,
1712,5677 Strong St.,,San Rafael,CA,97562,USA,
1713,"C/ Moralzarzal, 86",,Madrid,,28034,Spain,EMEA
1714,3086 Ingle Ln.,,San Jose,CA,94217,USA,
21,"Monitor Money Building, 815 Pacific Hwy",Level 6,Chatswood,NSW,2067,Australia,APAC
1716,"C/ Moralzarzal, 86",,Madrid,,28034,Spain,EMEA
1717,"265, boulevard Charonne",,Paris,,75012,France,EMEA
1718,4092 Furth Circle,Suite 400,NYC,NY,10022,USA,
1719,"Software Engineering Center, SEC Oy",,Espoo,,FIN-02271,Finland,EMEA
1720,Torikatu 38,,Oulu,,90110,Finland,EMEA
1721,"Bronz Sok., Bronz Apt. 3/6 Tesvikiye",,Singapore,,79903,Singapore,Japan
1722,35 King George,,London,,WX3 6FW,UK,EMEA
1723,"C/ Romero, 33",,Sevilla,,41101,Spain,EMEA
1724,3758 North Pendale Street,,White Plains,NY,24067,USA,
1725,6251 Ingle Ln.,,Boston,MA,51003,USA,
1726,2793 Furth Circle,,Brisbane,CA,94217,USA,
1727,5677 Strong St.,,San Rafael,CA,97562,USA,
1728,"C/ Moralzarzal, 86",,Madrid,,28034,Spain,EMEA
1729,Village Close - 106 Linden Road Sandown,2nd Floor,Singapore,,69045,Singapore,APAC
1730,5677 Strong St.,,San Rafael,CA,97562,USA,
1731,7586 Pompton St.,,Allentown,PA,70267,USA,
1732,897 Long Airport Avenue,,NYC,NY,10022,USA,
1733,39323 Spinnaker Dr.,,Cambridge,MA,51247,USA,
1734,Smagsloget 45,,Aaarhus,,8200,Denmark,EMEA
1735,2678 Kingston Rd.,Suite 101,NYC,NY,10022,USA,
1736,5677 Strong St.,,San Rafael,CA,97562,USA,
1737,4092 Furth Circle,Suite 400,NYC,NY,10022,USA,
1738,"C/ Moralzarzal, 86",,Madrid,,28034,Spain,EMEA
1739,5677 Strong St.,,San Rafael,CA,97562,USA,
1740,"C/ Moralzarzal, 86",,Madrid,,28034,Spain,EMEA
1741,"C/ Moralzarzal, 86",,Madrid,,28034,Spain,EMEA
1742,"C/ Moralzarzal, 86",,Madrid,,28034,Spain,EMEA
1743,"67, rue des Cinquante Otages",,Nantes,,44000,France,EMEA
1744,Via Ludovico il Moro 22,,Bergamo,,24100,Italy,EMEA
1745,Geislweg 14,,Salzburg,,5020,Austria,EMEA
1746,2440 Pompton St.,,Glendale,CT,97561,USA,
1747,4575 Hillside Dr.,,New Bedford,MA,50553,USA,
1748,Keskuskatu 45,,Helsinki,,21240,Finland,EMEA
1749,?kergatan 24,,Boras,,S-844 67,Sweden,EMEA
1750,1 rue Alsace-Lorraine,,Toulouse,,31000,France,EMEA
1751,120 Hanover Sq.,,London,,WA1 1DP,UK,EMEA
1752,15 McCallum Street - NatWest Center #13-03,,Makati City,,1227 MM,Philippines,Japan
1753,6047 Douglas Av.,,Los Angeles,CA,,USA,
1754,361 Furth Circle,,San Diego,CA,91217,USA,
1755,4658 Baden Av.,,Cambridge,MA,51247,USA,
1756,"C/ Moralzarzal, 86",,Madrid,,28034,Spain,EMEA
1757,7825 Douglas Av.,,Brickhaven,MA,58339,USA,
1758,"Drammensveien 126 A, PB 744 Sentrum",,Oslo,,N 0106,Norway,EMEA
1759,Hansastr. 15,,Munich,,80686,Germany,EMEA
1760,782 First Street,,Philadelphia,PA,71270,USA,
1761,Garden House Crowther Way,,Cowes,Isle of Wight,PO31 7PJ,UK,EMEA
1762,Via Ludovico il Moro 22,,Bergamo,,24100,Italy,EMEA
1763,2-2-8 Roppongi,,Minato-ku,Tokyo,106-0032,Japan,Japan
1764,35 King George,,London,,WX3 6FW,UK,EMEA
1765,Torikatu 38,,Oulu,,90110,Finland,EMEA
1766,"C/ Moralzarzal, 86",,Madrid,,28034,Spain,EMEA
1767,59 rue de l'Abbaye,,Reims,,51100,France,EMEA
1768,3086 Ingle Ln.,,San Jose,CA,94217,USA,
1769,7 Allen Street,,Glen Waverly,Victoria,3150,Australia,APAC
1770,Fauntleroy Circus,,Manchester,,EC2 5NT,UK,EMEA
1771,8489 Strong St.,,Las Vegas,NV,83030,USA,
51,201 Miller Street,Level 15,North Sydney,NSW,2060,Australia,APAC
1773,Smagsloget 45,,Aaarhus,,8200,Denmark,EMEA
1774,Via Ludovico il Moro 22,,Bergamo,,24100,Italy,EMEA
1775,5677 Strong St.,,San Rafael,CA,97562,USA,
1776,2304 Long Airport Avenue,,Nashua,NH,62005,USA,
1777,4092 Furth Circle,Suite 400,NYC,NY,10022,USA,
1778,120 Hanover Sq.,,London,,WA1 1DP,UK,EMEA
1779,"2, rue du Commerce",,Lyon,,69004,France,EMEA
1780,"24, place Kluber",,Strasbourg,,67000,France,EMEA
1781,4092 Furth Circle,Suite 400,NYC,NY,10022,USA,
1782,"C/ Moralzarzal, 86",,Madrid,,28034,Spain,EMEA
1783,Village Close - 106 Linden Road Sandown,2nd Floor,Singapore,,69045,Singapore,APAC
1784,Berkeley Gardens 12  Brewery,,Liverpool,,WX1 6LT,UK,EMEA
1785,"C/ Moralzarzal, 86",,Madrid,,28034,Spain,EMEA
1786,Fauntleroy Circus,,Manchester,,EC2 5NT,UK,EMEA
1787,8489 Strong St.,,Las Vegas,NV,83030,USA,
1788,5677 Strong St.,,San Rafael,CA,97562,USA,
1789,"C/ Moralzarzal, 86",,Madrid,,28034,Spain,EMEA
1790,3086 Ingle Ln.,,San Jose,CA,94217,USA,
21,"Monitor Money Building, 815 Pacific Hwy",Level 6,Chatswood,NSW,2067,Australia,APAC
1792,11328 Douglas Av.,,Philadelphia,PA,71270,USA,
1793,"12, rue des Bouchers",,Marseille,,13008,France,EMEA
1794,5677 Strong St.,,San Rafael,CA,97562,USA,
1795,7825 Douglas Av.,,Brickhaven,MA,58339,USA,
1796,6047 Douglas Av.,,Los Angeles,CA,,USA,
1797,43 rue St. Laurent,,Montreal,Quebec,H1J 1C3,Canada,
1798,"Drammen 121, PR 744 Sentrum",,Bergen,,N 5804,Norway,EMEA
1799,2304 Long Airport Avenue,,Nashua,NH,62005,USA,
1800,"C/ Moralzarzal, 86",,Madrid,,28034,Spain,EMEA
1801,"C/ Moralzarzal, 86",,Madrid,,28034,Spain,EMEA
1802,Grenzacherweg 237,,Gensve,,1203,Switzerland,EMEA
1803,Torikatu 38,,Oulu,,90110,Finland,EMEA
1804,Berkeley Gardens 12  Brewery,,Liverpool,,WX1 6LT,UK,EMEA
1805,Strada Provinciale 124,,Reggio Emilia,,42100,Italy,EMEA
1806,8489 Strong St.,,Las Vegas,NV,83030,USA,
1807,Grenzacherweg 237,,Gensve,,1203,Switzerland,EMEA
1808,"Drammensveien 126 A, PB 744 Sentrum",,Oslo,,N 0106,Norway,EMEA
1809,Mehrheimerstr. 369,,Koln,,50739,Germany,EMEA
1810,1785 First Street,,New Bedford,MA,50553,USA,
1811,11328 Douglas Av.,,Philadelphia,PA,71270,USA,
10,636 St Kilda Road,Level 3,Melbourne,Victoria,3004,Australia,APAC
1813,"C/ Moralzarzal, 86",,Madrid,,28034,Spain,EMEA
1814,78934 Hillside Dr.,,Pasadena,CA,90003,USA,
1815,"C/ Moralzarzal, 86",,Madrid,,28034,Spain,EMEA
1816,5677 Strong St.,,San Rafael,CA,97562,USA,
1817,"24, place Kluber",,Strasbourg,,67000,France,EMEA
1818,Geislweg 14,,Salzburg,,5020,Austria,EMEA
1819,Vinb'ltet 34,,Kobenhavn,,1734,Denmark,EMEA
1820,Geislweg 14,,Salzburg,,5020,Austria,EMEA
1821,35 King George,,London,,WX3 6FW,UK,EMEA
1822,5677 Strong St.,,San Rafael,CA,97562,USA,
1823,4097 Douglas Av.,,Glendale,CA,92561,USA,
1824,?kergatan 24,,Boras,,S-844 67,Sweden,EMEA
1825,"Merchants House, 27-30 Merchant's Quay",,Madrid,,28023,Spain,EMEA
1826,4575 Hillside Dr.,,New Bedford,MA,50553,USA,
1827,"Rambla de Catalu¤a, 23",,Barcelona,,8022,Spain,EMEA
1828,"2, rue du Commerce",,Lyon,,69004,France,EMEA
1829,361 Furth Circle,,San Diego,CA,91217,USA,
1830,7476 Moss Rd.,,Newark,NJ,94019,USA,
1831,897 Long Airport Avenue,,NYC,NY,10022,USA,
1832,43 rue St. Laurent,,Montreal,Quebec,H1J 1C3,Canada,
1833,Rue Joseph-Bens 532,,Bruxelles,,B-1180,Belgium,EMEA
1834,23 Tsawassen Blvd.,,Tsawassen,BC,T2F 8M4,Canada,
1835,8616 Spinnaker Dr.,,Boston,MA,51003,USA,
1836,Fauntleroy Circus,,Manchester,,EC2 5NT,UK,EMEA
1837,"67, rue des Cinquante Otages",,Nantes,,44000,France,EMEA
1838,Berguvsv„gen  8,,Lule,,S-958 22,Sweden,EMEA
1839,2-2-8 Roppongi,,Minato-ku,Tokyo,106-0032,Japan,Japan
1840,"C/ Moralzarzal, 86",,Madrid,,28034,Spain,EMEA
1841,Torikatu 38,,Oulu,,90110,Finland,EMEA
1842,7734 Strong St.,,San Francisco,CA,,USA,
1843,5677 Strong St.,,San Rafael,CA,97562,USA,
1844,8616 Spinnaker Dr.,,Boston,MA,51003,USA,
1845,Fauntleroy Circus,,Manchester,,EC2 5NT,UK,EMEA
1846,8489 Strong St.,,Las Vegas,NV,83030,USA,
51,201 Miller Street,Level 15,North Sydney,NSW,2060,Australia,APAC
1848,Smagsloget 45,,Aaarhus,,8200,Denmark,EMEA
1849,25593 South Bay Ln.,,Bridgewater,CT,97562,USA,
1850,5677 Strong St.,,San Rafael,CA,97562,USA,
1851,2304 Long Airport Avenue,,Nashua,NH,62005,USA,
1852,4092 Furth Circle,Suite 400,NYC,NY,10022,USA,
1853,"C/ Moralzarzal, 86",,Madrid,,28034,Spain,EMEA
1854,"2, rue du Commerce",,Lyon,,69004,France,EMEA
1855,"24, place Kluber",,Strasbourg,,67000,France,EMEA
1856,4092 Furth Circle,Suite 400,NYC,NY,10022,USA,
1857,"C/ Moralzarzal, 86",,Madrid,,28034,Spain,EMEA
1858,Village Close - 106 Linden Road Sandown,2nd Floor,Singapore,,69045,Singapore,APAC
1859,Berkeley Gardens 12  Brewery,,Liverpool,,WX1 6LT,UK,EMEA
1860,"C/ Moralzarzal, 86",,Madrid,,28034,Spain,EMEA
1861,1785 First Street,,New Bedford,MA,50553,USA,
1862,Fauntleroy Circus,,Manchester,,EC2 5NT,UK,EMEA
1863,8489 Strong St.,,Las Vegas,NV,83030,USA,
1864,5677 Strong St.,,San Rafael,CA,97562,USA,
1865,"C/ Moralzarzal, 86",,Madrid,,28034,Spain,EMEA
1866,3086 Ingle Ln.,,San Jose,CA,94217,USA,
21,"Monitor Money Building, 815 Pacific Hwy",Level 6,Chatswood,NSW,2067,Australia,APAC
1868,15 McCallum Street - NatWest Center #13-03,,Makati City,,1227 MM,Philippines,Japan
1869,"12, rue des Bouchers",,Marseille,,13008,France,EMEA
1870,5677 Strong St.,,San Rafael,CA,97562,USA,
1871,7825 Douglas Av.,,Brickhaven,MA,58339,USA,
1872,7734 Strong St.,,San Francisco,CA,,USA,
51,201 Miller Street,Level 15,North Sydney,NSW,2060,Australia,APAC
1874,"Drammen 121, PR 744 Sentrum",,Bergen,,N 5804,Norway,EMEA
1875,Mehrheimerstr. 369,,Koln,,50739,Germany,EMEA
1876,"C/ Moralzarzal, 86",,Madrid,,28034,Spain,EMEA
1877,"25, rue Lauriston",,Paris,,75016,France,EMEA
1878,Grenzacherweg 237,,Gensve,,1203,Switzerland,EMEA
1879,Vinb'ltet 34,,Kobenhavn,,1734,Denmark,EMEA
1880,Berkeley Gardens 12  Brewery,,Liverpool,,WX1 6LT,UK,EMEA
1881,Strada Provinciale 124,,Reggio Emilia,,42100,Italy,EMEA
1882,7635 Spinnaker Dr.,,Brickhaven,MA,58339,USA,
1883,Grenzacherweg 237,,Gensve,,1203,Switzerland,EMEA
1884,Lyonerstr. 34,,Frankfurt,,60528,Germany,EMEA
1885,Mehrheimerstr. 369,,Koln,,50739,Germany,EMEA
1886,Berguvsv„gen  8,,Lule,,S-958 22,Sweden,EMEA
1887,11328 Douglas Av.,,Philadelphia,PA,71270,USA,
10,636 St Kilda Road,Level 3,Melbourne,Victoria,3004,Australia,APAC
1889,"C/ Moralzarzal, 86",,Madrid,,28034,Spain,EMEA
1890,"Software Engineering Center, SEC Oy",,Espoo,,FIN-02271,Finland,EMEA
1891,"C/ Moralzarzal, 86",,Madrid,,28034,Spain,EMEA
1892,5677 Strong St.,,San Rafael,CA,97562,USA,
1893,Geislweg 14,,Salzburg,,5020,Austria,EMEA
1894,Via Ludovico il Moro 22,,Bergamo,,24100,Italy,EMEA
1895,Geislweg 14,,Salzburg,,5020,Austria,EMEA
1896,2440 Pompton St.,,Glendale,CT,97561,USA,
1897,4575 Hillside Dr.,,New Bedford,MA,50553,USA,
1898,Keskuskatu 45,,Helsinki,,21240,Finland,EMEA
1899,?kergatan 24,,Boras,,S-844 67,Sweden,EMEA
1900,1 rue Alsace-Lorraine,,Toulouse,,31000,France,EMEA
1901,120 Hanover Sq.,,London,,WA1 1DP,UK,EMEA
1902,15 McCallum Street - NatWest Center #13-03,,Makati City,,1227 MM,Philippines,Japan
1903,6047 Douglas Av.,,Los Angeles,CA,,USA,
1904,361 Furth Circle,,San Diego,CA,91217,USA,
1905,4658 Baden Av.,,Cambridge,MA,51247,USA,
1906,"C/ Moralzarzal, 86",,Madrid,,28034,Spain,EMEA
1907,7825 Douglas Av.,,Brickhaven,MA,58339,USA,
1908,"Drammensveien 126 A, PB 744 Sentrum",,Oslo,,N 0106,Norway,EMEA
1909,Hansastr. 15,,Munich,,80686,Germany,EMEA
1910,782 First Street,,Philadelphia,PA,71270,USA,
1911,Garden House Crowther Way,,Cowes,Isle of Wight,PO31 7PJ,UK,EMEA
1912,Via Ludovico il Moro 22,,Bergamo,,24100,Italy,EMEA
1913,2-2-8 Roppongi,,Minato-ku,Tokyo,106-0032,Japan,Japan
1914,35 King George,,London,,WX3 6FW,UK,EMEA
21,"Monitor Money Building, 815 Pacific Hwy",Level 6,Chatswood,NSW,2067,Australia,APAC
1916,Torikatu 38,,Oulu,,90110,Finland,EMEA
1917,"C/ Moralzarzal, 86",,Madrid,,28034,Spain,EMEA
1918,59 rue de l'Abbaye,,Reims,,51100,France,EMEA
1919,3086 Ingle Ln.,,San Jose,CA,94217,USA,
1920,7 Allen Street,,Glen Waverly,Victoria,3150,Australia,APAC
1921,Fauntleroy Circus,,Manchester,,EC2 5NT,UK,EMEA
1922,8489 Strong St.,,Las Vegas,NV,83030,USA,
51,201 Miller Street,Level 15,North Sydney,NSW,2060,Australia,APAC
1924,Smagsloget 45,,Aaarhus,,8200,Denmark,EMEA
1925,25593 South Bay Ln.,,Bridgewater,CT,97562,USA,
1926,5677 Strong St.,,San Rafael,CA,97562,USA,
1927,2304 Long Airport Avenue,,Nashua,NH,62005,USA,
1928,4092 Furth Circle,Suite 400,NYC,NY,10022,USA,
1929,"C/ Moralzarzal, 86",,Madrid,,28034,Spain,EMEA
1930,361 Furth Circle,,San Diego,CA,91217,USA,
1931,"24, place Kluber",,Strasbourg,,67000,France,EMEA
1932,4092 Furth Circle,Suite 400,NYC,NY,10022,USA,
1933,"C/ Moralzarzal, 86",,Madrid,,28034,Spain,EMEA
1934,Village Close - 106 Linden Road Sandown,2nd Floor,Singapore,,69045,Singapore,APAC
1935,"Drammensveien 126 A, PB 744 Sentrum",,Oslo,,N 0106,Norway,EMEA
1936,"C/ Moralzarzal, 86",,Madrid,,28034,Spain,EMEA
1937,1785 First Street,,New Bedford,MA,50553,USA,
1938,Fauntleroy Circus,,Manchester,,EC2 5NT,UK,EMEA
1939,8489 Strong St.,,Las Vegas,NV,83030,USA,
1940,5677 Strong St.,,San Rafael,CA,97562,USA,
1941,"C/ Moralzarzal, 86",,Madrid,,28034,Spain,EMEA
1942,3086 Ingle Ln.,,San Jose,CA,94217,USA,
21,"Monitor Money Building, 815 Pacific Hwy",Level 6,Chatswood,NSW,2067,Australia,APAC
1944,Vinb'ltet 34,,Kobenhavn,,1734,Denmark,EMEA
1945,Geislweg 14,,Salzburg,,5020,Austria,EMEA
1946,35 King George,,London,,WX3 6FW,UK,EMEA
1947,4575 Hillside Dr.,,New Bedford,MA,50553,USA,
1948,Keskuskatu 45,,Helsinki,,21240,Finland,EMEA
1949,?kergatan 24,,Boras,,S-844 67,Sweden,EMEA
1950,1 rue Alsace-Lorraine,,Toulouse,,31000,France,EMEA
1951,120 Hanover Sq.,,London,,WA1 1DP,UK,EMEA
1952,"Rambla de Catalu¤a, 23",,Barcelona,,8022,Spain,EMEA
1953,6047 Douglas Av.,,Los Angeles,CA,,USA,
1954,361 Furth Circle,,San Diego,CA,91217,USA,
1955,897 Long Airport Avenue,,NYC,NY,10022,USA,
1956,"C/ Moralzarzal, 86",,Madrid,,28034,Spain,EMEA
1957,Rue Joseph-Bens 532,,Bruxelles,,B-1180,Belgium,EMEA
1958,23 Tsawassen Blvd.,,Tsawassen,BC,T2F 8M4,Canada,
1959,Hansastr. 15,,Munich,,80686,Germany,EMEA
1960,782 First Street,,Philadelphia,PA,71270,USA,
1961,Garden House Crowther Way,,Cowes,Isle of Wight,PO31 7PJ,UK,EMEA
1962,Berguvsv„gen  8,,Lule,,S-958 22,Sweden,EMEA
1963,2-2-8 Roppongi,,Minato-ku,Tokyo,106-0032,Japan,Japan
1964,"C/ Moralzarzal, 86",,Madrid,,28034,Spain,EMEA
1965,Torikatu 38,,Oulu,,90110,Finland,EMEA
1966,5677 Strong St.,,San Rafael,CA,97562,USA,
1967,5677 Strong St.,,San Rafael,CA,97562,USA,
1968,3086 Ingle Ln.,,San Jose,CA,94217,USA,
1969,8616 Spinnaker Dr.,,Boston,MA,51003,USA,
1970,15 McCallum Street - NatWest Center #13-03,,Makati City,,1227 MM,Philippines,Japan
1971,"12, rue des Bouchers",,Marseille,,13008,France,EMEA
1972,5677 Strong St.,,San Rafael,CA,97562,USA,
1973,7825 Douglas Av.,,Brickhaven,MA,58339,USA,
1974,6047 Douglas Av.,,Los Angeles,CA,,USA,
1975,Kirchgasse 6,,Graz,,8010,Austria,EMEA
1976,"Drammen 121, PR 744 Sentrum",,Bergen,,N 5804,Norway,EMEA
1977,2304 Long Airport Avenue,,Nashua,NH,62005,USA,
1978,"C/ Moralzarzal, 86",,Madrid,,28034,Spain,EMEA
1979,"C/ Moralzarzal, 86",,Madrid,,28034,Spain,EMEA
1980,Grenzacherweg 237,,Gensve,,1203,Switzerland,EMEA
1981,Torikatu 38,,Oulu,,90110,Finland,EMEA
1982,Berkeley Gardens 12  Brewery,,Liverpool,,WX1 6LT,UK,EMEA
1983,Strada Provinciale 124,,Reggio Emilia,,42100,Italy,EMEA
1984,8489 Strong St.,,Las Vegas,NV,83030,USA,
1985,Grenzacherweg 237,,Gensve,,1203,Switzerland,EMEA
1986,"Drammensveien 126 A, PB 744 Sentrum",,Oslo,,N 0106,Norway,EMEA
1987,Mehrheimerstr. 369,,Koln,,50739,Germany,EMEA
1988,1785 First Street,,New Bedford,MA,50553,USA,
1989,11328 Douglas Av.,,Philadelphia,PA,71270,USA,
10,636 St Kilda Road,Level 3,Melbourne,Victoria,3004,Australia,APAC
1991,"C/ Moralzarzal, 86",,Madrid,,28034,Spain,EMEA
1992,"Software Engineering Center, SEC Oy",,Espoo,,FIN-02271,Finland,EMEA
1993,"C/ Moralzarzal, 86",,Madrid,,28034,Spain,EMEA
1994,5677 Strong St.,,San Rafael,CA,97562,USA,
1995,"24, place Kluber",,Strasbourg,,67000,France,EMEA
1996,Geislweg 14,,Salzburg,,5020,Austria,EMEA
1997,Via Ludovico il Moro 22,,Bergamo,,24100,Italy,EMEA
1998,Geislweg 14,,Salzburg,,5020,Austria,EMEA
1999,2440 Pompton St.,,Glendale,CT,97561,USA,
2000,4575 Hillside Dr.,,New Bedford,MA,50553,USA,
2001,Keskuskatu 45,,Helsinki,,21240,Finland,EMEA
2002,9408 Furth Circle,,Burlingame,CA,94217,USA,
2003,1 rue Alsace-Lorraine,,Toulouse,,31000,France,EMEA
2004,15 McCallum Street - NatWest Center #13-03,,Makati City,,1227 MM,Philippines,Japan
2005,"Dojima Avanza 4F, 1-6-20 Dojima, Kita-ku",,Osaka,Osaka,530-0003,Japan,Japan
2006,361 Furth Circle,,San Diego,CA,91217,USA,
2007,23 Tsawassen Blvd.,,Tsawassen,BC,T2F 8M4,Canada,
2008,3086 Ingle Ln.,,San Jose,CA,94217,USA,
2009,"C/ Moralzarzal, 86",,Madrid,,28034,Spain,EMEA
2010,"67, rue des Cinquante Otages",,Nantes,,44000,France,EMEA
2011,"Drammensveien 126 A, PB 744 Sentrum",,Oslo,,N 0106,Norway,EMEA
2012,Hansastr. 15,,Munich,,80686,Germany,EMEA
2013,3758 North Pendale Street,,White Plains,NY,24067,USA,
2014,Garden House Crowther Way,,Cowes,Isle of Wight,PO31 7PJ,UK,EMEA
2015,Via Ludovico il Moro 22,,Bergamo,,24100,Italy,EMEA
2016,2-2-8 Roppongi,,Minato-ku,Tokyo,106-0032,Japan,Japan
2017,35 King George,,London,,WX3 6FW,UK,EMEA
21,"Monitor Money Building, 815 Pacific Hwy",Level 6,Chatswood,NSW,2067,Australia,APAC
2019,Torikatu 38,,Oulu,,90110,Finland,EMEA
2020,"C/ Moralzarzal, 86",,Madrid,,28034,Spain,EMEA
2021,59 rue de l'Abbaye,,Reims,,51100,France,EMEA
2022,7476 Moss Rd.,,Newark,NJ,94019,USA,
2023,Strada Provinciale 124,,Reggio Emilia,,42100,Italy,EMEA
2024,2304 Long Airport Avenue,,Nashua,NH,62005,USA,
2025,Fauntleroy Circus,,Manchester,,EC2 5NT,UK,EMEA
2026,8489 Strong St.,,Las Vegas,NV,83030,USA,
2027,2793 Furth Circle,,Brisbane,CA,94217,USA,
2028,7734 Strong St.,,San Francisco,CA,,USA,
2029,Via Ludovico il Moro 22,,Bergamo,,24100,Italy,EMEA
2030,5677 Strong St.,,San Rafael,CA,97562,USA,
2031,7 Allen Street,,Glen Waverly,Victoria,3150,Australia,APAC
2032,4092 Furth Circle,Suite 400,NYC,NY,10022,USA,
2033,"C/ Araquil, 67",,Madrid,,28023,Spain,EMEA
2034,"2, rue du Commerce",,Lyon,,69004,France,EMEA
2035,5290 North Pendale Street,Suite 200,NYC,NY,10022,USA,
2036,Via Monte Bianco 34,,Torino,,10100,Italy,EMEA
2037,Village Close - 106 Linden Road Sandown,2nd Floor,Singapore,,69045,Singapore,APAC
2038,"C/ Romero, 33",,Sevilla,,41101,Spain,EMEA
2039,5677 Strong St.,,San Rafael,CA,97562,USA,
2040,Fauntleroy Circus,,Manchester,,EC2 5NT,UK,EMEA
2041,8489 Strong St.,,Las Vegas,NV,83030,USA,
2042,5677 Strong St.,,San Rafael,CA,97562,USA,
2043,"C/ Moralzarzal, 86",,Madrid,,28034,Spain,EMEA
2044,2-2-8 Roppongi,,Minato-ku,Tokyo,106-0032,Japan,Japan
21,"Monitor Money Building, 815 Pacific Hwy",Level 6,Chatswood,NSW,2067,Australia,APAC
2046,"C/ Moralzarzal, 86",,Madrid,,28034,Spain,EMEA
2047,5905 Pompton St.,Suite 750,NYC,NY,10022,USA,
2048,4092 Furth Circle,Suite 400,NYC,NY,10022,USA,
2049,"Software Engineering Center, SEC Oy",,Espoo,,FIN-02271,Finland,EMEA
2050,31 Duncan St. West End,,South Brisbane,Queensland,4101,Australia,APAC
2051,"Bronz Sok., Bronz Apt. 3/6 Tesvikiye",,Singapore,,79903,Singapore,Japan
2052,Strada Provinciale 124,,Reggio Emilia,,42100,Italy,EMEA
2053,"C/ Romero, 33",,Sevilla,,41101,Spain,EMEA
2054,3758 North Pendale Street,,White Plains,NY,24067,USA,
2055,6251 Ingle Ln.,,Boston,MA,51003,USA,
2056,25 Maiden Lane,Floor No. 4,Dublin,,2,Ireland,EMEA
2057,Lyonerstr. 34,,Frankfurt,,60528,Germany,EMEA
2058,"C/ Moralzarzal, 86",,Madrid,,28034,Spain,EMEA
2059,5677 Strong St.,,San Rafael,CA,97562,USA,
2060,5677 Strong St.,,San Rafael,CA,97562,USA,
2061,897 Long Airport Avenue,,NYC,NY,10022,USA,
2062,39323 Spinnaker Dr.,,Cambridge,MA,51247,USA,
2063,Smagsloget 45,,Aaarhus,,8200,Denmark,EMEA
2064,Erling Skakkes gate 78,,Stavern,,4110,Norway,EMEA
2065,"265, boulevard Charonne",,Paris,,75012,France,EMEA
2066,4092 Furth Circle,Suite 400,NYC,NY,10022,USA,
2067,59 rue de l'Abbaye,,Reims,,51100,France,EMEA
2068,5677 Strong St.,,San Rafael,CA,97562,USA,
2069,"C/ Moralzarzal, 86",,Madrid,,28034,Spain,EMEA
2070,"C/ Moralzarzal, 86",,Madrid,,28034,Spain,EMEA
2071,"C/ Moralzarzal, 86",,Madrid,,28034,Spain,EMEA
2072,Erling Skakkes gate 78,,Stavern,,4110,Norway,EMEA
2073,5557 North Pendale Street,,San Francisco,CA,,USA,
2074,"C/ Araquil, 67",,Madrid,,28023,Spain,EMEA
21,"Monitor Money Building, 815 Pacific Hwy",Level 6,Chatswood,NSW,2067,Australia,APAC
2076,2793 Furth Circle,,Brisbane,CA,94217,USA,
2077,5905 Pompton St.,Suite 750,NYC,NY,10022,USA,
2078,Via Ludovico il Moro 22,,Bergamo,,24100,Italy,EMEA
2079,782 First Street,,Philadelphia,PA,71270,USA,
2080,7 Allen Street,,Glen Waverly,Victoria,3150,Australia,APAC
2081,1900 Oak St.,,Vancouver,BC,V3F 2K1,Canada,
2082,3675 Furth Circle,,Burbank,CA,94019,USA,
2083,4658 Baden Av.,,Cambridge,MA,51247,USA,
2084,"C/ Moralzarzal, 86",,Madrid,,28034,Spain,EMEA
2085,3086 Ingle Ln.,,San Jose,CA,94217,USA,
2086,Geislweg 14,,Salzburg,,5020,Austria,EMEA
2087,Via Monte Bianco 34,,Torino,,10100,Italy,EMEA
2088,16780 Pompton St.,,Brickhaven,MA,58339,USA,
2089,"67, avenue de l'Europe",,Versailles,,78000,France,EMEA
2090,5677 Strong St.,,San Rafael,CA,97562,USA,
2091,2678 Kingston Rd.,Suite 101,NYC,NY,10022,USA,
2092,5557 North Pendale Street,,San Francisco,CA,,USA,
2093,"C/ Araquil, 67",,Madrid,,28023,Spain,EMEA
2094,"C/ Moralzarzal, 86",,Madrid,,28034,Spain,EMEA
2095,7825 Douglas Av.,,Brickhaven,MA,58339,USA,
2096,5677 Strong St.,,San Rafael,CA,97562,USA,
2097,Rue Joseph-Bens 532,,Bruxelles,,B-1180,Belgium,EMEA
2098,Via Ludovico il Moro 22,,Bergamo,,24100,Italy,EMEA
10,636 St Kilda Road,Level 3,Melbourne,Victoria,3004,Australia,APAC
2100,"C/ Moralzarzal, 86",,Madrid,,28034,Spain,EMEA
2101,78934 Hillside Dr.,,Pasadena,CA,90003,USA,
2102,9408 Furth Circle,,Burlingame,CA,94217,USA,
2103,"Dojima Avanza 4F, 1-6-20 Dojima, Kita-ku",,Osaka,Osaka,530-0003,Japan,Japan
10,636 St Kilda Road,Level 3,Melbourne,Victoria,3004,Australia,APAC
2105,23 Tsawassen Blvd.,,Tsawassen,BC,T2F 8M4,Canada,
2106,3086 Ingle Ln.,,San Jose,CA,94217,USA,
2107,25593 South Bay Ln.,,Bridgewater,CT,97562,USA,
2108,"67, rue des Cinquante Otages",,Nantes,,44000,France,EMEA
2109,"Drammensveien 126 A, PB 744 Sentrum",,Oslo,,N 0106,Norway,EMEA
2110,25 Maiden Lane,Floor No. 4,Dublin,,2,Ireland,EMEA
2111,3758 North Pendale Street,,White Plains,NY,24067,USA,
2112,9408 Furth Circle,,Burlingame,CA,94217,USA,
2113,Via Ludovico il Moro 22,,Bergamo,,24100,Italy,EMEA
2114,"Rambla de Catalu¤a, 23",,Barcelona,,8022,Spain,EMEA
2115,2440 Pompton St.,,Glendale,CT,97561,USA,
21,"Monitor Money Building, 815 Pacific Hwy",Level 6,Chatswood,NSW,2067,Australia,APAC
2117,"67, rue des Cinquante Otages",,Nantes,,44000,France,EMEA
2118,"C/ Moralzarzal, 86",,Madrid,,28034,Spain,EMEA
2119,59 rue de l'Abbaye,,Reims,,51100,France,EMEA
2120,7476 Moss Rd.,,Newark,NJ,94019,USA,
2121,Strada Provinciale 124,,Reggio Emilia,,42100,Italy,EMEA
2122,15 McCallum Street - NatWest Center #13-03,,Makati City,,1227 MM,Philippines,Japan
2123,"12, rue des Bouchers",,Marseille,,13008,France,EMEA
2124,5677 Strong St.,,San Rafael,CA,97562,USA,
2125,7825 Douglas Av.,,Brickhaven,MA,58339,USA,
2126,7734 Strong St.,,San Francisco,CA,,USA,
51,201 Miller Street,Level 15,North Sydney,NSW,2060,Australia,APAC
2128,"184, chausse de Tournai",,Lille,,59000,France,EMEA
2129,Mehrheimerstr. 369,,Koln,,50739,Germany,EMEA
2130,"25, rue Lauriston",,Paris,,75016,France,EMEA
2131,Grenzacherweg 237,,Gensve,,1203,Switzerland,EMEA
2132,Vinb'ltet 34,,Kobenhavn,,1734,Denmark,EMEA
2133,"25, rue Lauriston",,Paris,,75016,France,EMEA
2134,8616 Spinnaker Dr.,,Boston,MA,51003,USA,
2135,7635 Spinnaker Dr.,,Brickhaven,MA,58339,USA,
2136,Grenzacherweg 237,,Gensve,,1203,Switzerland,EMEA
2137,Keskuskatu 45,,Helsinki,,21240,Finland,EMEA
2138,Mehrheimerstr. 369,,Koln,,50739,Germany,EMEA
2139,5290 North Pendale Street,Suite 200,NYC,NY,10022,USA,
2140,11328 Douglas Av.,,Philadelphia,PA,71270,USA,
2141,59 rue de l'Abbaye,,Reims,,51100,France,EMEA
2142,"C/ Moralzarzal, 86",,Madrid,,28034,Spain,EMEA
2143,"Software Engineering Center, SEC Oy",,Espoo,,FIN-02271,Finland,EMEA
2144,"C/ Moralzarzal, 86",,Madrid,,28034,Spain,EMEA
2145,5677 Strong St.,,San Rafael,CA,97562,USA,
2146,Erling Skakkes gate 78,,Stavern,,4110,Norway,EMEA
2147,"265, boulevard Charonne",,Paris,,75012,France,EMEA
2148,"C/ Araquil, 67",,Madrid,,28023,Spain,EMEA
2149,9408 Furth Circle,,Burlingame,CA,94217,USA,
2150,Torikatu 38,,Oulu,,90110,Finland,EMEA
2151,Kirchgasse 6,,Graz,,8010,Austria,EMEA
2152,35 King George,,London,,WX3 6FW,UK,EMEA
2153,"C/ Romero, 33",,Sevilla,,41101,Spain,EMEA
2154,"2, rue du Commerce",,Lyon,,69004,France,EMEA
2155,6251 Ingle Ln.,,Boston,MA,51003,USA,
2156,Village Close - 106 Linden Road Sandown,2nd Floor,Singapore,,69045,Singapore,APAC
2157,5677 Strong St.,,San Rafael,CA,97562,USA,
2158,567 North Pendale Street,,New Haven,CT,97823,USA,
2159,Village Close - 106 Linden Road Sandown,2nd Floor,Singapore,,69045,Singapore,APAC
21,"Monitor Money Building, 815 Pacific Hwy",Level 6,Chatswood,NSW,2067,Australia,APAC
2161,7586 Pompton St.,,Allentown,PA,70267,USA,
2162,?kergatan 24,,Boras,,S-844 67,Sweden,EMEA
2163,39323 Spinnaker Dr.,,Cambridge,MA,51247,USA,
2164,1900 Oak St.,,Vancouver,BC,V3F 2K1,Canada,
2165,2678 Kingston Rd.,Suite 101,NYC,NY,10022,USA,
2166,5677 Strong St.,,San Rafael,CA,97562,USA,
2167,"C/ Araquil, 67",,Madrid,,28023,Spain,EMEA
2168,"C/ Moralzarzal, 86",,Madrid,,28034,Spain,EMEA
2169,5677 Strong St.,,San Rafael,CA,97562,USA,
2170,5677 Strong St.,,San Rafael,CA,97562,USA,
2171,43 rue St. Laurent,,Montreal,Quebec,H1J 1C3,Canada,
2172,"67, rue des Cinquante Otages",,Nantes,,44000,France,EMEA
2173,897 Long Airport Avenue,,NYC,NY,10022,USA,
10,636 St Kilda Road,Level 3,Melbourne,Victoria,3004,Australia,APAC
2175,"C/ Moralzarzal, 86",,Madrid,,28034,Spain,EMEA
2176,78934 Hillside Dr.,,Pasadena,CA,90003,USA,
2177,9408 Furth Circle,,Burlingame,CA,94217,USA,
2178,"Drammen 121, PR 744 Sentrum",,Bergen,,N 5804,Norway,EMEA
2179,"Dojima Avanza 4F, 1-6-20 Dojima, Kita-ku",,Osaka,Osaka,530-0003,Japan,Japan
10,636 St Kilda Road,Level 3,Melbourne,Victoria,3004,Australia,APAC
2181,23 Tsawassen Blvd.,,Tsawassen,BC,T2F 8M4,Canada,
2182,3086 Ingle Ln.,,San Jose,CA,94217,USA,
2183,25593 South Bay Ln.,,Bridgewater,CT,97562,USA,
2184,"67, rue des Cinquante Otages",,Nantes,,44000,France,EMEA
2185,39323 Spinnaker Dr.,,Cambridge,MA,51247,USA,
2186,25 Maiden Lane,Floor No. 4,Dublin,,2,Ireland,EMEA
2187,3758 North Pendale Street,,White Plains,NY,24067,USA,
2188,7586 Pompton St.,,Allentown,PA,70267,USA,
2189,897 Long Airport Avenue,,NYC,NY,10022,USA,
2190,"Rambla de Catalu¤a, 23",,Barcelona,,8022,Spain,EMEA
2191,2440 Pompton St.,,Glendale,CT,97561,USA,
2192,"Software Engineering Center, SEC Oy",,Espoo,,FIN-02271,Finland,EMEA
2193,"67, rue des Cinquante Otages",,Nantes,,44000,France,EMEA
2194,"Bronz Sok., Bronz Apt. 3/6 Tesvikiye",,Singapore,,79903,Singapore,Japan
2195,7476 Moss Rd.,,Newark,NJ,94019,USA,
2196,Strada Provinciale 124,,Reggio Emilia,,42100,Italy,EMEA
2197,15 McCallum Street - NatWest Center #13-03,,Makati City,,1227 MM,Philippines,Japan
2198,"12, rue des Bouchers",,Marseille,,13008,France,EMEA
2199,5677 Strong St.,,San Rafael,CA,97562,USA,
2200,78934 Hillside Dr.,,Pasadena,CA,90003,USA,
2201,7734 Strong St.,,San Francisco,CA,,USA,
51,201 Miller Street,Level 15,North Sydney,NSW,2060,Australia,APAC
2203,"184, chausse de Tournai",,Lille,,59000,France,EMEA
2204,"C/ Moralzarzal, 86",,Madrid,,28034,Spain,EMEA
2205,"25, rue Lauriston",,Paris,,75016,France,EMEA
2206,"184, chausse de Tournai",,Lille,,59000,France,EMEA
2207,2678 Kingston Rd.,Suite 101,NYC,NY,10022,USA,
2208,"25, rue Lauriston",,Paris,,75016,France,EMEA
2209,8616 Spinnaker Dr.,,Boston,MA,51003,USA,
2210,7635 Spinnaker Dr.,,Brickhaven,MA,58339,USA,
2211,39323 Spinnaker Dr.,,Cambridge,MA,51247,USA,
2212,Keskuskatu 45,,Helsinki,,21240,Finland,EMEA
2213,Mehrheimerstr. 369,,Koln,,50739,Germany,EMEA
2214,5290 North Pendale Street,Suite 200,NYC,NY,10022,USA,
2215,11328 Douglas Av.,,Philadelphia,PA,71270,USA,
2216,59 rue de l'Abbaye,,Reims,,51100,France,EMEA
2217,"C/ Moralzarzal, 86",,Madrid,,28034,Spain,EMEA
2218,"12, rue des Bouchers",,Marseille,,13008,France,EMEA
2219,"C/ Moralzarzal, 86",,Madrid,,28034,Spain,EMEA
2220,5677 Strong St.,,San Rafael,CA,97562,USA,
2221,Berkeley Gardens 12  Brewery,,Liverpool,,WX1 6LT,UK,EMEA
2222,"C/ Moralzarzal, 86",,Madrid,,28034,Spain,EMEA
2223,"265, boulevard Charonne",,Paris,,75012,France,EMEA
2224,4092 Furth Circle,Suite 400,NYC,NY,10022,USA,
2225,"Software Engineering Center, SEC Oy",,Espoo,,FIN-02271,Finland,EMEA
2226,Torikatu 38,,Oulu,,90110,Finland,EMEA
2227,"Bronz Sok., Bronz Apt. 3/6 Tesvikiye",,Singapore,,79903,Singapore,Japan
2228,35 King George,,London,,WX3 6FW,UK,EMEA
2229,"C/ Romero, 33",,Sevilla,,41101,Spain,EMEA
2230,3758 North Pendale Street,,White Plains,NY,24067,USA,
2231,6251 Ingle Ln.,,Boston,MA,51003,USA,
2232,2793 Furth Circle,,Brisbane,CA,94217,USA,
2233,5677 Strong St.,,San Rafael,CA,97562,USA,
2234,"C/ Moralzarzal, 86",,Madrid,,28034,Spain,EMEA
2235,Village Close - 106 Linden Road Sandown,2nd Floor,Singapore,,69045,Singapore,APAC
2236,5677 Strong St.,,San Rafael,CA,97562,USA,
2237,7586 Pompton St.,,Allentown,PA,70267,USA,
2238,897 Long Airport Avenue,,NYC,NY,10022,USA,
2239,39323 Spinnaker Dr.,,Cambridge,MA,51247,USA,
2240,1900 Oak St.,,Vancouver,BC,V3F 2K1,Canada,
2241,Erling Skakkes gate 78,,Stavern,,4110,Norway,EMEA
2242,5677 Strong St.,,San Rafael,CA,97562,USA,
2243,4092 Furth Circle,Suite 400,NYC,NY,10022,USA,
2244,59 rue de l'Abbaye,,Reims,,51100,France,EMEA
2245,5677 Strong St.,,San Rafael,CA,97562,USA,
2246,"C/ Moralzarzal, 86",,Madrid,,28034,Spain,EMEA
2247,"C/ Moralzarzal, 86",,Madrid,,28034,Spain,EMEA
2248,"C/ Moralzarzal, 86",,Madrid,,28034,Spain,EMEA
2249,"67, rue des Cinquante Otages",,Nantes,,44000,France,EMEA
2250,"C/ Moralzarzal, 86",,Madrid,,28034,Spain,EMEA
2251,"Boulevard Tirou, 255",,Charleroi,,B-6000,Belgium,EMEA
2252,4092 Furth Circle,Suite 400,NYC,NY,10022,USA,
2253,5677 Strong St.,,San Rafael,CA,97562,USA,
2254,31 Duncan St. West End,,South Brisbane,Queensland,4101,Australia,APAC
2255,"Bronz Sok., Bronz Apt. 3/6 Tesvikiye",,Singapore,,79903,Singapore,Japan
2256,Strada Provinciale 124,,Reggio Emilia,,42100,Italy,EMEA
2257,"C/ Romero, 33",,Sevilla,,41101,Spain,EMEA
2258,3758 North Pendale Street,,White Plains,NY,24067,USA,
2259,6251 Ingle Ln.,,Boston,MA,51003,USA,
2260,25 Maiden Lane,Floor No. 4,Dublin,,2,Ireland,EMEA
2261,Lyonerstr. 34,,Frankfurt,,60528,Germany,EMEA
2262,"Software Engineering Center, SEC Oy",,Espoo,,FIN-02271,Finland,EMEA
2263,7586 Pompton St.,,Allentown,PA,70267,USA,
2264,5677 Strong St.,,San Rafael,CA,97562,USA,
2265,897 Long Airport Avenue,,NYC,NY,10022,USA,
2266,Fauntleroy Circus,,Manchester,,EC2 5NT,UK,EMEA
2267,Smagsloget 45,,Aaarhus,,8200,Denmark,EMEA
2268,Erling Skakkes gate 78,,Stavern,,4110,Norway,EMEA
2269,"265, boulevard Charonne",,Paris,,75012,France,EMEA
2270,"C/ Moralzarzal, 86",,Madrid,,28034,Spain,EMEA
2271,59 rue de l'Abbaye,,Reims,,51100,France,EMEA
2272,5677 Strong St.,,San Rafael,CA,97562,USA,
2273,"C/ Moralzarzal, 86",,Madrid,,28034,Spain,EMEA
2274,"C/ Moralzarzal, 86",,Madrid,,28034,Spain,EMEA
2275,25593 South Bay Ln.,,Bridgewater,CT,97562,USA,
2276,Erling Skakkes gate 78,,Stavern,,4110,Norway,EMEA
2277,5677 Strong St.,,San Rafael,CA,97562,USA,
2278,"C/ Araquil, 67",,Madrid,,28023,Spain,EMEA
2279,9408 Furth Circle,,Burlingame,CA,94217,USA,
2280,"Bronz Sok., Bronz Apt. 3/6 Tesvikiye",,Singapore,,79903,Singapore,Japan
2281,Kirchgasse 6,,Graz,,8010,Austria,EMEA
2282,35 King George,,London,,WX3 6FW,UK,EMEA
2283,782 First Street,,Philadelphia,PA,71270,USA,
2284,"2, rue du Commerce",,Lyon,,69004,France,EMEA
2285,1900 Oak St.,,Vancouver,BC,V3F 2K1,Canada,
2286,Village Close - 106 Linden Road Sandown,2nd Floor,Singapore,,69045,Singapore,APAC
2287,5677 Strong St.,,San Rafael,CA,97562,USA,
2288,567 North Pendale Street,,New Haven,CT,97823,USA,
2289,2-2-8 Roppongi,,Minato-ku,Tokyo,106-0032,Japan,Japan
21,"Monitor Money Building, 815 Pacific Hwy",Level 6,Chatswood,NSW,2067,Australia,APAC
2291,7586 Pompton St.,,Allentown,PA,70267,USA,
2292,?kergatan 24,,Boras,,S-844 67,Sweden,EMEA
2293,"67, avenue de l'Europe",,Versailles,,78000,France,EMEA
2294,1900 Oak St.,,Vancouver,BC,V3F 2K1,Canada,
2295,2678 Kingston Rd.,Suite 101,NYC,NY,10022,USA,
2296,5557 North Pendale Street,,San Francisco,CA,,USA,
2297,"C/ Araquil, 67",,Madrid,,28023,Spain,EMEA
2298,"C/ Moralzarzal, 86",,Madrid,,28034,Spain,EMEA
51,201 Miller Street,Level 15,North Sydney,NSW,2060,Australia,APAC
2300,5677 Strong St.,,San Rafael,CA,97562,USA,
2301,43 rue St. Laurent,,Montreal,Quebec,H1J 1C3,Canada,
2302,"C/ Moralzarzal, 86",,Madrid,,28034,Spain,EMEA
2303,Via Ludovico il Moro 22,,Bergamo,,24100,Italy,EMEA
10,636 St Kilda Road,Level 3,Melbourne,Victoria,3004,Australia,APAC
2305,"C/ Moralzarzal, 86",,Madrid,,28034,Spain,EMEA
2306,"Boulevard Tirou, 255",,Charleroi,,B-6000,Belgium,EMEA
2307,9408 Furth Circle,,Burlingame,CA,94217,USA,
2308,"Dojima Avanza 4F, 1-6-20 Dojima, Kita-ku",,Osaka,Osaka,530-0003,Japan,Japan
10,636 St Kilda Road,Level 3,Melbourne,Victoria,3004,Australia,APAC
2310,23 Tsawassen Blvd.,,Tsawassen,BC,T2F 8M4,Canada,
2311,3086 Ingle Ln.,,San Jose,CA,94217,USA,
2312,"C/ Moralzarzal, 86",,Madrid,,28034,Spain,EMEA
2313,"67, rue des Cinquante Otages",,Nantes,,44000,France,EMEA
2314,"Drammensveien 126 A, PB 744 Sentrum",,Oslo,,N 0106,Norway,EMEA
2315,25 Maiden Lane,Floor No. 4,Dublin,,2,Ireland,EMEA
2316,3758 North Pendale Street,,White Plains,NY,24067,USA,
2317,Garden House Crowther Way,,Cowes,Isle of Wight,PO31 7PJ,UK,EMEA
2318,Via Ludovico il Moro 22,,Bergamo,,24100,Italy,EMEA
2319,"Rambla de Catalu¤a, 23",,Barcelona,,8022,Spain,EMEA
2320,2440 Pompton St.,,Glendale,CT,97561,USA,
21,"Monitor Money Building, 815 Pacific Hwy",Level 6,Chatswood,NSW,2067,Australia,APAC
2322,"67, rue des Cinquante Otages",,Nantes,,44000,France,EMEA
2323,1785 First Street,,New Bedford,MA,50553,USA,
2324,59 rue de l'Abbaye,,Reims,,51100,France,EMEA
2325,7476 Moss Rd.,,Newark,NJ,94019,USA,
2326,Strada Provinciale 124,,Reggio Emilia,,42100,Italy,EMEA
2327,15 McCallum Street - NatWest Center #13-03,,Makati City,,1227 MM,Philippines,Japan
2328,59 rue de l'Abbaye,,Reims,,51100,France,EMEA
2329,5677 Strong St.,,San Rafael,CA,97562,USA,
2330,78934 Hillside Dr.,,Pasadena,CA,90003,USA,
2331,7734 Strong St.,,San Francisco,CA,,USA,
51,201 Miller Street,Level 15,North Sydney,NSW,2060,Australia,APAC
2333,"184, chausse de Tournai",,Lille,,59000,France,EMEA
2334,"C/ Moralzarzal, 86",,Madrid,,28034,Spain,EMEA
2335,"25, rue Lauriston",,Paris,,75016,France,EMEA
2336,"184, chausse de Tournai",,Lille,,59000,France,EMEA
2337,2678 Kingston Rd.,Suite 101,NYC,NY,10022,USA,
2338,"25, rue Lauriston",,Paris,,75016,France,EMEA
2339,8616 Spinnaker Dr.,,Boston,MA,51003,USA,
2340,7635 Spinnaker Dr.,,Brickhaven,MA,58339,USA,
2341,39323 Spinnaker Dr.,,Cambridge,MA,51247,USA,
2342,Keskuskatu 45,,Helsinki,,21240,Finland,EMEA
2343,Erling Skakkes gate 78,,Stavern,,4110,Norway,EMEA
2344,5290 North Pendale Street,Suite 200,NYC,NY,10022,USA,
2345,11328 Douglas Av.,,Philadelphia,PA,71270,USA,
2346,Geislweg 14,,Salzburg,,5020,Austria,EMEA
2347,"C/ Moralzarzal, 86",,Madrid,,28034,Spain,EMEA
2348,4575 Hillside Dr.,,New Bedford,MA,50553,USA,
2349,"67, rue des Cinquante Otages",,Nantes,,44000,France,EMEA
2350,5677 Strong St.,,San Rafael,CA,97562,USA,
2351,Berkeley Gardens 12  Brewery,,Liverpool,,WX1 6LT,UK,EMEA
2352,Via Ludovico il Moro 22,,Bergamo,,24100,Italy,EMEA
10,636 St Kilda Road,Level 3,Melbourne,Victoria,3004,Australia,APAC
2354,"C/ Moralzarzal, 86",,Madrid,,28034,Spain,EMEA
2355,4575 Hillside Dr.,,New Bedford,MA,50553,USA,
2356,"C/ Moralzarzal, 86",,Madrid,,28034,Spain,EMEA
2357,9408 Furth Circle,,Burlingame,CA,94217,USA,
2358,3675 Furth Circle,,Burbank,CA,94019,USA,
2359,"Dojima Avanza 4F, 1-6-20 Dojima, Kita-ku",,Osaka,Osaka,530-0003,Japan,Japan
10,636 St Kilda Road,Level 3,Melbourne,Victoria,3004,Australia,APAC
2361,23 Tsawassen Blvd.,,Tsawassen,BC,T2F 8M4,Canada,
2362,3086 Ingle Ln.,,San Jose,CA,94217,USA,
2363,"C/ Moralzarzal, 86",,Madrid,,28034,Spain,EMEA
2364,"67, rue des Cinquante Otages",,Nantes,,44000,France,EMEA
2365,"Drammensveien 126 A, PB 744 Sentrum",,Oslo,,N 0106,Norway,EMEA
2366,Hansastr. 15,,Munich,,80686,Germany,EMEA
2367,3758 North Pendale Street,,White Plains,NY,24067,USA,
2368,Garden House Crowther Way,,Cowes,Isle of Wight,PO31 7PJ,UK,EMEA
2369,Via Ludovico il Moro 22,,Bergamo,,24100,Italy,EMEA
2370,"Rambla de Catalu¤a, 23",,Barcelona,,8022,Spain,EMEA
2371,2440 Pompton St.,,Glendale,CT,97561,USA,
21,"Monitor Money Building, 815 Pacific Hwy",Level 6,Chatswood,NSW,2067,Australia,APAC
2373,"67, rue des Cinquante Otages",,Nantes,,44000,France,EMEA
2374,1785 First Street,,New Bedford,MA,50553,USA,
2375,59 rue de l'Abbaye,,Reims,,51100,France,EMEA
2376,7476 Moss Rd.,,Newark,NJ,94019,USA,
2377,Strada Provinciale 124,,Reggio Emilia,,42100,Italy,EMEA
2378,"C/ Moralzarzal, 86",,Madrid,,28034,Spain,EMEA
2379,5905 Pompton St.,Suite 750,NYC,NY,10022,USA,
2380,4092 Furth Circle,Suite 400,NYC,NY,10022,USA,
2381,"Software Engineering Center, SEC Oy",,Espoo,,FIN-02271,Finland,EMEA
2382,Torikatu 38,,Oulu,,90110,Finland,EMEA
2383,"Bronz Sok., Bronz Apt. 3/6 Tesvikiye",,Singapore,,79903,Singapore,Japan
2384,Strada Provinciale 124,,Reggio Emilia,,42100,Italy,EMEA
2385,"C/ Romero, 33",,Sevilla,,41101,Spain,EMEA
2386,3758 North Pendale Street,,White Plains,NY,24067,USA,
2387,6251 Ingle Ln.,,Boston,MA,51003,USA,
2388,25 Maiden Lane,Floor No. 4,Dublin,,2,Ireland,EMEA
2389,Lyonerstr. 34,,Frankfurt,,60528,Germany,EMEA
2390,"C/ Moralzarzal, 86",,Madrid,,28034,Spain,EMEA
2391,Village Close - 106 Linden Road Sandown,2nd Floor,Singapore,,69045,Singapore,APAC
2392,5677 Strong St.,,San Rafael,CA,97562,USA,
2393,5677 Strong St.,,San Rafael,CA,97562,USA,
2394,897 Long Airport Avenue,,NYC,NY,10022,USA,
2395,39323 Spinnaker Dr.,,Cambridge,MA,51247,USA,
2396,Smagsloget 45,,Aaarhus,,8200,Denmark,EMEA
2397,Erling Skakkes gate 78,,Stavern,,4110,Norway,EMEA
2398,"265, boulevard Charonne",,Paris,,75012,France,EMEA
2399,"C/ Moralzarzal, 86",,Madrid,,28034,Spain,EMEA
2400,59 rue de l'Abbaye,,Reims,,51100,France,EMEA
2401,5677 Strong St.,,San Rafael,CA,97562,USA,
2402,"C/ Moralzarzal, 86",,Madrid,,28034,Spain,EMEA
2403,27 rue du Colonel Pierre Avia,,Paris,,75508,France,EMEA
2404,"C/ Moralzarzal, 86",,Madrid,,28034,Spain,EMEA
2405,"67, rue des Cinquante Otages",,Nantes,,44000,France,EMEA
2406,"C/ Moralzarzal, 86",,Madrid,,28034,Spain,EMEA
2407,"Bronz Sok., Bronz Apt. 3/6 Tesvikiye",,Singapore,,79903,Singapore,Japan
2408,4092 Furth Circle,Suite 400,NYC,NY,10022,USA,
2409,5677 Strong St.,,San Rafael,CA,97562,USA,
2410,"C/ Moralzarzal, 86",,Madrid,,28034,Spain,EMEA
2411,"Bronz Sok., Bronz Apt. 3/6 Tesvikiye",,Singapore,,79903,Singapore,Japan
2412,Strada Provinciale 124,,Reggio Emilia,,42100,Italy,EMEA
2413,4575 Hillside Dr.,,New Bedford,MA,50553,USA,
2414,567 North Pendale Street,,New Haven,CT,97823,USA,
2415,"2, rue du Commerce",,Lyon,,69004,France,EMEA
2416,25 Maiden Lane,Floor No. 4,Dublin,,2,Ireland,EMEA
2417,Lyonerstr. 34,,Frankfurt,,60528,Germany,EMEA
2418,"Software Engineering Center, SEC Oy",,Espoo,,FIN-02271,Finland,EMEA
2419,7586 Pompton St.,,Allentown,PA,70267,USA,
2420,5677 Strong St.,,San Rafael,CA,97562,USA,
2421,897 Long Airport Avenue,,NYC,NY,10022,USA,
2422,Fauntleroy Circus,,Manchester,,EC2 5NT,UK,EMEA
2423,Smagsloget 45,,Aaarhus,,8200,Denmark,EMEA
2424,Erling Skakkes gate 78,,Stavern,,4110,Norway,EMEA
2425,5905 Pompton St.,Suite 750,NYC,NY,10022,USA,
2426,"C/ Moralzarzal, 86",,Madrid,,28034,Spain,EMEA
2427,59 rue de l'Abbaye,,Reims,,51100,France,EMEA
2428,2-2-8 Roppongi,,Minato-ku,Tokyo,106-0032,Japan,Japan
2429,"C/ Moralzarzal, 86",,Madrid,,28034,Spain,EMEA
2430,27 rue du Colonel Pierre Avia,,Paris,,75508,France,EMEA
2431,25593 South Bay Ln.,,Bridgewater,CT,97562,USA,
2432,15 McCallum Street - NatWest Center #13-03,,Makati City,,1227 MM,Philippines,Japan
2433,59 rue de l'Abbaye,,Reims,,51100,France,EMEA
2434,5677 Strong St.,,San Rafael,CA,97562,USA,
2435,78934 Hillside Dr.,,Pasadena,CA,90003,USA,
2436,7734 Strong St.,,San Francisco,CA,,USA,
51,201 Miller Street,Level 15,North Sydney,NSW,2060,Australia,APAC
2438,"184, chausse de Tournai",,Lille,,59000,France,EMEA
2439,"C/ Moralzarzal, 86",,Madrid,,28034,Spain,EMEA
2440,"25, rue Lauriston",,Paris,,75016,France,EMEA
2441,"184, chausse de Tournai",,Lille,,59000,France,EMEA
2442,2678 Kingston Rd.,Suite 101,NYC,NY,10022,USA,
2443,"25, rue Lauriston",,Paris,,75016,France,EMEA
2444,8616 Spinnaker Dr.,,Boston,MA,51003,USA,
2445,7635 Spinnaker Dr.,,Brickhaven,MA,58339,USA,
2446,39323 Spinnaker Dr.,,Cambridge,MA,51247,USA,
2447,Keskuskatu 45,,Helsinki,,21240,Finland,EMEA
2448,Erling Skakkes gate 78,,Stavern,,4110,Norway,EMEA
2449,5290 North Pendale Street,Suite 200,NYC,NY,10022,USA,
2450,11328 Douglas Av.,,Philadelphia,PA,71270,USA,
2451,Geislweg 14,,Salzburg,,5020,Austria,EMEA
2452,27 rue du Colonel Pierre Avia,,Paris,,75508,France,EMEA
2453,4575 Hillside Dr.,,New Bedford,MA,50553,USA,
2454,"67, rue des Cinquante Otages",,Nantes,,44000,France,EMEA
2455,5677 Strong St.,,San Rafael,CA,97562,USA,
2456,Berkeley Gardens 12  Brewery,,Liverpool,,WX1 6LT,UK,EMEA
2457,Vinb'ltet 34,,Kobenhavn,,1734,Denmark,EMEA
2458,Geislweg 14,,Salzburg,,5020,Austria,EMEA
2459,35 King George,,London,,WX3 6FW,UK,EMEA
2460,5677 Strong St.,,San Rafael,CA,97562,USA,
2461,"C/ Moralzarzal, 86",,Madrid,,28034,Spain,EMEA
2462,?kergatan 24,,Boras,,S-844 67,Sweden,EMEA
2463,"Merchants House, 27-30 Merchant's Quay",,Madrid,,28023,Spain,EMEA
2464,4575 Hillside Dr.,,New Bedford,MA,50553,USA,
2465,"Rambla de Catalu¤a, 23",,Barcelona,,8022,Spain,EMEA
2466,"2, rue du Commerce",,Lyon,,69004,France,EMEA
2467,361 Furth Circle,,San Diego,CA,91217,USA,
2468,7476 Moss Rd.,,Newark,NJ,94019,USA,
2469,897 Long Airport Avenue,,NYC,NY,10022,USA,
2470,43 rue St. Laurent,,Montreal,Quebec,H1J 1C3,Canada,
2471,Rue Joseph-Bens 532,,Bruxelles,,B-1180,Belgium,EMEA
2472,23 Tsawassen Blvd.,,Tsawassen,BC,T2F 8M4,Canada,
2473,8616 Spinnaker Dr.,,Boston,MA,51003,USA,
2474,Fauntleroy Circus,,Manchester,,EC2 5NT,UK,EMEA
2475,"67, rue des Cinquante Otages",,Nantes,,44000,France,EMEA
2476,Berguvsv„gen  8,,Lule,,S-958 22,Sweden,EMEA
2477,2-2-8 Roppongi,,Minato-ku,Tokyo,106-0032,Japan,Japan
2478,"C/ Moralzarzal, 86",,Madrid,,28034,Spain,EMEA
2479,Torikatu 38,,Oulu,,90110,Finland,EMEA
2480,5677 Strong St.,,San Rafael,CA,97562,USA,
2481,5677 Strong St.,,San Rafael,CA,97562,USA,
2482,8616 Spinnaker Dr.,,Boston,MA,51003,USA,
2483,Via Ludovico il Moro 22,,Bergamo,,24100,Italy,EMEA
10,636 St Kilda Road,Level 3,Melbourne,Victoria,3004,Australia,APAC
2485,"C/ Moralzarzal, 86",,Madrid,,28034,Spain,EMEA
2486,4575 Hillside Dr.,,New Bedford,MA,50553,USA,
2487,"C/ Moralzarzal, 86",,Madrid,,28034,Spain,EMEA
2488,9408 Furth Circle,,Burlingame,CA,94217,USA,
2489,3675 Furth Circle,,Burbank,CA,94019,USA,
2490,"Dojima Avanza 4F, 1-6-20 Dojima, Kita-ku",,Osaka,Osaka,530-0003,Japan,Japan
10,636 St Kilda Road,Level 3,Melbourne,Victoria,3004,Australia,APAC
2492,23 Tsawassen Blvd.,,Tsawassen,BC,T2F 8M4,Canada,
2493,3086 Ingle Ln.,,San Jose,CA,94217,USA,
2494,"C/ Moralzarzal, 86",,Madrid,,28034,Spain,EMEA
2495,"67, rue des Cinquante Otages",,Nantes,,44000,France,EMEA
2496,"Drammensveien 126 A, PB 744 Sentrum",,Oslo,,N 0106,Norway,EMEA
2497,Hansastr. 15,,Munich,,80686,Germany,EMEA
2498,3758 North Pendale Street,,White Plains,NY,24067,USA,
2499,Garden House Crowther Way,,Cowes,Isle of Wight,PO31 7PJ,UK,EMEA
2500,Via Ludovico il Moro 22,,Bergamo,,24100,Italy,EMEA
2501,"Rambla de Catalu¤a, 23",,Barcelona,,8022,Spain,EMEA
2502,2440 Pompton St.,,Glendale,CT,97561,USA,
21,"Monitor Money Building, 815 Pacific Hwy",Level 6,Chatswood,NSW,2067,Australia,APAC
2504,"67, rue des Cinquante Otages",,Nantes,,44000,France,EMEA
2505,1785 First Street,,New Bedford,MA,50553,USA,
2506,59 rue de l'Abbaye,,Reims,,51100,France,EMEA
2507,7476 Moss Rd.,,Newark,NJ,94019,USA,
2508,Strada Provinciale 124,,Reggio Emilia,,42100,Italy,EMEA
2509,Vinb'ltet 34,,Kobenhavn,,1734,Denmark,EMEA
2510,"Bronz Sok., Bronz Apt. 3/6 Tesvikiye",,Singapore,,79903,Singapore,Japan
2511,"C/ Moralzarzal, 86",,Madrid,,28034,Spain,EMEA
2512,5677 Strong St.,,San Rafael,CA,97562,USA,
2513,"C/ Moralzarzal, 86",,Madrid,,28034,Spain,EMEA
2514,1785 First Street,,New Bedford,MA,50553,USA,
2515,"Merchants House, 27-30 Merchant's Quay",,Madrid,,28023,Spain,EMEA
2516,4575 Hillside Dr.,,New Bedford,MA,50553,USA,
2517,567 North Pendale Street,,New Haven,CT,97823,USA,
2518,"2, rue du Commerce",,Lyon,,69004,France,EMEA
2519,Rue Joseph-Bens 532,,Bruxelles,,B-1180,Belgium,EMEA
2520,Garden House Crowther Way,,Cowes,Isle of Wight,PO31 7PJ,UK,EMEA
2521,897 Long Airport Avenue,,NYC,NY,10022,USA,
2522,Rue Joseph-Bens 532,,Bruxelles,,B-1180,Belgium,EMEA
2523,5677 Strong St.,,San Rafael,CA,97562,USA,
2524,Via Monte Bianco 34,,Torino,,10100,Italy,EMEA
2525,Fauntleroy Circus,,Manchester,,EC2 5NT,UK,EMEA
2526,Smagsloget 45,,Aaarhus,,8200,Denmark,EMEA
2527,Vinb'ltet 34,,Kobenhavn,,1734,Denmark,EMEA
2528,5905 Pompton St.,Suite 750,NYC,NY,10022,USA,
2529,"C/ Moralzarzal, 86",,Madrid,,28034,Spain,EMEA
2530,2-2-8 Roppongi,,Minato-ku,Tokyo,106-0032,Japan,Japan
2531,7734 Strong St.,,San Francisco,CA,,USA,
2532,1 rue Alsace-Lorraine,,Toulouse,,31000,France,EMEA
2533,8616 Spinnaker Dr.,,Boston,MA,51003,USA,
2534,Via Ludovico il Moro 22,,Bergamo,,24100,Italy,EMEA
2535,Geislweg 14,,Salzburg,,5020,Austria,EMEA
2536,2440 Pompton St.,,Glendale,CT,97561,USA,
2537,4575 Hillside Dr.,,New Bedford,MA,50553,USA,
2538,Keskuskatu 45,,Helsinki,,21240,Finland,EMEA
2539,?kergatan 24,,Boras,,S-844 67,Sweden,EMEA
2540,1 rue Alsace-Lorraine,,Toulouse,,31000,France,EMEA
2541,120 Hanover Sq.,,London,,WA1 1DP,UK,EMEA
2542,"Rambla de Catalu¤a, 23",,Barcelona,,8022,Spain,EMEA
2543,6047 Douglas Av.,,Los Angeles,CA,,USA,
2544,361 Furth Circle,,San Diego,CA,91217,USA,
2545,4658 Baden Av.,,Cambridge,MA,51247,USA,
2546,"C/ Moralzarzal, 86",,Madrid,,28034,Spain,EMEA
2547,7825 Douglas Av.,,Brickhaven,MA,58339,USA,
2548,23 Tsawassen Blvd.,,Tsawassen,BC,T2F 8M4,Canada,
2549,Hansastr. 15,,Munich,,80686,Germany,EMEA
2550,782 First Street,,Philadelphia,PA,71270,USA,
2551,Garden House Crowther Way,,Cowes,Isle of Wight,PO31 7PJ,UK,EMEA
2552,Via Ludovico il Moro 22,,Bergamo,,24100,Italy,EMEA
2553,2-2-8 Roppongi,,Minato-ku,Tokyo,106-0032,Japan,Japan
2554,16780 Pompton St.,,Brickhaven,MA,58339,USA,
21,"Monitor Money Building, 815 Pacific Hwy",Level 6,Chatswood,NSW,2067,Australia,APAC
2556,Torikatu 38,,Oulu,,90110,Finland,EMEA
2557,"C/ Moralzarzal, 86",,Madrid,,28034,Spain,EMEA
2558,59 rue de l'Abbaye,,Reims,,51100,France,EMEA
2559,3086 Ingle Ln.,,San Jose,CA,94217,USA,
2560,7 Allen Street,,Glen Waverly,Victoria,3150,Australia,APAC
2561,Via Ludovico il Moro 22,,Bergamo,,24100,Italy,EMEA
10,636 St Kilda Road,Level 3,Melbourne,Victoria,3004,Australia,APAC
2563,2440 Pompton St.,,Glendale,CT,97561,USA,
2564,4575 Hillside Dr.,,New Bedford,MA,50553,USA,
2565,Keskuskatu 45,,Helsinki,,21240,Finland,EMEA
2566,9408 Furth Circle,,Burlingame,CA,94217,USA,
2567,1 rue Alsace-Lorraine,,Toulouse,,31000,France,EMEA
2568,15 McCallum Street - NatWest Center #13-03,,Makati City,,1227 MM,Philippines,Japan
2569,"Dojima Avanza 4F, 1-6-20 Dojima, Kita-ku",,Osaka,Osaka,530-0003,Japan,Japan
2570,361 Furth Circle,,San Diego,CA,91217,USA,
2571,23 Tsawassen Blvd.,,Tsawassen,BC,T2F 8M4,Canada,
2572,3086 Ingle Ln.,,San Jose,CA,94217,USA,
2573,"C/ Moralzarzal, 86",,Madrid,,28034,Spain,EMEA
2574,"67, rue des Cinquante Otages",,Nantes,,44000,France,EMEA
2575,"Drammensveien 126 A, PB 744 Sentrum",,Oslo,,N 0106,Norway,EMEA
2576,Hansastr. 15,,Munich,,80686,Germany,EMEA
2577,3758 North Pendale Street,,White Plains,NY,24067,USA,
2578,Garden House Crowther Way,,Cowes,Isle of Wight,PO31 7PJ,UK,EMEA
2579,Via Ludovico il Moro 22,,Bergamo,,24100,Italy,EMEA
2580,"Rambla de Catalu¤a, 23",,Barcelona,,8022,Spain,EMEA
2581,16780 Pompton St.,,Brickhaven,MA,58339,USA,
21,"Monitor Money Building, 815 Pacific Hwy",Level 6,Chatswood,NSW,2067,Australia,APAC
2583,"67, rue des Cinquante Otages",,Nantes,,44000,France,EMEA
2584,"C/ Moralzarzal, 86",,Madrid,,28034,Spain,EMEA
2585,59 rue de l'Abbaye,,Reims,,51100,France,EMEA
2586,7476 Moss Rd.,,Newark,NJ,94019,USA,
2587,Strada Provinciale 124,,Reggio Emilia,,42100,Italy,EMEA
2588,Vinb'ltet 34,,Kobenhavn,,1734,Denmark,EMEA
2589,Geislweg 14,,Salzburg,,5020,Austria,EMEA
2590,35 King George,,London,,WX3 6FW,UK,EMEA
2591,4575 Hillside Dr.,,New Bedford,MA,50553,USA,
2592,4097 Douglas Av.,,Glendale,CA,92561,USA,
2593,?kergatan 24,,Boras,,S-844 67,Sweden,EMEA
2594,"Merchants House, 27-30 Merchant's Quay",,Madrid,,28023,Spain,EMEA
2595,4575 Hillside Dr.,,New Bedford,MA,50553,USA,
2596,"Rambla de Catalu¤a, 23",,Barcelona,,8022,Spain,EMEA
2597,"2, rue du Commerce",,Lyon,,69004,France,EMEA
2598,361 Furth Circle,,San Diego,CA,91217,USA,
2599,7476 Moss Rd.,,Newark,NJ,94019,USA,
2600,897 Long Airport Avenue,,NYC,NY,10022,USA,
2601,43 rue St. Laurent,,Montreal,Quebec,H1J 1C3,Canada,
2602,Rue Joseph-Bens 532,,Bruxelles,,B-1180,Belgium,EMEA
2603,23 Tsawassen Blvd.,,Tsawassen,BC,T2F 8M4,Canada,
2604,8616 Spinnaker Dr.,,Boston,MA,51003,USA,
2605,Fauntleroy Circus,,Manchester,,EC2 5NT,UK,EMEA
2606,Garden House Crowther Way,,Cowes,Isle of Wight,PO31 7PJ,UK,EMEA
2607,Vinb'ltet 34,,Kobenhavn,,1734,Denmark,EMEA
2608,2-2-8 Roppongi,,Minato-ku,Tokyo,106-0032,Japan,Japan
2609,"C/ Moralzarzal, 86",,Madrid,,28034,Spain,EMEA
2610,Torikatu 38,,Oulu,,90110,Finland,EMEA
2611,"C/ Moralzarzal, 86",,Madrid,,28034,Spain,EMEA
2612,1 rue Alsace-Lorraine,,Toulouse,,31000,France,EMEA
2613,8616 Spinnaker Dr.,,Boston,MA,51003,USA,
2614,Erling Skakkes gate 78,,Stavern,,4110,Norway,EMEA
2615,"265, boulevard Charonne",,Paris,,75012,France,EMEA
2616,"C/ Araquil, 67",,Madrid,,28023,Spain,EMEA
2617,9408 Furth Circle,,Burlingame,CA,94217,USA,
2618,"Bronz Sok., Bronz Apt. 3/6 Tesvikiye",,Singapore,,79903,Singapore,Japan
2619,Kirchgasse 6,,Graz,,8010,Austria,EMEA
2620,35 King George,,London,,WX3 6FW,UK,EMEA
2621,782 First Street,,Philadelphia,PA,71270,USA,
2622,"2, rue du Commerce",,Lyon,,69004,France,EMEA
2623,1900 Oak St.,,Vancouver,BC,V3F 2K1,Canada,
2624,Village Close - 106 Linden Road Sandown,2nd Floor,Singapore,,69045,Singapore,APAC
2625,5677 Strong St.,,San Rafael,CA,97562,USA,
2626,567 North Pendale Street,,New Haven,CT,97823,USA,
2627,2-2-8 Roppongi,,Minato-ku,Tokyo,106-0032,Japan,Japan
21,"Monitor Money Building, 815 Pacific Hwy",Level 6,Chatswood,NSW,2067,Australia,APAC
2629,7586 Pompton St.,,Allentown,PA,70267,USA,
2630,?kergatan 24,,Boras,,S-844 67,Sweden,EMEA
2631,"67, avenue de l'Europe",,Versailles,,78000,France,EMEA
2632,1900 Oak St.,,Vancouver,BC,V3F 2K1,Canada,
2633,2678 Kingston Rd.,Suite 101,NYC,NY,10022,USA,
2634,"265, boulevard Charonne",,Paris,,75012,France,EMEA
2635,"C/ Araquil, 67",,Madrid,,28023,Spain,EMEA
2636,"C/ Moralzarzal, 86",,Madrid,,28034,Spain,EMEA
2637,5677 Strong St.,,San Rafael,CA,97562,USA,
2638,5677 Strong St.,,San Rafael,CA,97562,USA,
2639,43 rue St. Laurent,,Montreal,Quebec,H1J 1C3,Canada,
2640,"C/ Moralzarzal, 86",,Madrid,,28034,Spain,EMEA
2641,Via Ludovico il Moro 22,,Bergamo,,24100,Italy,EMEA
10,636 St Kilda Road,Level 3,Melbourne,Victoria,3004,Australia,APAC
2643,"C/ Moralzarzal, 86",,Madrid,,28034,Spain,EMEA
2644,78934 Hillside Dr.,,Pasadena,CA,90003,USA,
2645,9408 Furth Circle,,Burlingame,CA,94217,USA,
2646,"Drammen 121, PR 744 Sentrum",,Bergen,,N 5804,Norway,EMEA
2647,"Dojima Avanza 4F, 1-6-20 Dojima, Kita-ku",,Osaka,Osaka,530-0003,Japan,Japan
10,636 St Kilda Road,Level 3,Melbourne,Victoria,3004,Australia,APAC
2649,23 Tsawassen Blvd.,,Tsawassen,BC,T2F 8M4,Canada,
2650,3086 Ingle Ln.,,San Jose,CA,94217,USA,
2651,25593 South Bay Ln.,,Bridgewater,CT,97562,USA,
2652,"67, rue des Cinquante Otages",,Nantes,,44000,France,EMEA
2653,39323 Spinnaker Dr.,,Cambridge,MA,51247,USA,
2654,25 Maiden Lane,Floor No. 4,Dublin,,2,Ireland,EMEA
2655,3758 North Pendale Street,,White Plains,NY,24067,USA,
2656,7586 Pompton St.,,Allentown,PA,70267,USA,
2657,Via Ludovico il Moro 22,,Bergamo,,24100,Italy,EMEA
2658,"Rambla de Catalu¤a, 23",,Barcelona,,8022,Spain,EMEA
2659,2440 Pompton St.,,Glendale,CT,97561,USA,
21,"Monitor Money Building, 815 Pacific Hwy",Level 6,Chatswood,NSW,2067,Australia,APAC
2661,"67, rue des Cinquante Otages",,Nantes,,44000,France,EMEA
2662,1785 First Street,,New Bedford,MA,50553,USA,
2663,59 rue de l'Abbaye,,Reims,,51100,France,EMEA
2664,7476 Moss Rd.,,Newark,NJ,94019,USA,
2665,Strada Provinciale 124,,Reggio Emilia,,42100,Italy,EMEA
2666,Via Ludovico il Moro 22,,Bergamo,,24100,Italy,EMEA
10,636 St Kilda Road,Level 3,Melbourne,Victoria,3004,Australia,APAC
2668,4575 Hillside Dr.,,New Bedford,MA,50553,USA,
2669,Keskuskatu 45,,Helsinki,,21240,Finland,EMEA
2670,9408 Furth Circle,,Burlingame,CA,94217,USA,
2671,3675 Furth Circle,,Burbank,CA,94019,USA,
2672,"Dojima Avanza 4F, 1-6-20 Dojima, Kita-ku",,Osaka,Osaka,530-0003,Japan,Japan
10,636 St Kilda Road,Level 3,Melbourne,Victoria,3004,Australia,APAC
2674,23 Tsawassen Blvd.,,Tsawassen,BC,T2F 8M4,Canada,
2675,3086 Ingle Ln.,,San Jose,CA,94217,USA,
2676,"C/ Moralzarzal, 86",,Madrid,,28034,Spain,EMEA
2677,"67, rue des Cinquante Otages",,Nantes,,44000,France,EMEA
2678,"Drammensveien 126 A, PB 744 Sentrum",,Oslo,,N 0106,Norway,EMEA
2679,Hansastr. 15,,Munich,,80686,Germany,EMEA
2680,3758 North Pendale Street,,White Plains,NY,24067,USA,
2681,Garden House Crowther Way,,Cowes,Isle of Wight,PO31 7PJ,UK,EMEA
2682,Via Ludovico il Moro 22,,Bergamo,,24100,Italy,EMEA
2683,Geislweg 14,,Salzburg,,5020,Austria,EMEA
2684,2440 Pompton St.,,Glendale,CT,97561,USA,
21,"Monitor Money Building, 815 Pacific Hwy",Level 6,Chatswood,NSW,2067,Australia,APAC
2686,"67, rue des Cinquante Otages",,Nantes,,44000,France,EMEA
2687,"C/ Moralzarzal, 86",,Madrid,,28034,Spain,EMEA
2688,59 rue de l'Abbaye,,Reims,,51100,France,EMEA
2689,7476 Moss Rd.,,Newark,NJ,94019,USA,
2690,Strada Provinciale 124,,Reggio Emilia,,42100,Italy,EMEA
2691,Vinb'ltet 34,,Kobenhavn,,1734,Denmark,EMEA
2692,"Rambla de Catalu¤a, 23",,Barcelona,,8022,Spain,EMEA
2693,35 King George,,London,,WX3 6FW,UK,EMEA
2694,5677 Strong St.,,San Rafael,CA,97562,USA,
2695,"C/ Moralzarzal, 86",,Madrid,,28034,Spain,EMEA
2696,?kergatan 24,,Boras,,S-844 67,Sweden,EMEA
2697,"Merchants House, 27-30 Merchant's Quay",,Madrid,,28023,Spain,EMEA
2698,4575 Hillside Dr.,,New Bedford,MA,50553,USA,
2699,"Rambla de Catalu¤a, 23",,Barcelona,,8022,Spain,EMEA
2700,"2, rue du Commerce",,Lyon,,69004,France,EMEA
2701,361 Furth Circle,,San Diego,CA,91217,USA,
2702,Garden House Crowther Way,,Cowes,Isle of Wight,PO31 7PJ,UK,EMEA
2703,897 Long Airport Avenue,,NYC,NY,10022,USA,
2704,43 rue St. Laurent,,Montreal,Quebec,H1J 1C3,Canada,
2705,Rue Joseph-Bens 532,,Bruxelles,,B-1180,Belgium,EMEA
2706,23 Tsawassen Blvd.,,Tsawassen,BC,T2F 8M4,Canada,
2707,8616 Spinnaker Dr.,,Boston,MA,51003,USA,
2708,Fauntleroy Circus,,Manchester,,EC2 5NT,UK,EMEA
2709,"67, rue des Cinquante Otages",,Nantes,,44000,France,EMEA
2710,Vinb'ltet 34,,Kobenhavn,,1734,Denmark,EMEA
2711,5905 Pompton St.,Suite 750,NYC,NY,10022,USA,
2712,"C/ Moralzarzal, 86",,Madrid,,28034,Spain,EMEA
2713,Torikatu 38,,Oulu,,90110,Finland,EMEA
2714,"C/ Moralzarzal, 86",,Madrid,,28034,Spain,EMEA
2715,1 rue Alsace-Lorraine,,Toulouse,,31000,France,EMEA
2716,8616 Spinnaker Dr.,,Boston,MA,51003,USA,
2717,Vinb'ltet 34,,Kobenhavn,,1734,Denmark,EMEA
2718,"Bronz Sok., Bronz Apt. 3/6 Tesvikiye",,Singapore,,79903,Singapore,Japan
2719,35 King George,,London,,WX3 6FW,UK,EMEA
2720,5677 Strong St.,,San Rafael,CA,97562,USA,
2721,"C/ Moralzarzal, 86",,Madrid,,28034,Spain,EMEA
2722,?kergatan 24,,Boras,,S-844 67,Sweden,EMEA
2723,"Merchants House, 27-30 Merchant's Quay",,Madrid,,28023,Spain,EMEA
2724,4575 Hillside Dr.,,New Bedford,MA,50553,USA,
2725,"Rambla de Catalu¤a, 23",,Barcelona,,8022,Spain,EMEA
2726,"2, rue du Commerce",,Lyon,,69004,France,EMEA
2727,361 Furth Circle,,San Diego,CA,91217,USA,
2728,Garden House Crowther Way,,Cowes,Isle of Wight,PO31 7PJ,UK,EMEA
2729,897 Long Airport Avenue,,NYC,NY,10022,USA,
2730,43 rue St. Laurent,,Montreal,Quebec,H1J 1C3,Canada,
2731,Rue Joseph-Bens 532,,Bruxelles,,B-1180,Belgium,EMEA
2732,23 Tsawassen Blvd.,,Tsawassen,BC,T2F 8M4,Canada,
2733,7635 Spinnaker Dr.,,Brickhaven,MA,58339,USA,
2734,Fauntleroy Circus,,Manchester,,EC2 5NT,UK,EMEA
2735,"67, rue des Cinquante Otages",,Nantes,,44000,France,EMEA
2736,Vinb'ltet 34,,Kobenhavn,,1734,Denmark,EMEA
2737,5905 Pompton St.,Suite 750,NYC,NY,10022,USA,
2738,"C/ Moralzarzal, 86",,Madrid,,28034,Spain,EMEA
2739,Torikatu 38,,Oulu,,90110,Finland,EMEA
2740,"C/ Moralzarzal, 86",,Madrid,,28034,Spain,EMEA
2741,1 rue Alsace-Lorraine,,Toulouse,,31000,France,EMEA
2742,8616 Spinnaker Dr.,,Boston,MA,51003,USA,
2743,Via Ludovico il Moro 22,,Bergamo,,24100,Italy,EMEA
2744,Geislweg 14,,Salzburg,,5020,Austria,EMEA
2745,2440 Pompton St.,,Glendale,CT,97561,USA,
2746,4575 Hillside Dr.,,New Bedford,MA,50553,USA,
2747,Keskuskatu 45,,Helsinki,,21240,Finland,EMEA
2748,9408 Furth Circle,,Burlingame,CA,94217,USA,
2749,1 rue Alsace-Lorraine,,Toulouse,,31000,France,EMEA
2750,15 McCallum Street - NatWest Center #13-03,,Makati City,,1227 MM,Philippines,Japan
2751,"Dojima Avanza 4F, 1-6-20 Dojima, Kita-ku",,Osaka,Osaka,530-0003,Japan,Japan
2752,361 Furth Circle,,San Diego,CA,91217,USA,
2753,23 Tsawassen Blvd.,,Tsawassen,BC,T2F 8M4,Canada,
2754,3086 Ingle Ln.,,San Jose,CA,94217,USA,
2755,"C/ Moralzarzal, 86",,Madrid,,28034,Spain,EMEA
2756,"67, rue des Cinquante Otages",,Nantes,,44000,France,EMEA
2757,"Drammensveien 126 A, PB 744 Sentrum",,Oslo,,N 0106,Norway,EMEA
2758,Hansastr. 15,,Munich,,80686,Germany,EMEA
2759,3758 North Pendale Street,,White Plains,NY,24067,USA,
2760,Garden House Crowther Way,,Cowes,Isle of Wight,PO31 7PJ,UK,EMEA
2761,Via Ludovico il Moro 22,,Bergamo,,24100,Italy,EMEA
2762,2-2-8 Roppongi,,Minato-ku,Tokyo,106-0032,Japan,Japan
2763,16780 Pompton St.,,Brickhaven,MA,58339,USA,
21,"Monitor Money Building, 815 Pacific Hwy",Level 6,Chatswood,NSW,2067,Australia,APAC
2765,Torikatu 38,,Oulu,,90110,Finland,EMEA
2766,"C/ Moralzarzal, 86",,Madrid,,28034,Spain,EMEA
2767,59 rue de l'Abbaye,,Reims,,51100,France,EMEA
2768,7476 Moss Rd.,,Newark,NJ,94019,USA,
2769,Strada Provinciale 124,,Reggio Emilia,,42100,Italy,EMEA
2770,Via Ludovico il Moro 22,,Bergamo,,24100,Italy,EMEA
2771,Geislweg 14,,Salzburg,,5020,Austria,EMEA
2772,2440 Pompton St.,,Glendale,CT,97561,USA,
2773,4575 Hillside Dr.,,New Bedford,MA,50553,USA,
2774,Keskuskatu 45,,Helsinki,,21240,Finland,EMEA
2775,?kergatan 24,,Boras,,S-844 67,Sweden,EMEA
2776,1 rue Alsace-Lorraine,,Toulouse,,31000,France,EMEA
2777,120 Hanover Sq.,,London,,WA1 1DP,UK,EMEA
2778,"Rambla de Catalu¤a, 23",,Barcelona,,8022,Spain,EMEA
2779,6047 Douglas Av.,,Los Angeles,CA,,USA,
2780,361 Furth Circle,,San Diego,CA,91217,USA,
2781,4658 Baden Av.,,Cambridge,MA,51247,USA,
2782,"C/ Moralzarzal, 86",,Madrid,,28034,Spain,EMEA
2783,7825 Douglas Av.,,Brickhaven,MA,58339,USA,
2784,23 Tsawassen Blvd.,,Tsawassen,BC,T2F 8M4,Canada,
2785,Hansastr. 15,,Munich,,80686,Germany,EMEA
2786,782 First Street,,Philadelphia,PA,71270,USA,
2787,Garden House Crowther Way,,Cowes,Isle of Wight,PO31 7PJ,UK,EMEA
2788,897 Long Airport Avenue,,NYC,NY,10022,USA,
2789,2-2-8 Roppongi,,Minato-ku,Tokyo,106-0032,Japan,Japan
2790,16780 Pompton St.,,Brickhaven,MA,58339,USA,
21,"Monitor Money Building, 815 Pacific Hwy",Level 6,Chatswood,NSW,2067,Australia,APAC
2792,Torikatu 38,,Oulu,,90110,Finland,EMEA
2793,"C/ Moralzarzal, 86",,Madrid,,28034,Spain,EMEA
2794,59 rue de l'Abbaye,,Reims,,51100,France,EMEA
2795,3086 Ingle Ln.,,San Jose,CA,94217,USA,
2796,7 Allen Street,,Glen Waverly,Victoria,3150,Australia,APAC
2797,Vinb'ltet 34,,Kobenhavn,,1734,Denmark,EMEA
2798,"Bronz Sok., Bronz Apt. 3/6 Tesvikiye",,Singapore,,79903,Singapore,Japan
2799,35 King George,,London,,WX3 6FW,UK,EMEA
2800,5677 Strong St.,,San Rafael,CA,97562,USA,
2801,"C/ Moralzarzal, 86",,Madrid,,28034,Spain,EMEA
2802,?kergatan 24,,Boras,,S-844 67,Sweden,EMEA
2803,"Merchants House, 27-30 Merchant's Quay",,Madrid,,28023,Spain,EMEA
2804,4575 Hillside Dr.,,New Bedford,MA,50553,USA,
2805,"Rambla de Catalu¤a, 23",,Barcelona,,8022,Spain,EMEA
2806,"2, rue du Commerce",,Lyon,,69004,France,EMEA
2807,361 Furth Circle,,San Diego,CA,91217,USA,
2808,Garden House Crowther Way,,Cowes,Isle of Wight,PO31 7PJ,UK,EMEA
2809,897 Long Airport Avenue,,NYC,NY,10022,USA,
2810,43 rue St. Laurent,,Montreal,Quebec,H1J 1C3,Canada,
2811,Rue Joseph-Bens 532,,Bruxelles,,B-1180,Belgium,EMEA
2812,23 Tsawassen Blvd.,,Tsawassen,BC,T2F 8M4,Canada,
2813,Via Monte Bianco 34,,Torino,,10100,Italy,EMEA
2814,Fauntleroy Circus,,Manchester,,EC2 5NT,UK,EMEA
2815,"67, rue des Cinquante Otages",,Nantes,,44000,France,EMEA
2816,Vinb'ltet 34,,Kobenhavn,,1734,Denmark,EMEA
2817,5905 Pompton St.,Suite 750,NYC,NY,10022,USA,
2818,"C/ Moralzarzal, 86",,Madrid,,28034,Spain,EMEA
2819,Torikatu 38,,Oulu,,90110,Finland,EMEA
2820,"C/ Moralzarzal, 86",,Madrid,,28034,Spain,EMEA
2821,1 rue Alsace-Lorraine,,Toulouse,,31000,France,EMEA
2822,8616 Spinnaker Dr.,,Boston,MA,51003,USA,
